{"type":"FeatureCollection","features":[{"type":"Feature","properties":{"reg_name":"Austria"},"geometry":{"type":"Polygon","coordinates":[[[10.45479,47.55641],[10.43907,47.52413],[10.4425,47.51939],[10.44088,47.5141],[10.43644,47.51015],[10.43529,47.50689],[10.43165,47.50437],[10.43778,47.49175],[10.44054,47.49003],[10.44063,47.48714],[10.44284,47.4853],[10.4461,47.48467],[10.45183,47.48638],[10.45787,47.48317],[10.46408,47.48336],[10.46403,47.48098],[10.46832,47.47771],[10.46699,47.47411],[10.47035,47.46935],[10.46581,47.46447],[10.46859,47.45941],[10.46623,47.45354],[10.46748,47.45114],[10.47066,47.44905],[10.47061,47.44536],[10.4735,47.44368],[10.47236,47.44135],[10.47353,47.43731],[10.47633,47.43337],[10.47551,47.43207],[10.4716,47.43251],[10.45955,47.42873],[10.45647,47.4241],[10.45653,47.41981],[10.44686,47.41531],[10.43889,47.41414],[10.4365,47.4116],[10.43612,47.40904],[10.43786,47.40744],[10.43168,47.40337],[10.43223,47.40185],[10.43467,47.40058],[10.43087,47.39713],[10.42956,47.39174],[10.4371,47.38095],[10.43124,47.38453],[10.42014,47.38524],[10.417,47.38065],[10.41375,47.37918],[10.4065,47.37772],[10.40086,47.37818],[10.3951,47.37621],[10.38908,47.37023],[10.38954,47.36784],[10.38601,47.36238],[10.38759,47.36039],[10.38678,47.35714],[10.3806,47.3532],[10.37784,47.3531],[10.37122,47.34591],[10.36849,47.34529],[10.36527,47.34209],[10.3572,47.33761],[10.35698,47.33398],[10.34615,47.3226],[10.34571,47.32046],[10.34896,47.31784],[10.3468,47.31578],[10.34102,47.31486],[10.33969,47.31112],[10.33066,47.3054],[10.32474,47.30444],[10.32411,47.30622],[10.31691,47.30735],[10.30175,47.29928],[10.29597,47.30049],[10.29392,47.29882],[10.29265,47.29506],[10.28523,47.2918],[10.28198,47.28832],[10.26612,47.28869],[10.2672,47.28737],[10.26645,47.28577],[10.26183,47.28485],[10.25986,47.28202],[10.24877,47.27969],[10.24589,47.28097],[10.24571,47.27961],[10.24259,47.27873],[10.23854,47.27251],[10.23266,47.2711],[10.22274,47.27642],[10.20793,47.27589],[10.20154,47.27748],[10.196,47.275],[10.19532,47.27371],[10.1876,47.27317],[10.17865,47.2707],[10.17434,47.27083],[10.17282,47.27471],[10.1755,47.27635],[10.17238,47.27966],[10.17623,47.28264],[10.17517,47.28984],[10.17748,47.29106],[10.17991,47.29661],[10.18202,47.29668],[10.18513,47.29452],[10.18997,47.29454],[10.19588,47.29781],[10.19939,47.29811],[10.20438,47.30303],[10.21107,47.30688],[10.21045,47.30774],[10.21206,47.31132],[10.21628,47.31165],[10.2112,47.31805],[10.21142,47.3196],[10.19982,47.32705],[10.20773,47.3329],[10.20792,47.33555],[10.20455,47.33735],[10.21752,47.35064],[10.2173,47.35495],[10.22493,47.35942],[10.2262,47.36281],[10.22929,47.36399],[10.22949,47.36667],[10.231,47.36866],[10.23748,47.37416],[10.232,47.37956],[10.23657,47.38245],[10.23008,47.38854],[10.22739,47.38952],[10.21891,47.3831],[10.21522,47.38262],[10.21291,47.38099],[10.20861,47.38356],[10.20017,47.38396],[10.19543,47.38994],[10.18757,47.39058],[10.18215,47.39302],[10.1817,47.39046],[10.18303,47.38867],[10.18161,47.38785],[10.17685,47.38586],[10.16971,47.38643],[10.16989,47.3719],[10.16618,47.36947],[10.14199,47.36778],[10.11964,47.37621],[10.10014,47.35536],[10.08315,47.39442],[10.08658,47.40005],[10.08197,47.40199],[10.07997,47.40494],[10.07803,47.40462],[10.07325,47.40672],[10.07075,47.40831],[10.07112,47.40978],[10.06943,47.41076],[10.0724,47.41187],[10.07254,47.41384],[10.07449,47.41534],[10.08575,47.41512],[10.09405,47.4175],[10.09599,47.41849],[10.09617,47.4228],[10.10589,47.42932],[10.09414,47.44111],[10.09335,47.44798],[10.0953,47.4505],[10.09195,47.45742],[10.09189,47.4596],[10.08984,47.46102],[10.08807,47.46054],[10.08801,47.45937],[10.08501,47.45966],[10.08088,47.45597],[10.07577,47.45696],[10.07027,47.45656],[10.0706,47.45804],[10.06866,47.46149],[10.06498,47.46424],[10.05376,47.46746],[10.05196,47.47163],[10.05483,47.47479],[10.0544,47.47654],[10.05297,47.47696],[10.04558,47.48547],[10.04746,47.48687],[10.04503,47.48825],[10.03772,47.48979],[10.02314,47.48468],[10.01667,47.48544],[10.01051,47.48241],[10.00106,47.48272],[9.99536,47.48687],[9.98765,47.49908],[9.99599,47.50339],[9.98988,47.50636],[9.98485,47.51159],[9.98147,47.51111],[9.97838,47.51415],[9.97194,47.51614],[9.97128,47.51814],[9.96553,47.52152],[9.96531,47.52362],[9.96805,47.52527],[9.9676,47.52754],[9.96868,47.52862],[9.96753,47.53096],[9.96556,47.53074],[9.96592,47.53422],[9.965,47.53604],[9.96622,47.53652],[9.96513,47.53866],[9.9673,47.53912],[9.96742,47.54196],[9.97106,47.54415],[9.97088,47.54646],[9.96833,47.54696],[9.96347,47.54291],[9.95914,47.54379],[9.96083,47.54209],[9.95978,47.53881],[9.96399,47.53534],[9.95921,47.53515],[9.94137,47.53884],[9.93381,47.53327],[9.92219,47.53026],[9.91805,47.53075],[9.91386,47.53318],[9.9069,47.54281],[9.89959,47.54538],[9.88939,47.54461],[9.88151,47.54876],[9.87538,47.54387],[9.87805,47.54241],[9.87832,47.53936],[9.87642,47.53557],[9.87415,47.5342],[9.87596,47.53259],[9.87476,47.52916],[9.86877,47.53267],[9.85877,47.53446],[9.85602,47.53675],[9.85398,47.54039],[9.84945,47.54261],[9.8447,47.54193],[9.83019,47.54498],[9.8284,47.54727],[9.81603,47.54832],[9.81534,47.55027],[9.81705,47.55191],[9.81713,47.55366],[9.82136,47.55563],[9.82624,47.56105],[9.82612,47.56325],[9.82343,47.56607],[9.82103,47.57148],[9.82608,47.57442],[9.82765,47.57927],[9.82756,47.5806],[9.82484,47.58157],[9.82409,47.58775],[9.81808,47.58951],[9.81456,47.58867],[9.80941,47.593],[9.8026,47.59656],[9.80019,47.59673],[9.796,47.59429],[9.79463,47.59504],[9.79171,47.59415],[9.78548,47.59428],[9.78443,47.5954],[9.78068,47.59465],[9.77726,47.59607],[9.77655,47.59419],[9.77229,47.58979],[9.76979,47.58926],[9.76962,47.58802],[9.76589,47.58973],[9.76628,47.586],[9.76368,47.58707],[9.76095,47.58419],[9.76222,47.58158],[9.75662,47.58035],[9.75565,47.5767],[9.75624,47.57296],[9.75196,47.57272],[9.74829,47.57114],[9.75233,47.56813],[9.74769,47.56503],[9.7472,47.56124],[9.74367,47.5594],[9.7438,47.55851],[9.74701,47.55771],[9.74734,47.55632],[9.74546,47.55532],[9.74197,47.55551],[9.74089,47.55241],[9.73548,47.54732],[9.7371,47.5367],[9.73593,47.53483],[9.73054,47.53469],[9.56206,47.50519],[9.56154,47.49922],[9.56322,47.49542],[9.58204,47.48376],[9.59338,47.46619],[9.59619,47.4634],[9.60104,47.46222],[9.60357,47.46286],[9.60531,47.46471],[9.60687,47.47045],[9.60928,47.47116],[9.61202,47.46989],[9.61718,47.4626],[9.62256,47.45811],[9.64527,47.45637],[9.65883,47.45323],[9.65968,47.452],[9.65824,47.44841],[9.64722,47.44063],[9.64459,47.43636],[9.64515,47.43305],[9.65058,47.4215],[9.65186,47.40524],[9.65462,47.40501],[9.66034,47.39816],[9.6721,47.39367],[9.67433,47.39076],[9.67339,47.38168],[9.66266,47.37169],[9.65078,47.36815],[9.63562,47.36798],[9.62651,47.36569],[9.6247,47.36675],[9.60529,47.35189],[9.59972,47.34577],[9.58823,47.31785],[9.58177,47.31173],[9.56582,47.30473],[9.55676,47.29905],[9.55489,47.29669],[9.55153,47.28738],[9.54639,47.28063],[9.53312,47.27357],[9.53095,47.27118],[9.53662,47.26656],[9.54001,47.26571],[9.5406,47.26337],[9.53973,47.26195],[9.55971,47.25106],[9.56744,47.24247],[9.56693,47.24069],[9.55827,47.23325],[9.55478,47.22709],[9.55197,47.22435],[9.55564,47.22439],[9.55562,47.22311],[9.55876,47.22471],[9.56212,47.22356],[9.5644,47.22124],[9.56877,47.22038],[9.57587,47.2143],[9.57869,47.20949],[9.5851,47.20594],[9.58136,47.20059],[9.58051,47.19636],[9.57281,47.19139],[9.57449,47.1787],[9.57334,47.17618],[9.56748,47.17379],[9.56484,47.17085],[9.57296,47.17013],[9.57966,47.17172],[9.59113,47.16527],[9.59696,47.16348],[9.60113,47.15941],[9.6004,47.15736],[9.60314,47.15459],[9.60307,47.15217],[9.60892,47.14835],[9.61419,47.14812],[9.62079,47.15223],[9.62187,47.15193],[9.62348,47.14772],[9.62607,47.14647],[9.62283,47.14198],[9.62523,47.13905],[9.62493,47.13321],[9.63521,47.12867],[9.63299,47.12552],[9.62541,47.11971],[9.62486,47.11514],[9.62104,47.11112],[9.6232,47.10856],[9.62871,47.10813],[9.62844,47.10605],[9.63458,47.10175],[9.63592,47.09682],[9.63557,47.0912],[9.63342,47.08682],[9.63375,47.08401],[9.62374,47.0831],[9.61889,47.07872],[9.61172,47.07999],[9.61071,47.07576],[9.61355,47.07198],[9.61365,47.07007],[9.61135,47.06742],[9.61191,47.06508],[9.60728,47.06135],[9.61743,47.0542],[9.62655,47.0519],[9.6329,47.05183],[9.63677,47.05228],[9.64155,47.0545],[9.64182,47.05656],[9.64529,47.06035],[9.65845,47.05876],[9.66463,47.06041],[9.67273,47.06026],[9.68208,47.06267],[9.68235,47.05942],[9.68843,47.0558],[9.6978,47.05296],[9.70183,47.05278],[9.70783,47.05438],[9.70882,47.05224],[9.70591,47.05092],[9.70725,47.04862],[9.71707,47.04543],[9.71845,47.04395],[9.72522,47.04459],[9.73835,47.04246],[9.74209,47.04325],[9.74248,47.04207],[9.74544,47.04168],[9.74555,47.03971],[9.74832,47.0375],[9.76332,47.03794],[9.76938,47.03958],[9.78516,47.03906],[9.78558,47.03731],[9.78989,47.03533],[9.79214,47.03226],[9.80165,47.02966],[9.80129,47.02872],[9.80781,47.02413],[9.81258,47.0223],[9.8157,47.02311],[9.82378,47.02043],[9.82594,47.01829],[9.82914,47.01731],[9.83101,47.01489],[9.83379,47.01509],[9.83637,47.0131],[9.83998,47.01322],[9.8384,47.01352],[9.84126,47.01569],[9.85298,47.01698],[9.85721,47.01937],[9.86,47.02378],[9.86569,47.02214],[9.87775,47.02127],[9.87966,47.02012],[9.88061,47.01779],[9.87141,47.01363],[9.87228,47.01077],[9.87095,47.01022],[9.87282,47.00912],[9.87351,47.00692],[9.88904,47.00129],[9.88977,46.99472],[9.89256,46.99092],[9.89138,46.98891],[9.88507,46.98603],[9.88335,46.98383],[9.88481,46.98141],[9.88016,46.97766],[9.8794,46.9758],[9.87596,46.97422],[9.87495,46.97228],[9.87642,46.97062],[9.87584,46.96806],[9.87099,46.96377],[9.87897,46.95763],[9.87743,46.95217],[9.87513,46.95095],[9.87702,46.94818],[9.87682,46.94127],[9.88096,46.94067],[9.87794,46.93869],[9.87638,46.93519],[9.88098,46.93558],[9.88466,46.93358],[9.89474,46.9322],[9.89792,46.93077],[9.90028,46.92789],[9.90658,46.92586],[9.91257,46.92661],[9.91549,46.92489],[9.91681,46.92223],[9.92179,46.91938],[9.93749,46.91387],[9.94638,46.9129],[9.95014,46.91483],[9.95933,46.91658],[9.96207,46.91511],[9.96337,46.91295],[9.96683,46.91278],[9.97194,46.914],[9.9734,46.91577],[9.97813,46.91644],[9.98205,46.91247],[9.98249,46.90983],[9.98153,46.9087],[9.9827,46.90675],[9.98707,46.90608],[9.99038,46.90296],[9.99767,46.90259],[10.001,46.90046],[10.00618,46.89935],[10.01006,46.90107],[10.0152,46.90073],[10.01809,46.90217],[10.02013,46.89933],[10.02674,46.89636],[10.03245,46.88855],[10.03958,46.88636],[10.04151,46.88447],[10.04271,46.88099],[10.0522,46.87729],[10.05286,46.87524],[10.05081,46.87146],[10.05162,46.87091],[10.05147,46.86449],[10.05515,46.86225],[10.05749,46.86255],[10.05983,46.86132],[10.07521,46.86249],[10.08412,46.86075],[10.0877,46.86174],[10.09293,46.85859],[10.09223,46.85197],[10.1008,46.84677],[10.10543,46.84144],[10.1194,46.84471],[10.12021,46.84792],[10.12244,46.84786],[10.12337,46.84903],[10.13969,46.84792],[10.14736,46.85195],[10.15487,46.85086],[10.15611,46.85003],[10.15616,46.84842],[10.1577,46.8484],[10.16298,46.85153],[10.16935,46.8512],[10.17204,46.85421],[10.17877,46.85458],[10.18229,46.85605],[10.18378,46.85955],[10.19149,46.86353],[10.19395,46.86698],[10.1993,46.86717],[10.20412,46.86516],[10.20948,46.86536],[10.21952,46.86783],[10.23296,46.86683],[10.23113,46.86998],[10.23303,46.87145],[10.23225,46.87633],[10.23421,46.87838],[10.23513,46.88523],[10.23098,46.88955],[10.2279,46.89075],[10.22692,46.89361],[10.22756,46.89475],[10.22601,46.89648],[10.23067,46.89885],[10.2336,46.90219],[10.23733,46.91625],[10.24023,46.91712],[10.24231,46.91938],[10.24092,46.92451],[10.2419,46.93001],[10.24088,46.93192],[10.26718,46.92938],[10.29134,46.92381],[10.29717,46.9205],[10.3011,46.9252],[10.30982,46.92637],[10.31636,46.92572],[10.31733,46.92661],[10.31747,46.9315],[10.31052,46.93618],[10.30647,46.94069],[10.30888,46.94399],[10.30803,46.94781],[10.30966,46.95075],[10.32485,46.95273],[10.32813,46.95452],[10.32997,46.9595],[10.3298,46.96482],[10.33438,46.97002],[10.33482,46.97307],[10.34102,46.97892],[10.34029,46.98186],[10.34509,46.98361],[10.34661,46.98646],[10.34682,46.99014],[10.3553,46.99291],[10.37236,46.99122],[10.38369,46.99982],[10.38962,47.00107],[10.39902,46.99743],[10.40249,46.9914],[10.40709,46.98911],[10.41281,46.98319],[10.42081,46.98053],[10.4269,46.97623],[10.42739,46.97171],[10.42327,46.96612],[10.42233,46.96132],[10.42417,46.95944],[10.42924,46.95662],[10.43779,46.95644],[10.43987,46.95468],[10.44947,46.95286],[10.4559,46.95339],[10.45724,46.9514],[10.46914,46.94764],[10.47651,46.94157],[10.48967,46.93833],[10.48767,46.93652],[10.48721,46.93516],[10.48834,46.9349],[10.48561,46.93198],[10.48862,46.92682],[10.48678,46.92288],[10.48716,46.92098],[10.4856,46.91916],[10.48653,46.91599],[10.48365,46.91303],[10.47886,46.91113],[10.47805,46.90399],[10.47549,46.90167],[10.4754,46.89482],[10.46501,46.88481],[10.46954,46.88164],[10.47158,46.87349],[10.47061,46.86724],[10.46832,46.86264],[10.46996,46.85544],[10.47904,46.8596],[10.48126,46.85918],[10.48319,46.85714],[10.48058,46.8564],[10.48144,46.85584],[10.48348,46.85473],[10.48725,46.85546],[10.48898,46.85328],[10.4914,46.85277],[10.49099,46.85052],[10.49272,46.85061],[10.49471,46.85309],[10.49576,46.85267],[10.49667,46.85062],[10.49436,46.84921],[10.49913,46.84802],[10.5053,46.84882],[10.52132,46.84594],[10.53833,46.84921],[10.55278,46.85056],[10.55669,46.8474],[10.54649,46.83779],[10.55854,46.84163],[10.56249,46.84125],[10.57056,46.84282],[10.57366,46.84662],[10.57861,46.84873],[10.58125,46.84837],[10.59046,46.85085],[10.59585,46.8578],[10.61022,46.85921],[10.61533,46.86069],[10.61771,46.86306],[10.62515,46.86506],[10.64951,46.86605],[10.65625,46.86862],[10.65634,46.87001],[10.66294,46.87478],[10.6677,46.87601],[10.67194,46.87115],[10.67565,46.87041],[10.67845,46.87127],[10.6825,46.86885],[10.69076,46.86817],[10.69399,46.86444],[10.69709,46.86314],[10.69605,46.85989],[10.69358,46.85847],[10.69495,46.8569],[10.69322,46.85425],[10.69445,46.85267],[10.70083,46.851],[10.70391,46.84776],[10.71705,46.84758],[10.71618,46.84362],[10.71895,46.84262],[10.72244,46.83841],[10.73218,46.83847],[10.73435,46.83591],[10.73716,46.83495],[10.75557,46.83349],[10.75723,46.83174],[10.75805,46.82804],[10.76386,46.82398],[10.76317,46.82103],[10.75896,46.81812],[10.75595,46.81631],[10.75166,46.81559],[10.74764,46.81036],[10.74644,46.8054],[10.74428,46.8035],[10.73609,46.79987],[10.72643,46.79837],[10.72901,46.79357],[10.72853,46.79116],[10.73066,46.78885],[10.74222,46.78715],[10.75109,46.788],[10.75504,46.78559],[10.75793,46.7857],[10.7626,46.78801],[10.76704,46.7881],[10.7733,46.79083],[10.77887,46.79141],[10.78255,46.79398],[10.78347,46.79613],[10.78667,46.79682],[10.79403,46.79152],[10.79627,46.79183],[10.81444,46.77563],[10.81572,46.7763],[10.8258,46.77361],[10.82925,46.77542],[10.83241,46.78095],[10.83624,46.78244],[10.83919,46.78156],[10.841,46.7823],[10.84253,46.77883],[10.84637,46.77886],[10.85335,46.77454],[10.8677,46.77286],[10.8689,46.76632],[10.87992,46.76513],[10.88303,46.76336],[10.8907,46.7648],[10.89428,46.76947],[10.89632,46.77052],[10.9062,46.7686],[10.91571,46.77443],[10.9236,46.77584],[10.92858,46.77335],[10.93159,46.77436],[10.9414,46.77461],[10.9441,46.77591],[10.97521,46.77307],[10.97822,46.76955],[10.98165,46.77009],[10.98655,46.76799],[10.98844,46.76893],[10.99349,46.76751],[11.00577,46.76954],[11.01422,46.77263],[11.02262,46.76592],[11.02571,46.76747],[11.02556,46.77263],[11.02917,46.78017],[11.0338,46.78511],[11.03644,46.79439],[11.03821,46.79499],[11.04142,46.79983],[11.04457,46.80141],[11.04476,46.8022],[11.03964,46.80553],[11.05095,46.80912],[11.05739,46.80863],[11.06081,46.81324],[11.07146,46.81806],[11.07407,46.82054],[11.08164,46.82119],[11.08371,46.82279],[11.07806,46.83476],[11.0707,46.83888],[11.07522,46.84392],[11.07357,46.84639],[11.0752,46.84772],[11.07195,46.85155],[11.07182,46.85377],[11.07334,46.8586],[11.0754,46.85821],[11.07887,46.86012],[11.08209,46.86529],[11.08246,46.86931],[11.08695,46.8737],[11.08921,46.87928],[11.0969,46.8841],[11.102,46.89016],[11.09746,46.89186],[11.09716,46.89382],[11.09994,46.89907],[11.09789,46.90575],[11.09605,46.90621],[11.09537,46.90801],[11.09633,46.91242],[11.09803,46.91447],[11.10967,46.9165],[11.11157,46.92071],[11.10995,46.92652],[11.11532,46.9319],[11.128,46.92982],[11.12999,46.92824],[11.13412,46.92914],[11.1392,46.92802],[11.14483,46.93094],[11.1503,46.93214],[11.153,46.93436],[11.15553,46.93459],[11.16194,46.93965],[11.16454,46.94045],[11.16853,46.94556],[11.16311,46.95045],[11.16628,46.9558],[11.16421,46.95765],[11.16484,46.96633],[11.17688,46.96315],[11.18726,46.97],[11.19033,46.97105],[11.19269,46.96934],[11.1957,46.97097],[11.20349,46.96852],[11.206,46.96381],[11.20744,46.963],[11.22109,46.96969],[11.24206,46.97019],[11.24971,46.9747],[11.25705,46.97468],[11.25943,46.97894],[11.26395,46.98129],[11.27178,46.98015],[11.27757,46.98116],[11.28555,46.98371],[11.2885,46.98647],[11.29543,46.98632],[11.30226,46.98361],[11.30826,46.98459],[11.3131,46.98905],[11.32076,46.99289],[11.32617,46.99126],[11.32915,46.98906],[11.33421,46.989],[11.33743,46.98539],[11.34127,46.98573],[11.34259,46.98867],[11.34616,46.9912],[11.35119,46.98981],[11.3591,46.99107],[11.36174,46.98866],[11.36526,46.98756],[11.36774,46.9834],[11.37631,46.97999],[11.3783,46.97683],[11.38107,46.97549],[11.38113,46.97251],[11.38269,46.97109],[11.39327,46.96998],[11.40196,46.96549],[11.40604,46.96533],[11.41029,46.9675],[11.41789,46.96694],[11.42031,46.96968],[11.4267,46.96966],[11.43178,46.97326],[11.44075,46.97569],[11.44335,46.97759],[11.44368,46.98087],[11.4461,46.98492],[11.45306,46.99283],[11.45504,46.99343],[11.46092,46.99193],[11.46243,46.99367],[11.47031,46.99574],[11.46899,46.99904],[11.47049,47.0031],[11.47461,47.00554],[11.47922,47.01149],[11.49664,47.00981],[11.50249,47.01019],[11.50127,47.00782],[11.50659,47.00692],[11.5081,47.00774],[11.50823,47.00525],[11.51308,47.00565],[11.516,47.00313],[11.5159,47.0008],[11.52043,46.99961],[11.52012,46.99887],[11.52234,46.99854],[11.52232,46.99722],[11.52565,46.99685],[11.53304,46.99218],[11.53462,46.99012],[11.53407,46.98737],[11.53899,46.98459],[11.5433,46.98545],[11.54273,46.98677],[11.55397,46.99099],[11.56193,46.99102],[11.56557,46.99336],[11.5698,46.99355],[11.58186,46.99764],[11.58093,47.0012],[11.58167,47.00257],[11.59,47.00597],[11.59981,47.00601],[11.60453,47.00744],[11.61029,47.01153],[11.6167,47.01311],[11.62208,47.01192],[11.62768,47.01381],[11.63038,47.0085],[11.63351,47.00721],[11.6354,47.00361],[11.64389,47.00173],[11.64831,46.99902],[11.66011,46.99585],[11.66516,46.99225],[11.67486,46.99421],[11.67798,46.99302],[11.6891,46.99601],[11.7006,46.99308],[11.71194,46.99374],[11.71731,46.98823],[11.71864,46.98436],[11.72464,46.98054],[11.72816,46.97288],[11.73643,46.97226],[11.73891,46.97085],[11.74751,46.96937],[11.75135,46.97066],[11.75262,46.97216],[11.76608,46.97403],[11.76795,46.97929],[11.77253,46.9849],[11.77783,46.98854],[11.7814,46.98953],[11.78227,46.99297],[11.7899,46.99063],[11.80431,46.99226],[11.81582,46.99042],[11.82802,46.99368],[11.83215,46.99287],[11.8367,46.99351],[11.84028,46.99711],[11.84065,46.99912],[11.84548,47.00217],[11.85287,47.00062],[11.86067,47.00842],[11.86849,47.01209],[11.87025,47.01238],[11.87448,47.01057],[11.87701,47.01209],[11.87851,47.01531],[11.8806,47.01667],[11.89321,47.01687],[11.89577,47.02098],[11.91,47.02806],[11.91492,47.02918],[11.91601,47.03289],[11.9172,47.03368],[11.92693,47.0354],[11.93355,47.03807],[11.94176,47.03689],[11.94771,47.03397],[11.95622,47.04348],[11.95873,47.04354],[11.96295,47.0409],[11.96899,47.04104],[11.97407,47.04779],[11.9799,47.05055],[11.98668,47.04753],[11.99567,47.05007],[12.02179,47.04777],[12.03156,47.05113],[12.03287,47.05523],[12.03545,47.05826],[12.04461,47.06194],[12.05666,47.06161],[12.06003,47.05902],[12.07303,47.06052],[12.0772,47.05939],[12.07887,47.06454],[12.08223,47.06946],[12.09028,47.07268],[12.09266,47.07432],[12.09253,47.07658],[12.09437,47.07746],[12.10355,47.07875],[12.11947,47.07373],[12.13089,47.07841],[12.13424,47.07792],[12.13656,47.08117],[12.1521,47.07978],[12.16129,47.08222],[12.17043,47.08744],[12.17823,47.08849],[12.18112,47.09167],[12.18652,47.09265],[12.20142,47.08783],[12.21598,47.08659],[12.21779,47.0846],[12.22751,47.08262],[12.23098,47.07666],[12.23796,47.07081],[12.24131,47.06967],[12.23744,47.06575],[12.2333,47.06499],[12.2267,47.06133],[12.21712,47.05918],[12.21717,47.05685],[12.21605,47.05573],[12.21783,47.05135],[12.21723,47.04559],[12.21304,47.04267],[12.21348,47.04021],[12.21246,47.03775],[12.2098,47.03515],[12.21012,47.0334],[12.20547,47.0288],[12.20527,47.02738],[12.18078,47.02599],[12.17785,47.02399],[12.17202,47.02352],[12.16491,47.01939],[12.15388,47.02435],[12.14796,47.0254],[12.14243,47.02263],[12.14,47.0193],[12.13164,47.01652],[12.1266,47.0136],[12.12188,47.0075],[12.1218,47.00626],[12.1271,47.00049],[12.12644,46.99764],[12.13119,46.99373],[12.12911,46.99284],[12.13058,46.98862],[12.12805,46.98601],[12.13264,46.98515],[12.13371,46.98345],[12.13834,46.98343],[12.13874,46.98248],[12.13651,46.97577],[12.13759,46.97408],[12.13609,46.97312],[12.13713,46.96598],[12.13166,46.9646],[12.13246,46.96281],[12.13625,46.96066],[12.13853,46.95699],[12.15876,46.95102],[12.16922,46.93779],[12.16837,46.93374],[12.16177,46.93009],[12.15332,46.91757],[12.14641,46.91578],[12.14435,46.91427],[12.16025,46.90957],[12.16207,46.90741],[12.17027,46.91062],[12.17723,46.90724],[12.18112,46.90848],[12.19089,46.9066],[12.19165,46.90326],[12.19504,46.90379],[12.19496,46.90092],[12.1979,46.89945],[12.20013,46.89657],[12.19747,46.89341],[12.20199,46.88994],[12.19989,46.88907],[12.20012,46.88785],[12.20366,46.8874],[12.20514,46.88438],[12.21596,46.87448],[12.21905,46.87443],[12.22266,46.88033],[12.2284,46.87911],[12.23292,46.88116],[12.2371,46.88587],[12.23647,46.88919],[12.24236,46.89133],[12.24556,46.88929],[12.25745,46.88864],[12.26074,46.88715],[12.2667,46.88791],[12.27426,46.88487],[12.27584,46.88174],[12.27877,46.87955],[12.27604,46.87504],[12.27644,46.87315],[12.28072,46.87124],[12.28147,46.86962],[12.28726,46.86851],[12.2924,46.86567],[12.29079,46.86468],[12.2916,46.86087],[12.28982,46.85746],[12.29214,46.85457],[12.29158,46.85263],[12.29258,46.85026],[12.29726,46.8482],[12.29618,46.84423],[12.30373,46.84353],[12.30732,46.84171],[12.30533,46.83855],[12.30646,46.83371],[12.29915,46.82792],[12.28935,46.82233],[12.2883,46.81965],[12.28348,46.81541],[12.28928,46.80953],[12.28975,46.8063],[12.29281,46.8031],[12.29079,46.80137],[12.28821,46.80109],[12.28824,46.79543],[12.28285,46.79411],[12.28079,46.79241],[12.28448,46.78339],[12.29827,46.78488],[12.30186,46.78313],[12.30469,46.78335],[12.30976,46.78543],[12.32701,46.78212],[12.3316,46.77984],[12.33791,46.77933],[12.34316,46.7766],[12.35197,46.7775],[12.35359,46.77596],[12.35799,46.77543],[12.35966,46.77379],[12.35859,46.76989],[12.36007,46.76541],[12.36684,46.75383],[12.3675,46.74717],[12.36907,46.74572],[12.36972,46.74085],[12.37181,46.7408],[12.37393,46.73333],[12.37629,46.7329],[12.37836,46.72701],[12.37818,46.72276],[12.38462,46.71679],[12.38729,46.71704],[12.38869,46.71602],[12.38791,46.71542],[12.39988,46.71063],[12.40265,46.70757],[12.4079,46.70593],[12.4106,46.70662],[12.41156,46.70337],[12.4144,46.70128],[12.41972,46.69976],[12.42523,46.7002],[12.42813,46.69935],[12.42911,46.69507],[12.43471,46.69391],[12.44317,46.6889],[12.44671,46.69064],[12.45382,46.69005],[12.45517,46.68845],[12.46319,46.687],[12.46957,46.68785],[12.47489,46.68704],[12.47661,46.68604],[12.47849,46.68029],[12.48047,46.6777],[12.49639,46.67738],[12.49772,46.67876],[12.49988,46.67822],[12.50241,46.68105],[12.50586,46.68014],[12.50673,46.67825],[12.51702,46.6789],[12.51909,46.67737],[12.52875,46.67455],[12.52924,46.67053],[12.53373,46.66826],[12.53721,46.66788],[12.54776,46.6597],[12.5595,46.65784],[12.56038,46.6537],[12.56184,46.65295],[12.57065,46.6519],[12.57894,46.65727],[12.60421,46.65658],[12.60889,46.6584],[12.61344,46.65871],[12.6198,46.66231],[12.62855,46.66118],[12.63163,46.66183],[12.63264,46.65741],[12.63422,46.65543],[12.64046,46.65404],[12.6423,46.65243],[12.65114,46.65349],[12.65848,46.6577],[12.67634,46.65803],[12.68264,46.65634],[12.69123,46.65741],[12.69541,46.65397],[12.70004,46.65193],[12.71652,46.64964],[12.71733,46.6473],[12.71993,46.64644],[12.71997,46.64439],[12.7222,46.64211],[12.7274,46.64085],[12.7293,46.63633],[12.73199,46.63473],[12.73559,46.63614],[12.73835,46.63531],[12.7457,46.63824],[12.74601,46.64067],[12.74812,46.64345],[12.75702,46.64763],[12.7632,46.64839],[12.76711,46.64681],[12.77654,46.64713],[12.79601,46.64284],[12.79659,46.63905],[12.80226,46.63489],[12.80967,46.63153],[12.81718,46.63187],[12.81599,46.63048],[12.81959,46.62861],[12.83188,46.63173],[12.83154,46.6294],[12.8379,46.62768],[12.83403,46.62187],[12.83515,46.61477],[12.83371,46.61258],[12.83429,46.61032],[12.84321,46.60678],[12.85332,46.60504],[12.86108,46.60673],[12.86606,46.61033],[12.87372,46.60793],[12.878,46.6096],[12.88272,46.60757],[12.88869,46.60707],[12.89686,46.60991],[12.89967,46.61014],[12.90573,46.60802],[12.91067,46.6101],[12.92099,46.60916],[12.9285,46.61098],[12.93366,46.61036],[12.93463,46.60872],[12.94022,46.60597],[12.94951,46.60267],[12.95162,46.60382],[12.95123,46.60467],[12.95415,46.60488],[12.95717,46.60692],[12.96236,46.60502],[12.96731,46.60554],[12.96912,46.60386],[12.97198,46.60424],[12.9723,46.60263],[12.97483,46.60309],[12.97824,46.6011],[12.98267,46.60263],[12.98405,46.60088],[12.98781,46.59987],[12.99225,46.6001],[12.99377,46.60216],[12.99978,46.6029],[13.00237,46.60275],[13.00799,46.59966],[13.01763,46.60229],[13.02125,46.60097],[13.02213,46.60265],[13.02653,46.60028],[13.02826,46.59764],[13.03322,46.59644],[13.04159,46.59765],[13.04726,46.59572],[13.0567,46.59802],[13.06111,46.59736],[13.06408,46.60032],[13.06925,46.59932],[13.07099,46.60013],[13.07312,46.59919],[13.0746,46.60001],[13.07959,46.59957],[13.08302,46.60039],[13.08419,46.60246],[13.08621,46.6022],[13.09297,46.60081],[13.09734,46.59774],[13.10657,46.59479],[13.10966,46.59646],[13.1145,46.59434],[13.11837,46.5946],[13.12242,46.59216],[13.12643,46.59135],[13.12893,46.5923],[13.13096,46.59111],[13.13371,46.5921],[13.13539,46.59119],[13.13833,46.5917],[13.14698,46.58751],[13.15156,46.59044],[13.15386,46.5892],[13.16926,46.58932],[13.16929,46.58536],[13.17772,46.58213],[13.17807,46.57995],[13.17979,46.57821],[13.18641,46.57668],[13.19388,46.57276],[13.19794,46.57179],[13.20399,46.57266],[13.20967,46.56968],[13.21801,46.57091],[13.22132,46.56634],[13.22716,46.56463],[13.22954,46.56143],[13.23303,46.55937],[13.23322,46.55403],[13.23677,46.55401],[13.24045,46.55211],[13.24185,46.55591],[13.2467,46.5564],[13.24947,46.55957],[13.25323,46.56085],[13.26171,46.55771],[13.27014,46.56167],[13.28195,46.55938],[13.28596,46.55749],[13.28849,46.55959],[13.29822,46.5607],[13.30783,46.55501],[13.31588,46.55282],[13.32064,46.55334],[13.32124,46.55164],[13.32836,46.55853],[13.33272,46.55987],[13.33609,46.56385],[13.33886,46.5641],[13.34005,46.56679],[13.3454,46.57041],[13.34652,46.56887],[13.35315,46.56691],[13.35684,46.56895],[13.36356,46.57048],[13.37117,46.5674],[13.37086,46.57148],[13.36907,46.57418],[13.37292,46.57968],[13.38257,46.57727],[13.38926,46.57708],[13.40241,46.5721],[13.41054,46.57246],[13.40856,46.5689],[13.40819,46.5619],[13.42727,46.558],[13.43732,46.55965],[13.43951,46.55944],[13.44271,46.55719],[13.44674,46.55691],[13.45457,46.55985],[13.47542,46.55775],[13.47908,46.5611],[13.50495,46.56671],[13.50782,46.56048],[13.50609,46.55633],[13.51221,46.55581],[13.51262,46.55259],[13.51562,46.54903],[13.52058,46.5473],[13.53556,46.55005],[13.53994,46.55328],[13.54336,46.55401],[13.55822,46.55165],[13.562,46.55224],[13.56438,46.55147],[13.56498,46.54902],[13.5692,46.54689],[13.57063,46.5414],[13.56999,46.54008],[13.57162,46.53925],[13.57732,46.5384],[13.58364,46.54008],[13.58634,46.54404],[13.59271,46.54656],[13.59809,46.54608],[13.60347,46.54329],[13.61131,46.54402],[13.61452,46.54286],[13.62362,46.54254],[13.62866,46.54173],[13.63254,46.53874],[13.64139,46.53518],[13.64367,46.53304],[13.6472,46.53345],[13.65916,46.52968],[13.65973,46.52806],[13.66743,46.52718],[13.67379,46.52353],[13.67955,46.52319],[13.68113,46.52208],[13.69185,46.52139],[13.69898,46.52365],[13.70926,46.52137],[13.71441,46.52338],[13.72218,46.52385],[13.72655,46.52353],[13.72694,46.52239],[13.73812,46.51746],[13.75483,46.51843],[13.76707,46.51489],[13.76844,46.51599],[13.77508,46.51639],[13.77708,46.51799],[13.77878,46.51778],[13.78088,46.5125],[13.78576,46.51109],[13.79047,46.50811],[13.79271,46.50831],[13.79518,46.50573],[13.80532,46.50739],[13.81293,46.50659],[13.81606,46.50799],[13.81805,46.51049],[13.82158,46.5109],[13.8228,46.51308],[13.82782,46.51398],[13.82992,46.51565],[13.82935,46.51732],[13.83203,46.51906],[13.83506,46.51881],[13.83866,46.51641],[13.85602,46.51425],[13.86311,46.51546],[13.86778,46.5184],[13.87218,46.51959],[13.87953,46.51951],[13.88272,46.52316],[13.90196,46.51919],[13.9128,46.52151],[13.9239,46.51902],[13.92877,46.51418],[13.9437,46.51186],[13.94933,46.50843],[13.95327,46.50774],[13.95329,46.50668],[13.96056,46.5033],[13.96189,46.5011],[13.97041,46.4972],[13.97639,46.49865],[13.98951,46.49328],[13.99029,46.48871],[13.99867,46.48734],[14.00726,46.48174],[14.02169,46.48202],[14.02515,46.48376],[14.02678,46.48635],[14.03181,46.48723],[14.03279,46.48976],[14.03674,46.49208],[14.04132,46.4934],[14.05152,46.49357],[14.05917,46.49034],[14.06609,46.48991],[14.07125,46.48758],[14.08679,46.48701],[14.08904,46.48572],[14.09542,46.48531],[14.10036,46.4823],[14.10005,46.48044],[14.10264,46.47931],[14.10644,46.4803],[14.1223,46.47698],[14.12115,46.47454],[14.12518,46.47238],[14.13025,46.4668],[14.12911,46.46544],[14.13598,46.45894],[14.13674,46.45439],[14.13579,46.45135],[14.13891,46.44893],[14.14112,46.44863],[14.14289,46.44643],[14.14515,46.44612],[14.14903,46.44348],[14.15207,46.44338],[14.15331,46.43767],[14.15542,46.43604],[14.16399,46.43397],[14.17726,46.43432],[14.1814,46.43871],[14.18385,46.43859],[14.19011,46.44102],[14.19207,46.44253],[14.19188,46.44429],[14.19656,46.44142],[14.20845,46.43968],[14.21328,46.44028],[14.21555,46.44338],[14.22011,46.4436],[14.22451,46.44093],[14.22778,46.43624],[14.23798,46.43258],[14.24929,46.43483],[14.25724,46.43938],[14.26251,46.43963],[14.26529,46.43863],[14.27262,46.44208],[14.284,46.44386],[14.29506,46.43977],[14.30244,46.43865],[14.30386,46.43576],[14.30895,46.43099],[14.31746,46.4319],[14.32697,46.43137],[14.333,46.43227],[14.34488,46.43772],[14.35282,46.43766],[14.35727,46.4391],[14.36563,46.43859],[14.36846,46.43909],[14.36919,46.4402],[14.38293,46.43949],[14.3972,46.44431],[14.40967,46.44572],[14.4105,46.44674],[14.41315,46.44581],[14.42435,46.44572],[14.43039,46.4474],[14.43555,46.44313],[14.43919,46.44326],[14.43952,46.44113],[14.43295,46.43973],[14.43096,46.43645],[14.43595,46.43155],[14.43855,46.43117],[14.44297,46.42843],[14.44227,46.4259],[14.44345,46.42342],[14.44758,46.42195],[14.45232,46.42282],[14.45868,46.42142],[14.46757,46.42233],[14.47426,46.42002],[14.47725,46.42016],[14.47908,46.41804],[14.47964,46.41385],[14.48527,46.41579],[14.49304,46.41328],[14.49837,46.41922],[14.50344,46.42065],[14.50401,46.42328],[14.50638,46.42457],[14.51091,46.4263],[14.52259,46.42761],[14.52295,46.42417],[14.53289,46.41496],[14.53698,46.4146],[14.5407,46.41194],[14.54131,46.4067],[14.54297,46.40398],[14.55151,46.39642],[14.55765,46.38551],[14.55673,46.379],[14.55815,46.37794],[14.55769,46.37684],[14.5649,46.37265],[14.56601,46.3728],[14.56698,46.37537],[14.57898,46.37738],[14.58249,46.38196],[14.57945,46.38348],[14.57949,46.38444],[14.5848,46.38874],[14.58697,46.3926],[14.58843,46.3963],[14.5874,46.40455],[14.58915,46.406],[14.59022,46.40994],[14.58949,46.41474],[14.5841,46.41621],[14.58338,46.41849],[14.58464,46.4194],[14.58726,46.4301],[14.59624,46.43357],[14.59717,46.43447],[14.59681,46.43717],[14.60554,46.4373],[14.60829,46.43943],[14.61393,46.44014],[14.62303,46.43905],[14.6323,46.43983],[14.6417,46.44336],[14.64481,46.44318],[14.65323,46.44534],[14.6605,46.44485],[14.66402,46.44655],[14.66747,46.45031],[14.67187,46.45142],[14.67564,46.45103],[14.677,46.45459],[14.68015,46.45817],[14.67654,46.4622],[14.67948,46.46307],[14.68406,46.46825],[14.6902,46.46477],[14.70025,46.46404],[14.70323,46.46767],[14.70194,46.46956],[14.702,46.47198],[14.69843,46.47483],[14.70224,46.4785],[14.70298,46.48077],[14.71009,46.48121],[14.71258,46.48973],[14.71255,46.49202],[14.71145,46.49301],[14.71414,46.49528],[14.71563,46.50031],[14.72272,46.49858],[14.72858,46.49313],[14.72928,46.49068],[14.73602,46.49787],[14.73855,46.50346],[14.74215,46.50555],[14.746,46.50359],[14.74921,46.49796],[14.7609,46.50488],[14.7777,46.50495],[14.78066,46.50076],[14.7818,46.50179],[14.78635,46.49984],[14.80689,46.50794],[14.81949,46.50974],[14.82002,46.51376],[14.81899,46.51768],[14.82018,46.51985],[14.81845,46.52231],[14.8229,46.52493],[14.82341,46.52762],[14.82607,46.53025],[14.82355,46.53268],[14.82382,46.53595],[14.83274,46.53967],[14.8286,46.54262],[14.8239,46.5436],[14.82392,46.54627],[14.82641,46.54611],[14.82694,46.54842],[14.83313,46.54883],[14.83285,46.55153],[14.83546,46.55262],[14.83521,46.55399],[14.83889,46.55844],[14.83838,46.56117],[14.83539,46.56358],[14.83718,46.5661],[14.84104,46.56626],[14.83879,46.56836],[14.84113,46.57313],[14.84544,46.57799],[14.85292,46.581],[14.85303,46.5829],[14.85706,46.58711],[14.85743,46.59252],[14.86237,46.59426],[14.86568,46.59368],[14.86847,46.59977],[14.86743,46.60084],[14.86744,46.60367],[14.87129,46.60759],[14.87956,46.60866],[14.88118,46.61015],[14.88055,46.61161],[14.88751,46.61311],[14.89071,46.61303],[14.89741,46.61051],[14.90181,46.61239],[14.90109,46.60989],[14.90502,46.60751],[14.90537,46.60523],[14.91441,46.60462],[14.91469,46.60669],[14.9169,46.60594],[14.92045,46.60244],[14.92394,46.60361],[14.92452,46.6051],[14.92265,46.60699],[14.92353,46.61136],[14.92132,46.61661],[14.92377,46.62124],[14.92918,46.61955],[14.93215,46.61569],[14.93446,46.61669],[14.93788,46.62053],[14.94083,46.61994],[14.94269,46.62112],[14.94425,46.62355],[14.94872,46.62611],[14.95657,46.63309],[14.96801,46.62816],[14.97168,46.62465],[14.97474,46.61761],[14.97565,46.60892],[14.98028,46.60176],[14.98549,46.60399],[14.98787,46.60668],[14.98763,46.60883],[14.9959,46.61423],[14.99709,46.61622],[14.99531,46.61813],[14.99556,46.62161],[15.00525,46.6292],[15.00878,46.63378],[15.01264,46.63508],[15.01708,46.64119],[15.03055,46.6453],[15.03493,46.64929],[15.04049,46.65076],[15.04195,46.65213],[15.06602,46.65241],[15.07157,46.65026],[15.07572,46.65013],[15.08332,46.6455],[15.08996,46.65175],[15.08884,46.65235],[15.09977,46.65379],[15.10132,46.65641],[15.10842,46.66005],[15.11156,46.66003],[15.11711,46.65734],[15.11561,46.65633],[15.11961,46.65414],[15.12247,46.65635],[15.12225,46.65488],[15.12737,46.65336],[15.12731,46.65121],[15.12949,46.65037],[15.13212,46.65096],[15.1354,46.65716],[15.13878,46.65813],[15.14113,46.65674],[15.14315,46.65753],[15.14414,46.65977],[15.14628,46.6602],[15.15356,46.6586],[15.15688,46.65601],[15.16312,46.65811],[15.16548,46.65766],[15.168,46.65443],[15.18321,46.6565],[15.19029,46.65314],[15.19258,46.65108],[15.19287,46.64897],[15.1983,46.64609],[15.20707,46.64557],[15.21907,46.64256],[15.22524,46.6438],[15.23685,46.63974],[15.2423,46.64042],[15.24494,46.64212],[15.25442,46.64245],[15.26348,46.64507],[15.27833,46.64397],[15.28319,46.64557],[15.28504,46.64831],[15.29049,46.6498],[15.29498,46.65285],[15.30207,46.65358],[15.31228,46.65249],[15.3165,46.64943],[15.3204,46.6482],[15.32261,46.64838],[15.32896,46.65356],[15.33283,46.65271],[15.33874,46.65352],[15.34147,46.65136],[15.34517,46.65119],[15.34864,46.65401],[15.35471,46.65534],[15.35634,46.65399],[15.35669,46.6518],[15.3691,46.65165],[15.37327,46.65009],[15.37687,46.65224],[15.38441,46.65186],[15.38946,46.6533],[15.39531,46.65225],[15.41505,46.65589],[15.42136,46.65525],[15.4243,46.65304],[15.42413,46.6512],[15.42271,46.65033],[15.42269,46.64758],[15.43116,46.647],[15.43464,46.64277],[15.44034,46.64021],[15.45062,46.64269],[15.45784,46.63932],[15.45676,46.63801],[15.45612,46.6332],[15.45687,46.63162],[15.45605,46.63046],[15.45816,46.62959],[15.46065,46.62653],[15.46312,46.62629],[15.46464,46.62337],[15.46483,46.61992],[15.46315,46.6182],[15.46308,46.6156],[15.47573,46.61239],[15.48052,46.61411],[15.48468,46.61912],[15.48917,46.62106],[15.50058,46.61852],[15.50162,46.6179],[15.50134,46.61505],[15.50326,46.61425],[15.50503,46.61463],[15.5054,46.61632],[15.5128,46.61695],[15.51263,46.61911],[15.51106,46.62046],[15.51278,46.62215],[15.51645,46.62372],[15.52119,46.62192],[15.52386,46.62341],[15.52663,46.62698],[15.53058,46.62866],[15.53128,46.63046],[15.5381,46.63426],[15.54167,46.63418],[15.54344,46.63029],[15.54452,46.63256],[15.54657,46.6335],[15.54599,46.63514],[15.54704,46.63738],[15.55083,46.63883],[15.55209,46.64061],[15.54809,46.64222],[15.54797,46.64315],[15.54662,46.64278],[15.54486,46.64643],[15.54779,46.64909],[15.55246,46.64804],[15.55451,46.65176],[15.5495,46.6592],[15.54897,46.66524],[15.54702,46.66509],[15.54781,46.66723],[15.54468,46.66964],[15.54726,46.6705],[15.5482,46.66961],[15.54889,46.67119],[15.55202,46.67294],[15.55404,46.67153],[15.55423,46.67291],[15.56019,46.67145],[15.56094,46.67389],[15.56389,46.6755],[15.56839,46.67568],[15.56911,46.68065],[15.57053,46.68028],[15.57114,46.68126],[15.57425,46.68036],[15.5757,46.68183],[15.57907,46.68128],[15.57859,46.68352],[15.58333,46.6823],[15.58733,46.68461],[15.59103,46.68363],[15.5917,46.68462],[15.59092,46.68643],[15.59612,46.69036],[15.60119,46.69039],[15.60502,46.68851],[15.60955,46.68802],[15.60605,46.68699],[15.60661,46.68579],[15.60493,46.6842],[15.60635,46.68149],[15.61058,46.68337],[15.61242,46.68244],[15.61421,46.68377],[15.61472,46.68256],[15.61621,46.68278],[15.62089,46.68017],[15.62276,46.68106],[15.62397,46.67991],[15.63099,46.68039],[15.63249,46.68155],[15.63503,46.68153],[15.63317,46.68493],[15.63511,46.68638],[15.63542,46.6887],[15.63971,46.69176],[15.64224,46.69277],[15.64428,46.69051],[15.64824,46.69201],[15.65368,46.69152],[15.65466,46.69244],[15.6551,46.69979],[15.65215,46.70296],[15.65098,46.70611],[15.67733,46.70708],[15.68472,46.70486],[15.6968,46.69917],[15.72258,46.69617],[15.74036,46.70028],[15.75481,46.69824],[15.76305,46.6997],[15.76949,46.69936],[15.80173,46.71547],[15.82264,46.72041],[15.84073,46.72273],[15.8715,46.72139],[15.88184,46.719],[15.89386,46.71431],[15.91272,46.7104],[15.92104,46.70658],[15.94182,46.69225],[15.94796,46.68945],[15.98468,46.68494],[15.99942,46.68091],[16.00462,46.67688],[16.00797,46.66896],[16.01186,46.66522],[16.01602,46.6635],[16.02355,46.6626],[16.03914,46.65647],[16.04117,46.6618],[16.04182,46.66887],[16.04011,46.67234],[16.04059,46.67657],[16.04357,46.68622],[16.03762,46.69546],[16.02986,46.70119],[16.0305,46.7044],[16.02835,46.70597],[16.03088,46.71194],[16.0292,46.7126],[16.02243,46.7112],[16.01786,46.71621],[16.01546,46.7172],[16.0129,46.71788],[16.00916,46.71642],[16.00465,46.71749],[16.0028,46.71965],[16.00469,46.72334],[15.99715,46.73026],[15.99435,46.73153],[15.99276,46.73782],[15.9892,46.74113],[15.98978,46.74466],[15.98821,46.74688],[15.9876,46.75073],[15.98584,46.7523],[15.99082,46.75812],[15.98927,46.76176],[15.99025,46.76415],[15.98978,46.76978],[15.99135,46.77286],[15.98977,46.7767],[15.99112,46.77907],[15.99066,46.78103],[15.99425,46.78844],[15.9951,46.79383],[15.99342,46.80343],[15.9992,46.80981],[15.99857,46.81178],[15.99228,46.81842],[15.98903,46.81996],[15.98812,46.82522],[15.98643,46.82765],[15.99069,46.82982],[15.99013,46.83082],[15.99208,46.83317],[15.99729,46.83575],[16.00255,46.83188],[16.00873,46.83099],[16.01459,46.83624],[16.01938,46.83668],[16.02532,46.84035],[16.02805,46.84047],[16.0284,46.84148],[16.03094,46.84029],[16.03492,46.83581],[16.0333,46.83522],[16.03345,46.83305],[16.0364,46.83442],[16.03621,46.83526],[16.04099,46.83647],[16.04207,46.84036],[16.04403,46.84112],[16.05228,46.8376],[16.0557,46.84089],[16.05945,46.83901],[16.06703,46.8464],[16.0667,46.85023],[16.07058,46.85123],[16.07253,46.85343],[16.08038,46.8531],[16.08294,46.85619],[16.08497,46.85653],[16.08889,46.85973],[16.09061,46.86346],[16.093,46.86493],[16.0971,46.86443],[16.09889,46.86117],[16.10028,46.86074],[16.10229,46.86316],[16.10782,46.86556],[16.11136,46.86917],[16.11494,46.86941],[16.11979,46.87227],[16.12505,46.87221],[16.12599,46.87365],[16.13403,46.87596],[16.13764,46.88034],[16.13982,46.88551],[16.14627,46.88644],[16.14951,46.89049],[16.14979,46.89341],[16.15506,46.89401],[16.15444,46.89675],[16.15956,46.89764],[16.16006,46.90082],[16.16316,46.90263],[16.16408,46.90524],[16.1688,46.90354],[16.16982,46.90463],[16.17227,46.90382],[16.17505,46.90627],[16.17679,46.9058],[16.1803,46.907],[16.18154,46.91281],[16.18502,46.91886],[16.18877,46.92266],[16.19162,46.93038],[16.19368,46.93181],[16.19448,46.93606],[16.19685,46.93934],[16.1986,46.93942],[16.20099,46.94215],[16.20701,46.94291],[16.20737,46.94037],[16.20876,46.93923],[16.21165,46.9408],[16.21044,46.94228],[16.21112,46.94286],[16.21285,46.94062],[16.21495,46.94103],[16.21486,46.94011],[16.21581,46.94074],[16.217,46.93948],[16.21868,46.94123],[16.21935,46.93848],[16.21855,46.93647],[16.22314,46.93595],[16.22518,46.94058],[16.23019,46.94169],[16.22947,46.94352],[16.23379,46.9423],[16.23501,46.94532],[16.238,46.94607],[16.23872,46.94729],[16.24675,46.94709],[16.24609,46.94942],[16.24815,46.94944],[16.24387,46.95635],[16.25054,46.96167],[16.25642,46.96457],[16.26423,46.96397],[16.27042,46.96155],[16.27753,46.963],[16.27862,46.96917],[16.2769,46.98448],[16.27817,46.98813],[16.28119,46.99033],[16.28457,46.99787],[16.28299,46.99969],[16.2838,47.00458],[16.28789,47.01119],[16.29119,47.01432],[16.29369,47.01432],[16.29971,47.00987],[16.30054,47.00876],[16.29967,47.00175],[16.30447,46.99864],[16.31825,47.00096],[16.32358,47.00293],[16.34286,46.99652],[16.34447,46.99705],[16.34523,46.99845],[16.34394,46.9994],[16.34649,47.00255],[16.34496,47.0043],[16.35095,47.01076],[16.36074,47.00592],[16.36522,47.00775],[16.36839,47.00663],[16.36886,47.0046],[16.37397,46.99876],[16.37754,47.00048],[16.38421,46.99915],[16.39458,47.00368],[16.41374,47.0051],[16.41816,47.00175],[16.42098,46.99662],[16.42801,46.99358],[16.43347,46.99303],[16.4466,46.99356],[16.44812,46.99968],[16.44721,47.00291],[16.44891,47.00399],[16.45241,47.00376],[16.45263,47.00465],[16.45377,47.00352],[16.45565,47.00374],[16.45535,47.00288],[16.45751,47.00145],[16.46031,47.00095],[16.46114,47.0021],[16.46124,47.00065],[16.46292,47.00019],[16.46276,46.99898],[16.46483,46.99744],[16.46711,46.99755],[16.46723,46.99869],[16.47497,46.99774],[16.47537,46.99646],[16.47977,46.99565],[16.47907,46.99483],[16.48035,46.99417],[16.48207,46.99537],[16.48458,46.99458],[16.48792,46.99607],[16.48836,46.99757],[16.48996,46.99774],[16.48967,46.99916],[16.49098,46.99987],[16.49031,47.00074],[16.49465,47.00027],[16.49483,46.99935],[16.49814,46.99856],[16.50265,46.99968],[16.50375,47.00172],[16.50487,47.00122],[16.50523,47.00214],[16.50678,47.00068],[16.50715,47.00194],[16.51104,47.00075],[16.51346,47.00192],[16.51349,47.00386],[16.50981,47.00397],[16.50537,47.00734],[16.49767,47.01046],[16.4937,47.01049],[16.49237,47.01269],[16.48478,47.01839],[16.48493,47.0203],[16.48332,47.02303],[16.47883,47.02169],[16.47622,47.02764],[16.47164,47.0284],[16.46733,47.03152],[16.46617,47.03084],[16.46476,47.03261],[16.46041,47.03096],[16.44891,47.02303],[16.44001,47.03007],[16.4452,47.03481],[16.44131,47.03626],[16.44583,47.03897],[16.45738,47.04063],[16.45967,47.04303],[16.46242,47.04367],[16.46981,47.04361],[16.47698,47.0472],[16.48525,47.04826],[16.48552,47.04734],[16.4872,47.04744],[16.49471,47.04946],[16.49891,47.04884],[16.50206,47.05108],[16.5078,47.04991],[16.52171,47.05655],[16.52161,47.06191],[16.5112,47.06664],[16.49693,47.07088],[16.49223,47.07089],[16.48817,47.06925],[16.4874,47.07073],[16.48581,47.07038],[16.48502,47.07273],[16.48388,47.07243],[16.4845,47.07461],[16.4836,47.07539],[16.47404,47.07395],[16.47198,47.07857],[16.47317,47.08183],[16.47507,47.08209],[16.47586,47.08569],[16.47385,47.08751],[16.47017,47.08806],[16.46956,47.09007],[16.46712,47.08967],[16.46758,47.09148],[16.46447,47.09533],[16.46749,47.09612],[16.46575,47.09932],[16.47376,47.10093],[16.47286,47.10243],[16.4759,47.10558],[16.47881,47.10178],[16.4859,47.10298],[16.48402,47.10913],[16.50186,47.11058],[16.50101,47.12378],[16.51664,47.12507],[16.53047,47.12761],[16.52993,47.13769],[16.52771,47.13725],[16.52379,47.14037],[16.51792,47.14971],[16.49161,47.14924],[16.47034,47.1432],[16.45543,47.14268],[16.45374,47.14562],[16.45097,47.14591],[16.4502,47.15226],[16.45306,47.15379],[16.45425,47.15809],[16.45938,47.15762],[16.45934,47.15866],[16.46175,47.15946],[16.46139,47.16139],[16.4635,47.16185],[16.4619,47.1642],[16.46176,47.16724],[16.46548,47.16857],[16.46046,47.17692],[16.4585,47.17715],[16.45423,47.18664],[16.45605,47.18775],[16.45446,47.1885],[16.45214,47.18777],[16.45188,47.18867],[16.44238,47.18554],[16.43041,47.18506],[16.42855,47.18596],[16.42063,47.19531],[16.42238,47.19766],[16.41803,47.20572],[16.42008,47.211],[16.42211,47.21112],[16.42298,47.20832],[16.4245,47.20811],[16.4296,47.21052],[16.43773,47.21033],[16.4362,47.216],[16.44046,47.21827],[16.43783,47.22302],[16.43908,47.22447],[16.4393,47.23028],[16.44236,47.23079],[16.44219,47.23344],[16.44389,47.23413],[16.44291,47.24899],[16.43162,47.25074],[16.43293,47.25333],[16.44982,47.25086],[16.44772,47.25375],[16.45599,47.25407],[16.46222,47.25641],[16.46827,47.25328],[16.47015,47.25558],[16.48109,47.26296],[16.47944,47.26351],[16.47848,47.27268],[16.4806,47.27839],[16.48485,47.27826],[16.49058,47.28067],[16.48313,47.29182],[16.48388,47.29314],[16.48292,47.29813],[16.48001,47.30188],[16.47595,47.31254],[16.47036,47.31908],[16.46966,47.32563],[16.46434,47.33143],[16.46569,47.33425],[16.46395,47.33645],[16.45858,47.33956],[16.45165,47.3391],[16.44945,47.33996],[16.44574,47.34681],[16.43487,47.35323],[16.43851,47.35576],[16.44758,47.3579],[16.45349,47.3575],[16.45232,47.36148],[16.4578,47.36679],[16.45802,47.37142],[16.45714,47.37382],[16.45233,47.37814],[16.45257,47.38012],[16.45625,47.3841],[16.46251,47.3837],[16.45642,47.38741],[16.45662,47.38913],[16.45065,47.39509],[16.44724,47.40158],[16.44661,47.40762],[16.45063,47.41049],[16.45931,47.41345],[16.46556,47.41316],[16.46719,47.4118],[16.4757,47.40941],[16.4865,47.4093],[16.48891,47.40759],[16.48832,47.40655],[16.49185,47.40608],[16.48622,47.40267],[16.48485,47.3998],[16.48621,47.39916],[16.485,47.39834],[16.48554,47.39763],[16.49083,47.40015],[16.48884,47.39804],[16.48998,47.39489],[16.49425,47.39455],[16.49512,47.39631],[16.49772,47.3967],[16.49773,47.38944],[16.50384,47.39366],[16.51113,47.39693],[16.51162,47.40076],[16.50931,47.40322],[16.50902,47.40543],[16.51087,47.40635],[16.51485,47.40563],[16.51807,47.411],[16.52619,47.41078],[16.52805,47.40903],[16.53144,47.4106],[16.53673,47.40951],[16.54112,47.41046],[16.54746,47.40601],[16.56073,47.40738],[16.56751,47.40635],[16.57692,47.40676],[16.57859,47.40991],[16.57656,47.41126],[16.57628,47.41275],[16.58338,47.41546],[16.58391,47.41718],[16.58045,47.41827],[16.5822,47.41969],[16.59007,47.41978],[16.58965,47.42121],[16.59251,47.42184],[16.58881,47.42175],[16.58907,47.42318],[16.59799,47.42306],[16.59774,47.42421],[16.60078,47.4246],[16.60109,47.42588],[16.60483,47.42589],[16.60748,47.42737],[16.60639,47.42808],[16.60778,47.42985],[16.61028,47.42989],[16.61298,47.43203],[16.61365,47.4305],[16.61592,47.43106],[16.61654,47.43282],[16.61822,47.43267],[16.61894,47.43125],[16.62155,47.43115],[16.62364,47.43669],[16.62872,47.44251],[16.6375,47.44624],[16.6474,47.44701],[16.65279,47.44935],[16.65029,47.45171],[16.66321,47.4561],[16.66111,47.46222],[16.66296,47.46317],[16.66221,47.46421],[16.66363,47.46674],[16.67167,47.47466],[16.66937,47.47969],[16.66348,47.4837],[16.65353,47.50074],[16.65912,47.50687],[16.66366,47.50944],[16.67013,47.50395],[16.691,47.51083],[16.69595,47.51575],[16.6968,47.51859],[16.7067,47.52333],[16.70437,47.53364],[16.71573,47.54034],[16.71243,47.5435],[16.70707,47.5428],[16.70533,47.54616],[16.69936,47.54605],[16.69124,47.55597],[16.69218,47.55832],[16.69009,47.5599],[16.6852,47.56173],[16.67334,47.56017],[16.67153,47.56101],[16.66938,47.56498],[16.66575,47.56668],[16.66434,47.56912],[16.67227,47.57175],[16.67247,47.57558],[16.67632,47.57922],[16.6763,47.58293],[16.67076,47.5932],[16.66759,47.59674],[16.6676,47.59829],[16.67174,47.60118],[16.6717,47.60281],[16.67434,47.60537],[16.67274,47.60666],[16.6649,47.60583],[16.66074,47.60653],[16.65762,47.61563],[16.65327,47.62333],[16.6365,47.6282],[16.631,47.62854],[16.62003,47.6262],[16.61447,47.62297],[16.59446,47.61827],[16.58936,47.61794],[16.57371,47.62028],[16.56885,47.62386],[16.56343,47.62531],[16.54999,47.63401],[16.53001,47.6419],[16.52433,47.64164],[16.5233,47.64303],[16.51562,47.64657],[16.51447,47.64648],[16.51485,47.64477],[16.51321,47.64307],[16.50995,47.6415],[16.50767,47.63883],[16.50362,47.64048],[16.49811,47.63977],[16.49381,47.64269],[16.4885,47.64218],[16.48117,47.65032],[16.46959,47.65216],[16.46382,47.65173],[16.46119,47.6536],[16.45611,47.65409],[16.45262,47.65616],[16.44102,47.65713],[16.43425,47.66034],[16.42914,47.66122],[16.42271,47.66573],[16.42673,47.66832],[16.4363,47.67074],[16.44448,47.67453],[16.44368,47.67779],[16.44717,47.6864],[16.44715,47.69007],[16.44877,47.69211],[16.4485,47.69675],[16.45516,47.69728],[16.46115,47.68456],[16.46311,47.68313],[16.46609,47.68275],[16.46746,47.68128],[16.47083,47.68162],[16.47209,47.68285],[16.47589,47.68169],[16.47739,47.69075],[16.48576,47.69187],[16.48724,47.69321],[16.48555,47.69551],[16.48758,47.69789],[16.49489,47.69915],[16.50104,47.70517],[16.5055,47.70396],[16.5107,47.70586],[16.51215,47.70745],[16.5181,47.70736],[16.5218,47.7127],[16.52874,47.71079],[16.5423,47.7126],[16.54579,47.71749],[16.55342,47.72296],[16.53765,47.73708],[16.54003,47.73875],[16.53876,47.74044],[16.54397,47.74283],[16.54529,47.74304],[16.54612,47.74179],[16.54997,47.74362],[16.5478,47.74573],[16.54946,47.74639],[16.54715,47.74977],[16.54882,47.74975],[16.54823,47.75144],[16.54917,47.75199],[16.56765,47.75203],[16.58922,47.75589],[16.59373,47.75954],[16.59997,47.75657],[16.61045,47.76082],[16.62668,47.75737],[16.63547,47.75949],[16.63957,47.755],[16.63976,47.75004],[16.64092,47.74872],[16.65722,47.7421],[16.65838,47.74199],[16.65936,47.74371],[16.67276,47.74087],[16.72216,47.73577],[16.72273,47.72304],[16.75024,47.68186],[16.82955,47.68316],[16.83332,47.68857],[16.83402,47.69202],[16.84029,47.70501],[16.85675,47.7115],[16.86814,47.72207],[16.87006,47.72177],[16.87286,47.69053],[16.87638,47.68877],[16.91378,47.68811],[16.97769,47.69491],[17.04168,47.70479],[17.09434,47.70867],[17.0755,47.72355],[17.07153,47.72863],[17.07203,47.75038],[17.07097,47.75771],[17.06967,47.75755],[17.0669,47.76672],[17.06826,47.76793],[17.06506,47.77825],[17.06211,47.77807],[17.05946,47.78659],[17.05223,47.79442],[17.05483,47.79799],[17.07307,47.80864],[17.07572,47.8087],[17.06096,47.82051],[17.0621,47.82318],[17.04818,47.82878],[17.05099,47.83167],[17.04787,47.83333],[17.05281,47.83834],[17.01121,47.85879],[17.01902,47.86885],[17.03889,47.86837],[17.04131,47.86726],[17.05087,47.87051],[17.04998,47.87235],[17.06397,47.87416],[17.07907,47.87798],[17.08171,47.8749],[17.08646,47.87488],[17.10545,47.8997],[17.09688,47.90474],[17.09859,47.90575],[17.09757,47.90657],[17.10402,47.9109],[17.11397,47.9278],[17.09218,47.93484],[17.10185,47.94246],[17.10909,47.94997],[17.11123,47.95481],[17.11827,47.96135],[17.11326,47.96399],[17.10949,47.96392],[17.10572,47.96637],[17.10094,47.96763],[17.09595,47.97132],[17.1132,47.97993],[17.12007,47.98524],[17.13266,47.99128],[17.13633,47.99379],[17.13548,47.99444],[17.15825,48.0045],[17.16207,48.00711],[17.15136,48.01402],[17.14514,48.02066],[17.1436,48.01999],[17.13767,48.02337],[17.13213,48.02343],[17.12802,48.02139],[17.11868,48.0287],[17.11134,48.03169],[17.09114,48.02025],[17.08611,48.0243],[17.0687,48.03189],[17.07636,48.03624],[17.07552,48.0368],[17.08907,48.04614],[17.08555,48.05085],[17.07524,48.05334],[17.06953,48.05586],[17.07145,48.05747],[17.07299,48.05671],[17.08808,48.06582],[17.07352,48.07092],[17.0802,48.0787],[17.07284,48.08139],[17.07614,48.08311],[17.07442,48.08384],[17.07585,48.08638],[17.09093,48.0927],[17.09261,48.09103],[17.09443,48.09189],[17.08906,48.09703],[17.094,48.10011],[17.08463,48.10299],[17.0787,48.10642],[17.08037,48.10836],[17.07416,48.11076],[17.07836,48.11557],[17.07412,48.11498],[17.06993,48.1166],[17.06926,48.11864],[17.06407,48.12195],[17.06365,48.12371],[17.07013,48.12459],[17.06846,48.12681],[17.06891,48.1279],[17.06559,48.12859],[17.06685,48.12982],[17.06271,48.13395],[17.06143,48.13623],[17.06292,48.13647],[17.06255,48.13869],[17.06074,48.1417],[17.05865,48.14225],[17.05847,48.14423],[17.03933,48.14034],[17.02904,48.14152],[17.0236,48.14448],[17.01443,48.15351],[16.99738,48.16063],[16.9854,48.16872],[16.97751,48.17225],[16.97677,48.17708],[16.97872,48.18244],[16.97772,48.18985],[16.97311,48.19625],[16.97107,48.20216],[16.96374,48.21405],[16.96306,48.22131],[16.95883,48.22699],[16.95032,48.23237],[16.9474,48.23637],[16.948,48.24215],[16.94954,48.24439],[16.95271,48.25714],[16.958,48.26247],[16.95835,48.26431],[16.95334,48.26632],[16.94686,48.27102],[16.93105,48.27145],[16.9232,48.27297],[16.92116,48.27455],[16.92053,48.27862],[16.91559,48.28164],[16.90894,48.28878],[16.90702,48.29458],[16.90136,48.29929],[16.90019,48.30443],[16.89582,48.31174],[16.89782,48.31541],[16.90549,48.31894],[16.91001,48.32344],[16.90983,48.32669],[16.90075,48.32902],[16.89556,48.33202],[16.89044,48.33246],[16.88322,48.33633],[16.87293,48.33845],[16.87071,48.34142],[16.87648,48.34602],[16.87472,48.34917],[16.8681,48.34838],[16.8612,48.34981],[16.85206,48.3485],[16.84618,48.35045],[16.84398,48.3529],[16.84449,48.35908],[16.84044,48.36568],[16.84243,48.37221],[16.83507,48.37957],[16.83459,48.3819],[16.83591,48.38362],[16.83846,48.38441],[16.84628,48.38228],[16.85172,48.38369],[16.85184,48.39117],[16.85601,48.39439],[16.85718,48.39675],[16.8564,48.39971],[16.85217,48.40615],[16.85179,48.41053],[16.85441,48.41362],[16.86302,48.41783],[16.8649,48.41986],[16.85871,48.42616],[16.85294,48.43546],[16.85218,48.44539],[16.85074,48.44784],[16.85129,48.44967],[16.85396,48.45168],[16.86051,48.4517],[16.8644,48.45355],[16.86516,48.45617],[16.86119,48.45824],[16.86076,48.45988],[16.86639,48.46615],[16.87512,48.46798],[16.88189,48.47792],[16.88384,48.47832],[16.88854,48.47618],[16.89128,48.47688],[16.89174,48.48168],[16.89622,48.4842],[16.89753,48.48677],[16.89192,48.49072],[16.89124,48.49224],[16.8974,48.49709],[16.90618,48.49899],[16.90836,48.49855],[16.91263,48.49515],[16.91828,48.49598],[16.91853,48.49806],[16.91521,48.50144],[16.91569,48.50391],[16.91427,48.50809],[16.91521,48.51248],[16.92345,48.51395],[16.92375,48.51519],[16.92096,48.51863],[16.92257,48.52064],[16.93661,48.52194],[16.94186,48.52124],[16.94447,48.52215],[16.94511,48.52352],[16.94183,48.52601],[16.94174,48.52775],[16.94385,48.53044],[16.9502,48.53413],[16.95524,48.54378],[16.9541,48.54642],[16.94909,48.54831],[16.94399,48.55294],[16.94601,48.55802],[16.9459,48.56072],[16.93992,48.56576],[16.93695,48.57194],[16.93701,48.57539],[16.93999,48.58069],[16.94045,48.58366],[16.9349,48.60116],[16.93559,48.60249],[16.94064,48.60404],[16.94323,48.60658],[16.9434,48.61067],[16.94066,48.61496],[16.94141,48.61773],[16.93604,48.61976],[16.92871,48.61971],[16.92002,48.62312],[16.92152,48.62451],[16.92029,48.62707],[16.92233,48.62888],[16.92533,48.62947],[16.92421,48.6316],[16.92715,48.63251],[16.92668,48.63597],[16.92972,48.63942],[16.92799,48.6418],[16.922,48.6457],[16.92232,48.64957],[16.92061,48.65182],[16.92467,48.65891],[16.92304,48.66344],[16.92463,48.66991],[16.92006,48.67356],[16.9145,48.67423],[16.9118,48.67625],[16.91227,48.68059],[16.91472,48.68284],[16.91448,48.68538],[16.9174,48.68815],[16.91786,48.69185],[16.91986,48.69402],[16.91746,48.69658],[16.91804,48.70079],[16.91459,48.70332],[16.91337,48.70639],[16.90594,48.70998],[16.90393,48.71244],[16.9039,48.71358],[16.90751,48.71523],[16.90334,48.71852],[16.89891,48.71648],[16.88758,48.71678],[16.88051,48.72354],[16.878,48.72233],[16.87606,48.71847],[16.87343,48.71742],[16.87486,48.71638],[16.87075,48.71303],[16.84282,48.71205],[16.83557,48.71708],[16.82857,48.71164],[16.82357,48.71088],[16.81759,48.7108],[16.80666,48.71274],[16.80736,48.70963],[16.80164,48.70645],[16.79961,48.71135],[16.7965,48.71103],[16.79116,48.7144],[16.78684,48.71335],[16.78139,48.71378],[16.78054,48.71282],[16.77947,48.71469],[16.77708,48.71249],[16.77075,48.71487],[16.765,48.71929],[16.76105,48.71704],[16.75858,48.71753],[16.76004,48.71934],[16.7574,48.7195],[16.75468,48.72118],[16.75335,48.72531],[16.74858,48.73267],[16.73875,48.73118],[16.73803,48.72981],[16.73609,48.73102],[16.73742,48.73241],[16.73408,48.73436],[16.73034,48.73372],[16.72877,48.73475],[16.73085,48.73607],[16.72604,48.73859],[16.71633,48.73867],[16.70883,48.73736],[16.7079,48.73821],[16.70742,48.73642],[16.70558,48.73562],[16.70241,48.73709],[16.68991,48.72983],[16.68387,48.72834],[16.68141,48.73431],[16.67684,48.73787],[16.67482,48.74116],[16.67524,48.74341],[16.68213,48.75061],[16.67894,48.76704],[16.67594,48.77209],[16.66768,48.77431],[16.66528,48.77609],[16.6671,48.77862],[16.66493,48.77926],[16.66503,48.78157],[16.65651,48.78311],[16.65477,48.78385],[16.6552,48.78501],[16.65304,48.78563],[16.64316,48.78644],[16.63502,48.786],[16.63149,48.78231],[16.63189,48.78099],[16.62993,48.7807],[16.61926,48.78203],[16.6112,48.78112],[16.59486,48.78323],[16.59492,48.78741],[16.58365,48.79263],[16.57787,48.79385],[16.56645,48.79412],[16.55682,48.8042],[16.55092,48.80715],[16.542,48.81485],[16.53537,48.81153],[16.53406,48.80824],[16.52936,48.80607],[16.53029,48.8046],[16.52623,48.80129],[16.5199,48.79881],[16.51741,48.80322],[16.50116,48.80179],[16.47961,48.80262],[16.46574,48.81046],[16.46167,48.8096],[16.4603,48.80865],[16.46408,48.80687],[16.46228,48.80642],[16.46316,48.80521],[16.44996,48.79995],[16.44796,48.7962],[16.44917,48.79134],[16.44123,48.7844],[16.43843,48.78035],[16.43896,48.77923],[16.43702,48.77876],[16.43649,48.77715],[16.44053,48.77489],[16.43887,48.76907],[16.43626,48.76619],[16.42873,48.76265],[16.42447,48.76186],[16.42405,48.76259],[16.4205,48.75975],[16.4148,48.75449],[16.41615,48.75393],[16.41484,48.752],[16.41382,48.75218],[16.41076,48.74491],[16.41155,48.74385],[16.40558,48.74109],[16.40625,48.74195],[16.40482,48.74271],[16.40182,48.74164],[16.40094,48.74033],[16.4017,48.73994],[16.39644,48.73692],[16.39471,48.73748],[16.39352,48.7397],[16.3921,48.73884],[16.39002,48.73963],[16.38988,48.73614],[16.38432,48.7338],[16.38585,48.73278],[16.38512,48.73131],[16.37924,48.72903],[16.37826,48.7295],[16.37938,48.73007],[16.3786,48.73154],[16.3677,48.72861],[16.36101,48.72863],[16.36108,48.73148],[16.35945,48.73062],[16.35269,48.73421],[16.3585,48.73839],[16.35792,48.73907],[16.35098,48.74273],[16.34679,48.74153],[16.34406,48.74619],[16.34264,48.74593],[16.34385,48.74516],[16.34151,48.74331],[16.33747,48.73287],[16.33112,48.73181],[16.33087,48.7331],[16.32581,48.73245],[16.3122,48.73419],[16.30655,48.73922],[16.30352,48.74011],[16.30025,48.74028],[16.29786,48.73823],[16.28953,48.74075],[16.28639,48.74044],[16.27913,48.74208],[16.26955,48.7419],[16.26429,48.73757],[16.24993,48.74019],[16.22536,48.74062],[16.20563,48.74351],[16.19022,48.74383],[16.15519,48.74936],[16.15446,48.74582],[16.15214,48.74554],[16.1511,48.74376],[16.14048,48.74598],[16.14015,48.74332],[16.11919,48.74726],[16.11838,48.74883],[16.11299,48.74786],[16.11333,48.74647],[16.10822,48.74594],[16.09538,48.74722],[16.06612,48.75519],[16.05404,48.7616],[16.04238,48.76471],[16.02223,48.77264],[15.99556,48.77992],[15.98774,48.78661],[15.97386,48.79407],[15.96963,48.79755],[15.96591,48.799],[15.96076,48.79903],[15.95082,48.80583],[15.95318,48.81451],[15.95683,48.81811],[15.96108,48.82038],[15.95957,48.82365],[15.95572,48.82429],[15.94791,48.8231],[15.94676,48.82421],[15.94928,48.82615],[15.9491,48.82727],[15.94738,48.82833],[15.94302,48.82831],[15.94144,48.82769],[15.9425,48.82334],[15.94161,48.82009],[15.93576,48.8197],[15.92536,48.82515],[15.92787,48.82735],[15.92809,48.8312],[15.9321,48.83415],[15.92296,48.83561],[15.92103,48.83936],[15.90816,48.83612],[15.90385,48.8366],[15.89442,48.83523],[15.89208,48.83921],[15.89271,48.84293],[15.89401,48.8439],[15.89849,48.83884],[15.904,48.838],[15.90636,48.83943],[15.90576,48.8416],[15.89884,48.84895],[15.89465,48.84961],[15.89135,48.84367],[15.88578,48.8426],[15.88092,48.84851],[15.88187,48.85619],[15.87806,48.86012],[15.87255,48.86086],[15.87247,48.85944],[15.87575,48.85867],[15.87614,48.8556],[15.86552,48.85295],[15.85862,48.8583],[15.85269,48.85823],[15.84392,48.8602],[15.8422,48.86149],[15.84271,48.86264],[15.85153,48.86564],[15.85335,48.86775],[15.85187,48.86986],[15.84488,48.87353],[15.84413,48.8752],[15.84618,48.87629],[15.84272,48.87772],[15.83807,48.87741],[15.83393,48.87323],[15.82876,48.87164],[15.82287,48.87334],[15.80731,48.87283],[15.7807,48.87548],[15.77193,48.86471],[15.76211,48.85697],[15.75483,48.85277],[15.71511,48.85858],[15.71588,48.86025],[15.71027,48.86128],[15.69902,48.85901],[15.69555,48.85635],[15.69085,48.85627],[15.68761,48.85763],[15.6861,48.86046],[15.68164,48.86435],[15.67271,48.86845],[15.66642,48.8748],[15.65835,48.87994],[15.65687,48.88204],[15.64007,48.8879],[15.63711,48.8877],[15.63852,48.88675],[15.63793,48.88524],[15.63146,48.88562],[15.62658,48.88942],[15.62695,48.8914],[15.62186,48.89441],[15.62075,48.89621],[15.61358,48.89886],[15.61182,48.89711],[15.59595,48.89771],[15.57914,48.89647],[15.56024,48.90506],[15.52929,48.91233],[15.51453,48.91473],[15.50721,48.92019],[15.50664,48.92636],[15.50435,48.92843],[15.50315,48.93658],[15.49937,48.93912],[15.49115,48.94101],[15.48546,48.94399],[15.47818,48.94511],[15.47845,48.94631],[15.47453,48.94699],[15.47472,48.94802],[15.46963,48.95243],[15.45703,48.9459],[15.45164,48.95041],[15.44502,48.95163],[15.43602,48.95054],[15.42588,48.95222],[15.4139,48.95696],[15.40453,48.96406],[15.39396,48.96624],[15.3921,48.96769],[15.39016,48.97316],[15.37665,48.97763],[15.3681,48.9825],[15.35858,48.98277],[15.34951,48.9854],[15.33717,48.98385],[15.33335,48.98545],[15.32811,48.97982],[15.32285,48.97675],[15.31322,48.98137],[15.30681,48.97854],[15.29801,48.98133],[15.2971,48.98273],[15.29215,48.98494],[15.29479,48.98969],[15.2911,48.99308],[15.27999,48.99528],[15.27821,48.99396],[15.2769,48.98646],[15.27906,48.98357],[15.28294,48.98137],[15.28249,48.97999],[15.273,48.96701],[15.26781,48.96726],[15.26648,48.96467],[15.26838,48.9645],[15.27019,48.9589],[15.26951,48.95765],[15.26304,48.95821],[15.26273,48.95427],[15.24914,48.95862],[15.24751,48.96014],[15.24193,48.96002],[15.23963,48.95816],[15.22555,48.96077],[15.22272,48.95911],[15.21831,48.95936],[15.2139,48.9575],[15.21067,48.95815],[15.2105,48.95656],[15.20641,48.95412],[15.20112,48.95283],[15.19846,48.94889],[15.19333,48.9463],[15.19405,48.94524],[15.19139,48.94391],[15.18299,48.94584],[15.17811,48.94832],[15.17473,48.94587],[15.17236,48.9455],[15.17287,48.94443],[15.17128,48.94366],[15.16681,48.9446],[15.16134,48.94231],[15.16171,48.94391],[15.16023,48.94569],[15.15648,48.94676],[15.15869,48.95036],[15.16283,48.9537],[15.16353,48.95796],[15.16797,48.9592],[15.17089,48.96288],[15.16955,48.9676],[15.16668,48.97054],[15.16056,48.97273],[15.16425,48.97616],[15.16314,48.97834],[15.15429,48.97954],[15.15219,48.98158],[15.15407,48.98514],[15.15863,48.98546],[15.15974,48.99054],[15.15738,48.99392],[15.14374,48.99773],[15.1379,48.99828],[15.13387,49.00133],[15.13014,48.99814],[15.12666,48.9996],[15.12302,48.99788],[15.11525,48.99996],[15.10925,48.99976],[15.10366,48.99447],[15.09312,48.99758],[15.06593,49.00022],[15.0655,49.00494],[15.06838,49.00688],[15.06808,49.00941],[15.06541,49.01277],[15.06652,49.01486],[15.05539,49.01619],[15.0419,49.01212],[15.03577,49.01378],[15.03289,49.01582],[15.0294,49.01619],[15.02669,49.01939],[15.02163,49.02117],[15.01773,49.01869],[15.0152,49.01836],[15.01254,49.01499],[15.00411,49.01213],[15.00337,49.01345],[15.00137,49.01324],[14.997,49.01572],[14.99446,49.01201],[14.99152,49.01029],[14.99608,49.00599],[15.00187,49.00436],[15.00061,49.00152],[15.00153,49.00142],[14.99852,48.9993],[14.99615,48.99388],[14.9989,48.9926],[14.99749,48.99256],[14.99516,48.99022],[14.99224,48.98979],[14.99268,48.98868],[14.98882,48.98871],[14.9856,48.98722],[14.98153,48.98164],[14.98204,48.97874],[14.9795,48.98108],[14.97959,48.9751],[14.97727,48.97164],[14.97889,48.96117],[14.97757,48.95646],[14.98167,48.94456],[14.98572,48.94216],[14.98442,48.94101],[14.9863,48.9401],[14.9876,48.93655],[14.98477,48.93311],[14.9805,48.93193],[14.9801,48.92867],[14.98598,48.92509],[14.98493,48.9237],[14.98701,48.92011],[14.99109,48.91651],[14.99137,48.91041],[14.99399,48.90434],[14.99263,48.89794],[14.98833,48.89629],[14.98988,48.89538],[14.98998,48.89164],[14.98454,48.89158],[14.98489,48.87537],[14.97401,48.87528],[14.97438,48.86466],[14.97333,48.86118],[14.97524,48.85559],[14.97443,48.8537],[14.9788,48.85375],[14.97928,48.85131],[14.98552,48.84664],[14.98559,48.84301],[14.97313,48.84289],[14.97295,48.83993],[14.96935,48.83746],[14.96854,48.83147],[14.96959,48.82541],[14.9708,48.82452],[14.96199,48.81811],[14.95927,48.81455],[14.95847,48.81129],[14.95985,48.80683],[14.96157,48.80514],[14.95636,48.80198],[14.95841,48.80011],[14.95627,48.79915],[14.95436,48.79629],[14.95443,48.79465],[14.9567,48.79337],[14.95607,48.79116],[14.95432,48.7904],[14.96109,48.78722],[14.97475,48.78385],[14.97996,48.78079],[14.9812,48.77977],[14.97911,48.77705],[14.9819,48.7759],[14.98056,48.77287],[14.97661,48.76944],[14.97122,48.76779],[14.96885,48.76586],[14.96968,48.76541],[14.96902,48.76462],[14.96181,48.76291],[14.96078,48.76105],[14.95685,48.7587],[14.95332,48.76236],[14.95148,48.76138],[14.94924,48.76352],[14.94471,48.76186],[14.94116,48.76191],[14.93568,48.76432],[14.93295,48.76717],[14.92009,48.76906],[14.91877,48.77046],[14.91289,48.76766],[14.90726,48.76761],[14.89741,48.7729],[14.89402,48.77301],[14.88914,48.77069],[14.88803,48.77219],[14.8858,48.77251],[14.88552,48.77437],[14.88718,48.77706],[14.88234,48.78072],[14.86932,48.78167],[14.86423,48.77791],[14.85874,48.77782],[14.8598,48.77659],[14.8582,48.7764],[14.85218,48.77792],[14.84993,48.78102],[14.84783,48.78132],[14.84701,48.78007],[14.84358,48.78459],[14.84134,48.78265],[14.83596,48.78269],[14.83033,48.78111],[14.82657,48.78447],[14.82125,48.78188],[14.8097,48.77942],[14.80983,48.77511],[14.81093,48.77457],[14.80732,48.77234],[14.81192,48.76777],[14.81325,48.765],[14.81254,48.76207],[14.80947,48.75838],[14.80836,48.75837],[14.80592,48.75389],[14.80409,48.75331],[14.80482,48.75222],[14.80276,48.75132],[14.80153,48.748],[14.80917,48.7345],[14.80275,48.7323],[14.80215,48.73357],[14.79823,48.73092],[14.7954,48.73043],[14.79412,48.72683],[14.79173,48.72427],[14.78806,48.72285],[14.78838,48.72144],[14.7866,48.71895],[14.77507,48.71225],[14.75807,48.70994],[14.75641,48.70384],[14.74929,48.70383],[14.74182,48.70193],[14.73759,48.69954],[14.73505,48.69706],[14.73206,48.69136],[14.72799,48.68768],[14.72688,48.68357],[14.72804,48.67933],[14.72448,48.67633],[14.71927,48.6667],[14.71336,48.6507],[14.71955,48.64977],[14.71929,48.64447],[14.72115,48.64252],[14.72021,48.64079],[14.72317,48.63904],[14.71511,48.61805],[14.72215,48.60298],[14.71242,48.59724],[14.71261,48.59473],[14.70912,48.59419],[14.70701,48.5915],[14.70873,48.58765],[14.70707,48.58557],[14.70267,48.58431],[14.70254,48.58329],[14.69458,48.58599],[14.69254,48.58467],[14.69226,48.58578],[14.68874,48.5857],[14.68354,48.58327],[14.67734,48.58369],[14.67091,48.58199],[14.66446,48.58256],[14.65867,48.5987],[14.6548,48.60494],[14.64669,48.61066],[14.63563,48.60524],[14.63356,48.60558],[14.63169,48.60377],[14.62737,48.60511],[14.62522,48.60643],[14.6254,48.60805],[14.62366,48.60951],[14.62426,48.61098],[14.6224,48.61281],[14.6226,48.61621],[14.61974,48.61904],[14.61875,48.62253],[14.61147,48.62871],[14.60414,48.6287],[14.6034,48.6262],[14.60003,48.62594],[14.60029,48.62493],[14.59631,48.62243],[14.59683,48.62124],[14.59404,48.6206],[14.59108,48.61789],[14.58737,48.61863],[14.58395,48.6168],[14.58189,48.61751],[14.58054,48.61655],[14.58084,48.61562],[14.57917,48.61556],[14.57666,48.61341],[14.57663,48.61174],[14.57327,48.61229],[14.57136,48.61096],[14.56953,48.61129],[14.56824,48.60917],[14.56501,48.60901],[14.56474,48.60579],[14.56305,48.60394],[14.55804,48.60656],[14.55453,48.60644],[14.5525,48.60831],[14.55227,48.61184],[14.54756,48.61521],[14.54661,48.61429],[14.54518,48.61526],[14.52741,48.61535],[14.52351,48.61696],[14.52415,48.61762],[14.52146,48.61937],[14.51662,48.62046],[14.50427,48.61798],[14.49607,48.62309],[14.49689,48.62842],[14.49535,48.62927],[14.49455,48.63138],[14.49564,48.63164],[14.49398,48.63353],[14.48617,48.63486],[14.48627,48.63571],[14.48138,48.63765],[14.48063,48.63916],[14.47756,48.64009],[14.47646,48.64222],[14.47865,48.64239],[14.47862,48.64321],[14.47352,48.64463],[14.47085,48.64911],[14.46955,48.64682],[14.46023,48.64483],[14.46012,48.64394],[14.45424,48.64534],[14.4543,48.64452],[14.44474,48.64404],[14.44656,48.6384],[14.45348,48.63254],[14.45703,48.62575],[14.45288,48.62533],[14.44828,48.62042],[14.44928,48.61359],[14.44569,48.60903],[14.44446,48.60428],[14.44235,48.6019],[14.44318,48.60083],[14.43645,48.59865],[14.43623,48.59635],[14.43239,48.58974],[14.42576,48.58894],[14.42098,48.59189],[14.41312,48.5934],[14.40824,48.59263],[14.40488,48.59396],[14.39682,48.59264],[14.39657,48.59378],[14.39356,48.59393],[14.39289,48.59491],[14.39159,48.59375],[14.38721,48.59328],[14.38673,48.5924],[14.38801,48.59173],[14.3886,48.5894],[14.3877,48.58759],[14.38888,48.5867],[14.38806,48.58546],[14.3887,48.58385],[14.39242,48.58272],[14.39201,48.57973],[14.39456,48.57927],[14.39462,48.57808],[14.38905,48.57249],[14.38064,48.56987],[14.37223,48.57016],[14.36946,48.57044],[14.36927,48.57309],[14.3668,48.57645],[14.35863,48.57526],[14.35885,48.57397],[14.35337,48.5695],[14.35415,48.56693],[14.35245,48.56562],[14.35408,48.56308],[14.34907,48.56248],[14.34565,48.56052],[14.34596,48.55786],[14.34365,48.55542],[14.33768,48.55477],[14.33419,48.55242],[14.32807,48.55468],[14.32805,48.55824],[14.32708,48.5583],[14.32529,48.56485],[14.32251,48.56356],[14.31626,48.56398],[14.30998,48.56502],[14.30534,48.56783],[14.30171,48.56737],[14.29655,48.56868],[14.28691,48.57309],[14.2798,48.57485],[14.27481,48.5784],[14.27249,48.58199],[14.2568,48.58221],[14.25041,48.58077],[14.24917,48.57873],[14.24151,48.57827],[14.23962,48.57916],[14.23825,48.58195],[14.22914,48.58583],[14.21668,48.58728],[14.21323,48.5889],[14.20895,48.58877],[14.20566,48.59103],[14.20227,48.59061],[14.19533,48.59335],[14.18867,48.59313],[14.18266,48.59452],[14.18082,48.59314],[14.17819,48.59331],[14.17842,48.59172],[14.16446,48.58985],[14.16375,48.59326],[14.15899,48.59295],[14.15859,48.59402],[14.15654,48.59431],[14.15539,48.5965],[14.14889,48.59493],[14.14433,48.5954],[14.14281,48.59437],[14.13112,48.59838],[14.12956,48.59776],[14.12885,48.5958],[14.12469,48.59359],[14.12099,48.59358],[14.1201,48.59122],[14.11677,48.58978],[14.10665,48.59019],[14.09651,48.59286],[14.09919,48.5984],[14.09801,48.60046],[14.09514,48.59958],[14.08717,48.60072],[14.07317,48.6005],[14.07015,48.5961],[14.06789,48.59548],[14.0671,48.60169],[14.07035,48.60513],[14.06992,48.6076],[14.06847,48.60669],[14.06196,48.6071],[14.05516,48.60476],[14.05403,48.6071],[14.05174,48.60831],[14.05248,48.61011],[14.04307,48.61349],[14.0446,48.61462],[14.04182,48.61804],[14.0466,48.61969],[14.04733,48.62297],[14.04637,48.62413],[14.04906,48.62799],[14.04337,48.62962],[14.02962,48.62679],[14.03099,48.62747],[14.03111,48.62937],[14.0239,48.63134],[14.02427,48.63299],[14.02142,48.63452],[14.01918,48.63753],[14.01148,48.64028],[14.01542,48.64129],[14.0179,48.64388],[14.02378,48.64619],[14.02515,48.64827],[14.02511,48.65329],[14.04155,48.65538],[14.05445,48.65356],[14.05563,48.6561],[14.05877,48.65837],[14.0589,48.66243],[14.06098,48.6646],[14.06117,48.66616],[14.05947,48.66829],[14.06078,48.67014],[14.05953,48.67219],[14.06064,48.67284],[14.0604,48.67446],[14.05678,48.67618],[14.05074,48.67577],[14.04428,48.67813],[14.0398,48.67675],[14.03802,48.67808],[14.03509,48.67762],[14.03442,48.68034],[14.02548,48.68403],[14.02691,48.68453],[14.0266,48.68551],[14.0296,48.68602],[14.02653,48.68771],[14.0263,48.68972],[14.01709,48.69253],[14.01938,48.69475],[14.0191,48.69688],[14.01714,48.697],[14.01597,48.69836],[14.01358,48.69553],[14.01086,48.696],[14.01428,48.69906],[14.0124,48.70089],[14.01122,48.70045],[14.00968,48.70292],[14.00918,48.70443],[14.01076,48.70545],[14.00825,48.70712],[14.00627,48.70672],[14.00432,48.70917],[13.98503,48.7115],[13.97917,48.7104],[13.97139,48.7138],[13.96815,48.71335],[13.95681,48.71506],[13.95672,48.71795],[13.95461,48.72137],[13.94508,48.72309],[13.94371,48.72206],[13.94007,48.72387],[13.93808,48.72668],[13.92805,48.73242],[13.92664,48.73628],[13.92176,48.73767],[13.92065,48.74143],[13.91112,48.74813],[13.90543,48.7505],[13.89638,48.75773],[13.89012,48.75911],[13.87703,48.76726],[13.86932,48.77027],[13.86278,48.77019],[13.85606,48.77203],[13.84938,48.77043],[13.84413,48.77322],[13.84046,48.77227],[13.84045,48.76702],[13.83704,48.76339],[13.82608,48.75753],[13.82377,48.75728],[13.82188,48.75504],[13.82297,48.74996],[13.82152,48.74823],[13.82237,48.74541],[13.82143,48.73996],[13.81873,48.73647],[13.81997,48.73247],[13.81492,48.7298],[13.8113,48.72959],[13.80903,48.72672],[13.80933,48.72523],[13.80716,48.72465],[13.80389,48.7207],[13.80296,48.72081],[13.80277,48.71794],[13.79578,48.71573],[13.80408,48.7087],[13.8123,48.70934],[13.81379,48.70574],[13.81205,48.70515],[13.81209,48.70322],[13.81487,48.70158],[13.81771,48.70219],[13.82145,48.69971],[13.82632,48.70128],[13.83071,48.70039],[13.83083,48.70132],[13.83398,48.70097],[13.83454,48.70189],[13.83532,48.70083],[13.83833,48.70119],[13.83443,48.69251],[13.82798,48.69276],[13.82454,48.69476],[13.81799,48.69548],[13.81439,48.69248],[13.81531,48.68625],[13.81403,48.68419],[13.81756,48.68197],[13.81818,48.68027],[13.8174,48.6796],[13.82019,48.67559],[13.81956,48.67427],[13.82067,48.67107],[13.81842,48.66713],[13.81927,48.66422],[13.81828,48.66287],[13.8186,48.66005],[13.81715,48.65832],[13.81497,48.6503],[13.81948,48.647],[13.81973,48.64539],[13.82484,48.64277],[13.82253,48.63935],[13.82739,48.63548],[13.82632,48.63134],[13.82807,48.62867],[13.82433,48.62606],[13.82636,48.62212],[13.82584,48.61935],[13.82668,48.61921],[13.82387,48.61812],[13.82346,48.61486],[13.82047,48.61394],[13.8169,48.6152],[13.81498,48.61284],[13.81578,48.61027],[13.81125,48.60924],[13.81226,48.60853],[13.81104,48.60656],[13.80826,48.60561],[13.81017,48.60227],[13.80924,48.60204],[13.80956,48.60058],[13.80216,48.59803],[13.80318,48.59713],[13.8017,48.59603],[13.80241,48.59322],[13.80794,48.59069],[13.80601,48.58953],[13.80717,48.58914],[13.80662,48.5876],[13.80817,48.58507],[13.80571,48.58221],[13.80683,48.58047],[13.80478,48.57921],[13.80181,48.57423],[13.79616,48.57251],[13.7945,48.5732],[13.79124,48.57249],[13.78941,48.56915],[13.78209,48.56604],[13.78229,48.564],[13.77663,48.5605],[13.77612,48.55867],[13.77422,48.55853],[13.77288,48.55665],[13.77408,48.55569],[13.77089,48.5542],[13.769,48.55427],[13.76728,48.55884],[13.76115,48.56609],[13.75655,48.56561],[13.75494,48.5642],[13.75137,48.5583],[13.74894,48.55737],[13.75018,48.55463],[13.74849,48.55482],[13.74753,48.55304],[13.75243,48.55337],[13.75574,48.55179],[13.75108,48.54842],[13.74681,48.54702],[13.74454,48.54468],[13.7459,48.54107],[13.74923,48.54023],[13.74978,48.53863],[13.74997,48.53284],[13.74885,48.53216],[13.74865,48.53002],[13.73418,48.52592],[13.73437,48.52275],[13.73163,48.52173],[13.73162,48.5184],[13.73311,48.51722],[13.73139,48.51539],[13.72795,48.51364],[13.70745,48.51796],[13.69903,48.52371],[13.68598,48.52937],[13.66554,48.53456],[13.66159,48.53746],[13.65659,48.54761],[13.65434,48.54967],[13.64272,48.553],[13.62558,48.55507],[13.6137,48.56131],[13.60704,48.56725],[13.60063,48.57003],[13.5955,48.57057],[13.5907,48.56924],[13.58457,48.56156],[13.58232,48.5603],[13.57041,48.56193],[13.54427,48.57547],[13.52836,48.58788],[13.51804,48.59124],[13.50983,48.59126],[13.50607,48.58854],[13.50249,48.58153],[13.50594,48.57983],[13.50605,48.5783],[13.50782,48.57838],[13.50488,48.57316],[13.49677,48.57005],[13.49273,48.57034],[13.49221,48.56969],[13.49424,48.56762],[13.49256,48.56495],[13.48964,48.56344],[13.48708,48.56368],[13.48573,48.56218],[13.47978,48.56531],[13.47534,48.56301],[13.47725,48.55959],[13.47566,48.55809],[13.47621,48.5567],[13.46913,48.55454],[13.46439,48.55462],[13.45701,48.55863],[13.45655,48.56132],[13.45081,48.56459],[13.43847,48.55778],[13.43769,48.55462],[13.43975,48.54872],[13.45097,48.53836],[13.45095,48.53439],[13.4467,48.53149],[13.44584,48.52974],[13.4471,48.52459],[13.459,48.51246],[13.44889,48.49719],[13.44754,48.49184],[13.4379,48.47384],[13.43312,48.46823],[13.42788,48.45751],[13.42906,48.45192],[13.43646,48.44425],[13.43986,48.4389],[13.44082,48.43493],[13.44004,48.43129],[13.42299,48.40577],[13.42038,48.3983],[13.41871,48.3854],[13.41274,48.37589],[13.40697,48.37186],[13.36763,48.35328],[13.35052,48.33837],[13.33021,48.3239],[13.32216,48.3198],[13.25742,48.29426],[13.2492,48.29353],[13.1924,48.29622],[13.18007,48.29539],[13.16962,48.29297],[13.12817,48.27895],[13.11631,48.27791],[13.0906,48.27896],[13.08167,48.27784],[13.07451,48.27541],[13.05664,48.26634],[13.02301,48.25864],[13.01298,48.25301],[13.00475,48.24268],[12.99964,48.23806],[12.96625,48.21454],[12.95748,48.21013],[12.94647,48.20738],[12.91775,48.20706],[12.90352,48.20493],[12.87896,48.20361],[12.87078,48.20193],[12.86573,48.1982],[12.86124,48.18571],[12.85306,48.17819],[12.84794,48.16755],[12.84413,48.16622],[12.83991,48.1669],[12.83669,48.16588],[12.83551,48.164],[12.8352,48.15861],[12.82864,48.15369],[12.81218,48.1521],[12.79997,48.1473],[12.79832,48.14509],[12.79823,48.13939],[12.78718,48.12404],[12.78307,48.12368],[12.77547,48.12785],[12.76909,48.12935],[12.76375,48.12923],[12.75964,48.1276],[12.75865,48.12587],[12.75989,48.12193],[12.75948,48.11957],[12.75098,48.11226],[12.74994,48.10912],[12.75368,48.08744],[12.76018,48.07577],[12.77089,48.06674],[12.83447,48.0288],[12.85091,48.01681],[12.858,48.0082],[12.86925,47.9716],[12.871,47.96809],[12.87462,47.96451],[12.8846,47.96007],[12.91078,47.95795],[12.91804,47.95559],[12.92139,47.95196],[12.92005,47.94285],[12.92332,47.93994],[12.93301,47.94053],[12.9352,47.94163],[12.93649,47.94452],[12.93888,47.94387],[12.94145,47.93278],[12.94661,47.92335],[12.96489,47.90428],[12.98228,47.87738],[13.00211,47.85496],[13.00421,47.85024],[13.00486,47.84605],[13.00347,47.84239],[12.98538,47.82883],[12.97763,47.81628],[12.96478,47.80047],[12.95259,47.79199],[12.94776,47.78696],[12.94025,47.78553],[12.93912,47.78382],[12.94021,47.77882],[12.93351,47.7763],[12.93022,47.77342],[12.92843,47.77045],[12.92943,47.77014],[12.93551,47.77284],[12.93642,47.77254],[12.93548,47.77075],[12.94294,47.77154],[12.94552,47.76497],[12.94144,47.76041],[12.93583,47.75849],[12.93621,47.75756],[12.93864,47.75844],[12.93665,47.75444],[12.93698,47.74962],[12.9359,47.74788],[12.93485,47.74859],[12.93355,47.74789],[12.93168,47.74541],[12.922,47.74473],[12.91893,47.74314],[12.91681,47.73975],[12.91303,47.73756],[12.91136,47.73209],[12.90527,47.72801],[12.90595,47.72399],[12.91188,47.72072],[12.91361,47.71791],[12.91725,47.71746],[12.91913,47.71553],[12.92371,47.7144],[12.9256,47.71085],[12.93388,47.7101],[12.93979,47.71228],[12.94716,47.71273],[12.95625,47.70835],[12.96341,47.71004],[12.96701,47.70854],[12.97451,47.7077],[12.9879,47.70796],[12.99219,47.7092],[12.99303,47.71181],[12.99567,47.71362],[13.00264,47.71382],[13.00524,47.71569],[13.00667,47.71749],[13.00545,47.71861],[13.00861,47.72083],[13.00937,47.72293],[13.01896,47.72344],[13.02016,47.72203],[13.02361,47.72148],[13.02948,47.71639],[13.03152,47.71741],[13.03419,47.71704],[13.04371,47.71449],[13.04299,47.71338],[13.04671,47.71322],[13.05022,47.71109],[13.04875,47.70969],[13.05641,47.70432],[13.06158,47.69769],[13.06524,47.69628],[13.06991,47.69248],[13.07495,47.69241],[13.08146,47.68758],[13.0776,47.67339],[13.07863,47.66788],[13.08077,47.66303],[13.08516,47.66102],[13.0902,47.6548],[13.08921,47.64967],[13.0925,47.64506],[13.09774,47.64125],[13.09964,47.63571],[13.09741,47.6323],[13.09662,47.62854],[13.08131,47.6195],[13.07851,47.6153],[13.07237,47.61109],[13.07212,47.60761],[13.0702,47.60536],[13.06488,47.60357],[13.06331,47.602],[13.06552,47.59602],[13.06901,47.59261],[13.07182,47.59219],[13.07281,47.58897],[13.07135,47.58752],[13.06921,47.58634],[13.0571,47.58617],[13.04436,47.5839],[13.04582,47.57974],[13.04228,47.57702],[13.04336,47.57425],[13.04692,47.57134],[13.0478,47.56981],[13.04698,47.56938],[13.04953,47.56742],[13.05144,47.56408],[13.05822,47.56269],[13.05589,47.56012],[13.05641,47.55787],[13.04543,47.55084],[13.04576,47.54852],[13.04423,47.5466],[13.03789,47.54338],[13.03743,47.54258],[13.03883,47.54166],[13.0356,47.53942],[13.03475,47.5371],[13.0324,47.53606],[13.03164,47.5331],[13.03809,47.52814],[13.04291,47.52694],[13.04694,47.52441],[13.048,47.52203],[13.04397,47.52046],[13.04484,47.51957],[13.0441,47.51936],[13.04448,47.51662],[13.0474,47.5153],[13.04676,47.51092],[13.04765,47.50631],[13.04679,47.50427],[13.04897,47.49869],[13.04877,47.49691],[13.04667,47.49519],[13.04834,47.49269],[13.04493,47.4915],[13.04256,47.48926],[13.03695,47.48966],[13.0332,47.4874],[13.02758,47.48722],[13.02648,47.48563],[13.02718,47.48398],[13.02265,47.47812],[13.0204,47.47797],[13.01554,47.4712],[13.01102,47.46908],[13.00732,47.46491],[13.00436,47.46392],[13.00175,47.46454],[12.99808,47.4701],[12.99409,47.47224],[12.9955,47.47916],[12.99009,47.4781],[12.9869,47.47998],[12.98628,47.482],[12.97858,47.48348],[12.97869,47.48522],[12.97592,47.4856],[12.97418,47.48381],[12.97508,47.48151],[12.97331,47.47902],[12.97337,47.47483],[12.96654,47.47536],[12.90937,47.49749],[12.88515,47.51329],[12.88619,47.51504],[12.88502,47.51728],[12.88594,47.51903],[12.88351,47.52116],[12.87236,47.52448],[12.86785,47.52452],[12.86538,47.5257],[12.86396,47.52859],[12.85796,47.52747],[12.85537,47.5303],[12.85237,47.53134],[12.85,47.53668],[12.85098,47.54103],[12.84901,47.5429],[12.84835,47.54653],[12.84331,47.54739],[12.83613,47.54544],[12.82919,47.54515],[12.8232,47.54642],[12.8184,47.54543],[12.80795,47.54892],[12.79498,47.55756],[12.7935,47.56062],[12.79303,47.56565],[12.78495,47.56941],[12.78233,47.57452],[12.78071,47.57506],[12.78119,47.5777],[12.77981,47.57966],[12.78235,47.58169],[12.78218,47.58301],[12.78435,47.58558],[12.78731,47.58697],[12.78821,47.58924],[12.79424,47.59162],[12.79595,47.59364],[12.79196,47.59841],[12.79355,47.60112],[12.79721,47.60234],[12.80007,47.60576],[12.80347,47.60595],[12.80385,47.60786],[12.80804,47.6108],[12.81395,47.61252],[12.82355,47.61016],[12.82517,47.61265],[12.81164,47.62183],[12.8,47.62658],[12.80049,47.62781],[12.79827,47.62821],[12.79037,47.63377],[12.78565,47.6327],[12.78154,47.63324],[12.77251,47.63952],[12.76988,47.64299],[12.76656,47.64451],[12.7657,47.64745],[12.75924,47.65211],[12.75907,47.65344],[12.76133,47.6555],[12.76831,47.65598],[12.77913,47.66147],[12.77871,47.66342],[12.78252,47.66731],[12.78474,47.67212],[12.78184,47.67437],[12.77274,47.66619],[12.76398,47.6676],[12.75788,47.66359],[12.7562,47.66602],[12.75666,47.66685],[12.75513,47.66751],[12.75537,47.66868],[12.75252,47.66979],[12.75141,47.6722],[12.74675,47.67554],[12.73987,47.67674],[12.73292,47.68022],[12.7159,47.67684],[12.70578,47.68169],[12.70141,47.68024],[12.69646,47.68278],[12.68992,47.68177],[12.68583,47.68185],[12.68457,47.68318],[12.67885,47.68301],[12.67107,47.68116],[12.66675,47.6816],[12.6579,47.67662],[12.65751,47.67453],[12.65555,47.67264],[12.64893,47.67068],[12.64762,47.67354],[12.64627,47.67411],[12.63943,47.6716],[12.63695,47.6739],[12.63075,47.67678],[12.61752,47.673],[12.608,47.67429],[12.60432,47.67301],[12.60273,47.66923],[12.59755,47.66667],[12.58353,47.64788],[12.57865,47.63478],[12.57567,47.63287],[12.537,47.63703],[12.51291,47.62587],[12.4998,47.62566],[12.4913,47.63562],[12.49198,47.63746],[12.46574,47.65029],[12.45609,47.66337],[12.45448,47.66392],[12.45337,47.66846],[12.44591,47.67144],[12.44486,47.67229],[12.44629,47.67321],[12.44522,47.67444],[12.44139,47.67446],[12.43956,47.6768],[12.44142,47.67769],[12.4415,47.67933],[12.44016,47.6803],[12.44222,47.68454],[12.44186,47.68838],[12.44362,47.69241],[12.44118,47.69412],[12.4407,47.69579],[12.43326,47.69499],[12.42974,47.69694],[12.40199,47.69285],[12.38135,47.68702],[12.36423,47.68441],[12.35765,47.691],[12.35309,47.69127],[12.35206,47.69267],[12.34624,47.69296],[12.34184,47.69111],[12.33887,47.69127],[12.33567,47.69327],[12.33862,47.69757],[12.29273,47.6907],[12.28532,47.69072],[12.27812,47.68846],[12.26384,47.6789],[12.25585,47.68003],[12.25357,47.68442],[12.24648,47.68833],[12.24186,47.69495],[12.24752,47.71154],[12.25129,47.71324],[12.25153,47.71508],[12.25823,47.72192],[12.26558,47.7331],[12.2638,47.73748],[12.25763,47.74362],[12.25031,47.74214],[12.22734,47.71872],[12.21256,47.71177],[12.2086,47.71055],[12.20656,47.7111],[12.20424,47.70801],[12.197,47.70904],[12.18704,47.70424],[12.18644,47.70252],[12.18406,47.70106],[12.16301,47.70175],[12.16539,47.69033],[12.16913,47.68087],[12.17252,47.67672],[12.18278,47.66867],[12.18548,47.66042],[12.1997,47.64139],[12.20317,47.63086],[12.20429,47.62354],[12.20884,47.61404],[12.2079,47.61027],[12.20455,47.60733],[12.18643,47.6053],[12.17873,47.60146],[12.17785,47.60185],[12.1804,47.60552],[12.18202,47.61091],[12.17958,47.61496],[12.16415,47.614],[12.14038,47.6059],[12.13306,47.60684],[12.1296,47.60622],[12.11579,47.61202],[12.08292,47.61031],[12.08017,47.61168],[12.07875,47.61408],[12.07141,47.61524],[12.06591,47.61742],[12.06478,47.61925],[12.06129,47.6194],[12.05489,47.61582],[12.0518,47.61545],[12.03789,47.61819],[12.03201,47.61535],[12.03148,47.61358],[12.02916,47.61183],[12.02247,47.61165],[12.02019,47.61253],[12.01674,47.61902],[12.01283,47.62241],[12.01332,47.62377],[12.00909,47.62575],[12.00701,47.6241],[12.00003,47.62208],[11.98146,47.61944],[11.97679,47.61355],[11.97497,47.61597],[11.96872,47.61781],[11.93388,47.6133],[11.91426,47.61443],[11.90277,47.60881],[11.89568,47.60963],[11.86414,47.60145],[11.8555,47.60293],[11.8479,47.58288],[11.84475,47.58174],[11.84021,47.58274],[11.82998,47.5827],[11.82893,47.58594],[11.82798,47.58608],[11.81754,47.58497],[11.79009,47.58827],[11.78157,47.59177],[11.77148,47.59001],[11.76785,47.59074],[11.74581,47.5883],[11.72378,47.5897],[11.70069,47.58954],[11.68177,47.58441],[11.67336,47.58604],[11.66082,47.58438],[11.65329,47.58774],[11.64978,47.59093],[11.64385,47.58988],[11.64183,47.59398],[11.63671,47.59514],[11.63351,47.59321],[11.63154,47.58718],[11.63153,47.58523],[11.63495,47.58256],[11.63399,47.58118],[11.63097,47.58084],[11.62447,47.58458],[11.62012,47.58497],[11.61351,47.58042],[11.60753,47.58238],[11.60626,47.58163],[11.60043,47.56708],[11.5977,47.56412],[11.59081,47.56034],[11.58738,47.55529],[11.59015,47.55233],[11.58961,47.54998],[11.58624,47.54601],[11.58641,47.54234],[11.58805,47.53978],[11.58836,47.53205],[11.58915,47.5319],[11.5886,47.52602],[11.57781,47.5208],[11.57611,47.51771],[11.57291,47.51508],[11.56927,47.51419],[11.56258,47.51463],[11.55338,47.51283],[11.55227,47.51396],[11.54021,47.51012],[11.53419,47.50945],[11.5191,47.51158],[11.51302,47.50693],[11.50615,47.5053],[11.49954,47.50792],[11.4899,47.50767],[11.48808,47.50958],[11.45642,47.50955],[11.44981,47.50781],[11.4483,47.5111],[11.44365,47.51481],[11.44263,47.51853],[11.43362,47.51444],[11.4309,47.51153],[11.42233,47.50689],[11.421,47.50405],[11.4171,47.50286],[11.41671,47.50137],[11.41353,47.49946],[11.41202,47.49604],[11.40902,47.4942],[11.40801,47.49115],[11.39973,47.48732],[11.39921,47.48537],[11.39608,47.48453],[11.39667,47.48383],[11.39545,47.48278],[11.39128,47.48274],[11.39164,47.48192],[11.38553,47.47661],[11.3843,47.47296],[11.39157,47.46727],[11.4099,47.4673],[11.4088,47.46489],[11.41105,47.46322],[11.41306,47.4584],[11.41263,47.45612],[11.42165,47.44516],[11.41585,47.44759],[11.40919,47.44756],[11.40789,47.44642],[11.40246,47.44863],[11.3889,47.44709],[11.38553,47.44918],[11.3774,47.44974],[11.37465,47.44895],[11.37158,47.44601],[11.36494,47.4454],[11.35793,47.44932],[11.35052,47.44807],[11.34479,47.45028],[11.33899,47.45047],[11.33171,47.4452],[11.3306,47.44254],[11.33173,47.4396],[11.3301,47.43867],[11.32171,47.4383],[11.31814,47.43304],[11.31465,47.43146],[11.30639,47.43067],[11.30007,47.43134],[11.29816,47.42908],[11.29146,47.42763],[11.29067,47.42271],[11.2937,47.41967],[11.29271,47.41882],[11.29349,47.41645],[11.29066,47.41205],[11.2905,47.40783],[11.28163,47.40121],[11.27037,47.39814],[11.26331,47.39992],[11.25992,47.39877],[11.23737,47.39867],[11.23324,47.3982],[11.22875,47.39568],[11.2254,47.39582],[11.22275,47.39792],[11.22448,47.40212],[11.23113,47.40621],[11.2328,47.41134],[11.24017,47.41624],[11.24079,47.42012],[11.24471,47.42161],[11.25386,47.42881],[11.24941,47.43315],[11.22608,47.43148],[11.22215,47.43203],[11.22175,47.43108],[11.20743,47.43451],[11.20593,47.43447],[11.19831,47.42808],[11.18045,47.42695],[11.17689,47.42469],[11.16958,47.42304],[11.15843,47.42217],[11.15084,47.41984],[11.14146,47.4147],[11.1285,47.41279],[11.12297,47.40691],[11.12239,47.40389],[11.12424,47.40021],[11.11527,47.39603],[11.10444,47.39618],[11.10071,47.39488],[11.09465,47.3965],[11.06858,47.39614],[11.06202,47.39714],[11.05937,47.39597],[11.05381,47.39669],[11.049,47.39448],[11.03862,47.39716],[11.03364,47.39448],[11.02889,47.39395],[11.02363,47.39766],[11.00538,47.39472],[10.99712,47.3953],[10.9931,47.39703],[10.98869,47.39625],[10.97998,47.39754],[10.97228,47.40013],[10.97082,47.40077],[10.97121,47.40296],[10.9701,47.40455],[10.97153,47.40902],[10.96921,47.41245],[10.97211,47.41784],[10.98088,47.41892],[10.98507,47.4216],[10.98403,47.4306],[10.97334,47.43845],[10.95859,47.45213],[10.93999,47.4631],[10.92995,47.47082],[10.92852,47.47251],[10.92922,47.47376],[10.93889,47.48056],[10.9376,47.48173],[10.93478,47.48332],[10.92578,47.48313],[10.91035,47.48614],[10.89623,47.48393],[10.89258,47.48174],[10.88188,47.47978],[10.8749,47.48097],[10.87046,47.48384],[10.86994,47.48865],[10.8722,47.49339],[10.87049,47.49888],[10.87241,47.50097],[10.87735,47.50371],[10.88642,47.50581],[10.89123,47.50818],[10.89814,47.50873],[10.91839,47.51421],[10.91768,47.51594],[10.91899,47.51792],[10.91625,47.51995],[10.90626,47.51808],[10.90478,47.51867],[10.9039,47.52052],[10.90018,47.52261],[10.89661,47.52828],[10.89313,47.53089],[10.8907,47.53791],[10.86733,47.53634],[10.86682,47.5354],[10.86253,47.53459],[10.85397,47.53526],[10.84889,47.53082],[10.84334,47.52836],[10.84039,47.52834],[10.83893,47.52604],[10.83481,47.52871],[10.83206,47.52896],[10.82585,47.52872],[10.81936,47.52685],[10.81354,47.52702],[10.81148,47.525],[10.81304,47.52065],[10.79907,47.52076],[10.79581,47.52179],[10.78709,47.51726],[10.78575,47.5184],[10.7836,47.51789],[10.7779,47.51451],[10.77681,47.51627],[10.77304,47.51625],[10.76394,47.5204],[10.76259,47.52336],[10.76501,47.52548],[10.76435,47.52888],[10.7589,47.5351],[10.75422,47.53559],[10.7543,47.53644],[10.75135,47.5379],[10.74133,47.53918],[10.71877,47.53874],[10.70936,47.54432],[10.70056,47.54417],[10.69498,47.54538],[10.69062,47.55597],[10.69279,47.55661],[10.69138,47.55938],[10.67839,47.55684],[10.67695,47.5596],[10.63514,47.55965],[10.62648,47.56162],[10.62647,47.56356],[10.61944,47.56748],[10.61499,47.56727],[10.61369,47.56606],[10.60859,47.56641],[10.59833,47.57035],[10.59618,47.56771],[10.59629,47.56552],[10.59361,47.56422],[10.59018,47.56041],[10.58069,47.55626],[10.57969,47.55385],[10.58271,47.5508],[10.58217,47.54857],[10.57373,47.53462],[10.57147,47.53407],[10.56434,47.53472],[10.56317,47.53692],[10.56025,47.53685],[10.55926,47.53794],[10.52489,47.53577],[10.48927,47.54101],[10.4727,47.55172],[10.46085,47.55323],[10.45479,47.55641]]]}}]}