{"type":"FeatureCollection","features":[{"type":"Feature","properties":{"reg_name":"francia-aura","source":"IGN Admin Express via france-geojson, Licence Ouverte 2.0"},"geometry":{"type":"Polygon","coordinates":[[[4.78021,46.17668],[4.78024,46.18905],[4.7932,46.20192],[4.79273,46.2075],[4.79495,46.21938],[4.79992,46.22877],[4.80776,46.23697],[4.81156,46.24993],[4.81099,46.25992],[4.81196,46.26186],[4.82033,46.26811],[4.82497,46.27315],[4.83321,46.30014],[4.85342,46.3299],[4.85265,46.34414],[4.85105,46.35234],[4.85146,46.35627],[4.85853,46.36802],[4.87384,46.38467],[4.88324,46.39796],[4.88821,46.40298],[4.88895,46.40607],[4.88799,46.41326],[4.89047,46.42512],[4.89131,46.42517],[4.89182,46.43991],[4.89354,46.44404],[4.8993,46.45012],[4.91111,46.45773],[4.91354,46.46074],[4.91605,46.46685],[4.91418,46.4839],[4.91556,46.48894],[4.92503,46.49621],[4.93359,46.51244],[4.9356,46.51423],[4.94088,46.51183],[4.94237,46.51302],[4.94047,46.51504],[4.94018,46.51784],[4.94125,46.51965],[4.94327,46.51891],[4.94219,46.51587],[4.94452,46.5144],[4.95227,46.51441],[4.95454,46.51269],[4.9521,46.51081],[4.94489,46.51138],[4.9442,46.51063],[4.94413,46.50501],[4.94751,46.50349],[4.95006,46.50081],[4.9528,46.50085],[4.95245,46.50329],[4.95977,46.50767],[4.96351,46.50816],[4.96505,46.50632],[4.96813,46.50526],[4.97035,46.50553],[4.97168,46.50725],[4.96963,46.50937],[4.96339,46.51123],[4.96266,46.51234],[4.97112,46.51447],[4.98355,46.51539],[4.99175,46.51236],[5.00137,46.51187],[5.0057,46.5097],[5.01059,46.51107],[5.01156,46.50965],[5.00948,46.507],[5.01197,46.5059],[5.01297,46.50129],[5.02047,46.49873],[5.02277,46.49643],[5.02596,46.49617],[5.02868,46.49201],[5.04065,46.49136],[5.0461,46.48971],[5.05237,46.48487],[5.05643,46.48393],[5.06212,46.4846],[5.06205,46.48556],[5.07668,46.48623],[5.07614,46.48853],[5.08556,46.49038],[5.08726,46.49187],[5.08877,46.49588],[5.0922,46.4951],[5.09212,46.49652],[5.09725,46.49996],[5.10049,46.4956],[5.10928,46.49147],[5.11455,46.49265],[5.11609,46.49607],[5.11817,46.4971],[5.12635,46.49911],[5.13123,46.50151],[5.13436,46.50148],[5.13546,46.50253],[5.13444,46.50548],[5.13507,46.50898],[5.13933,46.50945],[5.1466,46.507],[5.15677,46.50745],[5.16625,46.50312],[5.16718,46.50458],[5.16535,46.50697],[5.16548,46.50953],[5.16777,46.51208],[5.16597,46.51775],[5.16728,46.51907],[5.17184,46.51639],[5.17266,46.51345],[5.17749,46.51112],[5.18663,46.50878],[5.19382,46.50909],[5.19999,46.5075],[5.20186,46.50826],[5.20369,46.50601],[5.2035,46.50471],[5.19994,46.50385],[5.20334,46.49922],[5.20432,46.49442],[5.2104,46.49229],[5.20976,46.48987],[5.20728,46.48999],[5.20563,46.48836],[5.20591,46.48628],[5.21357,46.48451],[5.21428,46.48184],[5.21142,46.48065],[5.21028,46.47888],[5.21282,46.4776],[5.21338,46.47475],[5.21585,46.47446],[5.21506,46.46836],[5.21962,46.46815],[5.22183,46.46923],[5.22554,46.46827],[5.23312,46.46129],[5.23522,46.45785],[5.24146,46.46125],[5.248,46.45937],[5.24826,46.45811],[5.25104,46.45646],[5.25396,46.45616],[5.25626,46.45065],[5.25765,46.44985],[5.26619,46.45116],[5.27264,46.44991],[5.27304,46.44896],[5.28373,46.44558],[5.29067,46.44985],[5.3067,46.4452],[5.31056,46.44677],[5.3149,46.44513],[5.31432,46.44163],[5.31738,46.438],[5.31765,46.43353],[5.32065,46.43003],[5.32325,46.42983],[5.32447,46.42849],[5.32271,46.42728],[5.31995,46.42779],[5.31591,46.42655],[5.31578,46.42549],[5.31343,46.42566],[5.31248,46.42421],[5.30898,46.42453],[5.30656,46.42199],[5.30847,46.42054],[5.30718,46.41819],[5.30769,46.41682],[5.3124,46.416],[5.30699,46.41477],[5.30242,46.417],[5.29865,46.41584],[5.2988,46.41268],[5.31477,46.40948],[5.32608,46.40198],[5.32829,46.40206],[5.32901,46.40325],[5.33157,46.40013],[5.33105,46.39883],[5.33421,46.3974],[5.33803,46.40175],[5.34142,46.4018],[5.35347,46.39738],[5.35215,46.39341],[5.3599,46.39117],[5.36267,46.39425],[5.36342,46.38901],[5.3671,46.38869],[5.36882,46.38671],[5.3709,46.38678],[5.37147,46.3829],[5.37788,46.38223],[5.36378,46.37199],[5.36282,46.3699],[5.36986,46.36908],[5.36958,46.36661],[5.37705,46.36412],[5.37346,46.35224],[5.38058,46.34579],[5.38691,46.34387],[5.3873,46.34268],[5.39257,46.34065],[5.40142,46.33955],[5.40286,46.33722],[5.40169,46.33279],[5.40429,46.33282],[5.40465,46.31034],[5.41024,46.3091],[5.41353,46.31672],[5.41375,46.32535],[5.41542,46.33535],[5.41656,46.33599],[5.41707,46.33918],[5.41683,46.34526],[5.42366,46.34768],[5.42789,46.34212],[5.42474,46.34154],[5.4283,46.33563],[5.43092,46.33362],[5.43538,46.31954],[5.43783,46.3157],[5.44297,46.31686],[5.4443,46.31871],[5.45707,46.31706],[5.45686,46.31891],[5.45944,46.32316],[5.46447,46.32248],[5.46518,46.32354],[5.46692,46.32327],[5.4689,46.317],[5.4753,46.31539],[5.47386,46.30952],[5.4706,46.30596],[5.47077,46.3033],[5.46596,46.29182],[5.46258,46.28944],[5.45891,46.29071],[5.45911,46.28332],[5.45684,46.27448],[5.46183,46.27429],[5.46182,46.27163],[5.46918,46.27108],[5.46802,46.26889],[5.47221,46.26734],[5.47385,46.26428],[5.48797,46.26816],[5.49959,46.2682],[5.50131,46.26878],[5.50255,46.27109],[5.50479,46.27053],[5.50377,46.26872],[5.50599,46.26667],[5.50824,46.26629],[5.50912,46.26455],[5.52026,46.26415],[5.52796,46.26718],[5.5391,46.2688],[5.55944,46.28349],[5.56516,46.29345],[5.56753,46.29402],[5.57518,46.29263],[5.5784,46.29439],[5.5855,46.29256],[5.59354,46.29436],[5.5974,46.29717],[5.59913,46.29991],[5.60212,46.30532],[5.60238,46.30864],[5.60648,46.30987],[5.60752,46.31191],[5.60567,46.31363],[5.61091,46.31984],[5.61046,46.32422],[5.61324,46.3272],[5.61765,46.3291],[5.63051,46.33021],[5.63666,46.33489],[5.64314,46.34478],[5.64931,46.34096],[5.6498,46.33419],[5.6494,46.33077],[5.64629,46.32712],[5.64425,46.32629],[5.64443,46.3248],[5.65291,46.32322],[5.66217,46.32485],[5.66844,46.32437],[5.67552,46.31893],[5.68038,46.31875],[5.6837,46.31686],[5.68458,46.31092],[5.69275,46.30956],[5.70869,46.30985],[5.71472,46.30877],[5.7167,46.30192],[5.7184,46.29993],[5.7193,46.29346],[5.71449,46.28091],[5.71605,46.27991],[5.72064,46.26915],[5.7197,46.26428],[5.72518,46.26073],[5.74392,46.26657],[5.75102,46.26581],[5.76565,46.26829],[5.77727,46.26618],[5.80063,46.26502],[5.82128,46.26209],[5.84334,46.26281],[5.85307,46.26151],[5.86433,46.27121],[5.86783,46.26813],[5.86919,46.26497],[5.87474,46.26807],[5.87569,46.2676],[5.88675,46.27744],[5.89463,46.28661],[5.89997,46.28491],[5.90102,46.28618],[5.9092,46.28394],[5.91646,46.29371],[5.91524,46.29483],[5.91992,46.30684],[5.91711,46.30756],[5.918,46.30919],[5.92177,46.31223],[5.92344,46.31196],[5.92591,46.31377],[5.94136,46.30873],[5.94094,46.31005],[5.942,46.3115],[5.94398,46.31207],[5.94806,46.31662],[5.9477,46.31798],[5.9503,46.31988],[5.95368,46.32685],[5.95564,46.32894],[5.95747,46.3292],[5.9597,46.33426],[5.96433,46.33736],[5.96669,46.34264],[5.96999,46.34537],[5.97208,46.34557],[5.97556,46.35082],[5.97968,46.35407],[5.98354,46.36304],[5.98658,46.36488],[5.99088,46.36501],[6.0008,46.37023],[6.00558,46.37156],[6.00673,46.37319],[6.0146,46.37609],[6.01786,46.38089],[6.0282,46.38564],[6.03615,46.3916],[6.03742,46.39507],[6.0423,46.39865],[6.04443,46.40236],[6.04919,46.40608],[6.05349,46.41297],[6.05717,46.41631],[6.06058,46.41751],[6.0673,46.41494],[6.09819,46.40879],[6.10031,46.40458],[6.10606,46.39921],[6.1092,46.39937],[6.11291,46.39749],[6.11294,46.39984],[6.13611,46.38767],[6.14928,46.37763],[6.15707,46.3776],[6.15826,46.37958],[6.15985,46.37903],[6.16046,46.37667],[6.17022,46.36648],[6.16136,46.35984],[6.15778,46.35429],[6.15823,46.35152],[6.15722,46.34994],[6.1528,46.34729],[6.14876,46.34247],[6.13859,46.33939],[6.13865,46.33281],[6.13632,46.33213],[6.13695,46.33071],[6.13093,46.32366],[6.12672,46.32119],[6.12412,46.31542],[6.1198,46.31223],[6.1191,46.30771],[6.12042,46.30722],[6.11873,46.30245],[6.12197,46.2995],[6.11882,46.29529],[6.11946,46.29427],[6.11429,46.29472],[6.1124,46.2937],[6.10962,46.2901],[6.10237,46.28485],[6.10477,46.28387],[6.10329,46.27842],[6.11346,46.27245],[6.11001,46.27045],[6.1155,46.26596],[6.12013,46.26475],[6.11817,46.26356],[6.12247,46.25819],[6.12115,46.25508],[6.12425,46.25101],[6.10925,46.23976],[6.1072,46.24104],[6.10176,46.23749],[6.09011,46.24553],[6.08437,46.24689],[6.0826,46.24506],[6.07958,46.24538],[6.07454,46.24371],[6.07309,46.24141],[6.06967,46.24103],[6.06318,46.2457],[6.05932,46.24421],[6.05279,46.23902],[6.0508,46.23534],[6.04616,46.23118],[6.03372,46.23842],[6.02594,46.23346],[6.01291,46.23077],[6.01361,46.22949],[6.01257,46.22858],[6.01052,46.22913],[6.01023,46.22762],[6.00712,46.22664],[6.00747,46.22359],[6.00256,46.22091],[5.99999,46.22007],[5.99943,46.22139],[5.99607,46.22253],[5.99059,46.222],[5.99376,46.21859],[5.9934,46.21557],[5.97851,46.21702],[5.97474,46.21512],[5.96917,46.20642],[5.97333,46.20276],[5.96512,46.19917],[5.96368,46.19696],[5.9826,46.19082],[5.98523,46.18864],[5.99113,46.18757],[5.99529,46.18299],[5.99133,46.17888],[5.99229,46.17681],[5.99013,46.1754],[5.98852,46.17085],[5.98677,46.17091],[5.98494,46.17354],[5.98226,46.17322],[5.98067,46.16674],[5.96478,46.14514],[5.96462,46.1419],[5.96651,46.13815],[5.96563,46.13665],[5.95606,46.13209],[5.95729,46.12794],[5.96112,46.13043],[5.96529,46.12958],[5.96981,46.13191],[5.97368,46.13158],[5.97718,46.13305],[5.98225,46.13721],[5.98299,46.14096],[5.98224,46.14174],[5.98532,46.14331],[5.98754,46.14266],[5.99278,46.14442],[6.00343,46.14191],[6.01793,46.1427],[6.02426,46.14038],[6.03207,46.13918],[6.03394,46.13799],[6.03386,46.13682],[6.03671,46.13646],[6.04327,46.14138],[6.04553,46.13991],[6.04865,46.14131],[6.04737,46.14278],[6.04856,46.14723],[6.05204,46.1514],[6.07268,46.14993],[6.07493,46.14889],[6.09247,46.15176],[6.09902,46.14391],[6.10389,46.14442],[6.10815,46.14315],[6.1212,46.14266],[6.12662,46.14046],[6.13618,46.14153],[6.14141,46.14618],[6.14492,46.14483],[6.14858,46.14959],[6.15211,46.15172],[6.1771,46.15908],[6.18889,46.16633],[6.1862,46.17493],[6.18618,46.1784],[6.1875,46.17871],[6.18736,46.18034],[6.19145,46.18128],[6.19631,46.18409],[6.19827,46.18344],[6.19892,46.1853],[6.20174,46.18665],[6.20673,46.19216],[6.2144,46.19405],[6.21753,46.19791],[6.22207,46.19897],[6.22187,46.2006],[6.22778,46.20251],[6.22798,46.2035],[6.23422,46.20639],[6.24494,46.20498],[6.24578,46.20662],[6.24755,46.20516],[6.25373,46.20886],[6.26647,46.2137],[6.26857,46.2133],[6.27737,46.21561],[6.29447,46.22492],[6.31025,46.24383],[6.30882,46.24735],[6.3094,46.24994],[6.30587,46.25141],[6.30953,46.25625],[6.30346,46.25497],[6.29541,46.25583],[6.29418,46.25944],[6.29669,46.26358],[6.29488,46.26459],[6.29162,46.26263],[6.28662,46.25718],[6.28328,46.25594],[6.28502,46.25489],[6.2785,46.25265],[6.27906,46.25145],[6.26662,46.24747],[6.26305,46.25093],[6.25993,46.2518],[6.26135,46.25446],[6.24892,46.26308],[6.24274,46.2728],[6.23809,46.27584],[6.23758,46.27775],[6.23898,46.27932],[6.23813,46.28102],[6.24292,46.28523],[6.24569,46.28513],[6.24864,46.28728],[6.25108,46.28764],[6.2529,46.29051],[6.25079,46.29365],[6.24849,46.29413],[6.24989,46.29638],[6.24839,46.29634],[6.24907,46.29871],[6.24738,46.30043],[6.24897,46.30177],[6.24351,46.30353],[6.24594,46.30575],[6.24879,46.30643],[6.25333,46.31161],[6.25805,46.31978],[6.25793,46.32178],[6.25627,46.32355],[6.25767,46.32551],[6.26198,46.32758],[6.26234,46.32928],[6.26937,46.33669],[6.27127,46.33736],[6.27666,46.34483],[6.27674,46.34971],[6.28051,46.35125],[6.28727,46.35701],[6.29418,46.36085],[6.29669,46.36107],[6.30521,46.36676],[6.30878,46.36642],[6.3152,46.36877],[6.32111,46.36893],[6.32669,46.37157],[6.33037,46.36977],[6.34468,46.37001],[6.35064,46.3673],[6.35017,46.36209],[6.3522,46.36044],[6.35221,46.35843],[6.35697,46.35434],[6.35698,46.35224],[6.35953,46.34945],[6.36726,46.34555],[6.38911,46.34012],[6.39316,46.34246],[6.39833,46.34929],[6.40568,46.35183],[6.41313,46.35964],[6.43144,46.36004],[6.4749,46.37482],[6.4804,46.37932],[6.48257,46.3832],[6.48286,46.39192],[6.48447,46.39349],[6.4924,46.39843],[6.51307,46.40479],[6.52058,46.4042],[6.54388,46.39482],[6.54903,46.39494],[6.58809,46.40232],[6.60481,46.4021],[6.6354,46.40603],[6.64968,46.40621],[6.65324,46.40504],[6.66642,46.40458],[6.67876,46.4074],[6.72387,46.40796],[6.73504,46.40501],[6.75751,46.4026],[6.76026,46.40038],[6.7898,46.39292],[6.80531,46.39414],[6.80308,46.39217],[6.80196,46.38559],[6.80605,46.38304],[6.80617,46.37983],[6.80347,46.37633],[6.79866,46.37392],[6.7975,46.37175],[6.79186,46.36715],[6.78092,46.3665],[6.77533,46.3642],[6.77142,46.36092],[6.77044,46.35519],[6.77199,46.35031],[6.77368,46.34781],[6.77933,46.34462],[6.7807,46.34069],[6.78405,46.337],[6.78432,46.33316],[6.78671,46.33216],[6.79647,46.33295],[6.79657,46.33097],[6.79887,46.32893],[6.79752,46.32588],[6.79993,46.32047],[6.80141,46.31951],[6.80722,46.32059],[6.82504,46.31187],[6.83004,46.3055],[6.82813,46.30205],[6.82998,46.30004],[6.83444,46.29978],[6.83547,46.29793],[6.83978,46.29506],[6.84374,46.29427],[6.8453,46.29105],[6.84778,46.28978],[6.85503,46.29242],[6.85891,46.2906],[6.85922,46.2882],[6.86451,46.28299],[6.86449,46.27961],[6.85888,46.27308],[6.86012,46.26613],[6.85456,46.25927],[6.85558,46.25514],[6.84769,46.25022],[6.83993,46.24824],[6.83789,46.2448],[6.83727,46.24109],[6.82959,46.23382],[6.82727,46.23419],[6.82098,46.23187],[6.8217,46.22314],[6.81677,46.22018],[6.81337,46.21514],[6.8112,46.21468],[6.80809,46.21084],[6.80734,46.20803],[6.80366,46.20435],[6.8127,46.18164],[6.80752,46.17859],[6.80546,46.17246],[6.79802,46.16793],[6.79198,46.16223],[6.79285,46.1594],[6.7904,46.15472],[6.79483,46.14711],[6.79654,46.13862],[6.79854,46.1361],[6.80191,46.13534],[6.807,46.13654],[6.81473,46.1297],[6.81712,46.1296],[6.81885,46.13097],[6.83805,46.13264],[6.842,46.13186],[6.8427,46.12926],[6.84486,46.12814],[6.85178,46.12642],[6.86956,46.12498],[6.87617,46.1258],[6.88175,46.12283],[6.89162,46.12535],[6.89505,46.12373],[6.89993,46.1239],[6.89727,46.12085],[6.89326,46.11236],[6.89381,46.10968],[6.89554,46.10871],[6.89351,46.10685],[6.89272,46.10432],[6.88771,46.10028],[6.88681,46.09798],[6.88281,46.09512],[6.88807,46.08905],[6.88861,46.08695],[6.89182,46.08511],[6.89124,46.08203],[6.88831,46.07877],[6.89147,46.07386],[6.88759,46.07307],[6.88041,46.06935],[6.87295,46.05505],[6.87263,46.05205],[6.87614,46.04902],[6.87558,46.04774],[6.883,46.04446],[6.88644,46.04464],[6.89131,46.04237],[6.89152,46.04574],[6.89518,46.04839],[6.90853,46.05024],[6.91082,46.05208],[6.91106,46.05415],[6.91366,46.05503],[6.91465,46.05697],[6.91888,46.05937],[6.92451,46.06519],[6.92857,46.06465],[6.93392,46.06597],[6.93791,46.06328],[6.93636,46.06253],[6.93722,46.06052],[6.93499,46.05866],[6.93471,46.0567],[6.9358,46.05512],[6.93711,46.05538],[6.94321,46.0508],[6.95022,46.05166],[6.95472,46.04164],[6.9629,46.03053],[6.96653,46.03124],[6.97087,46.02593],[6.98147,46.01981],[6.98119,46.0173],[6.98519,46.00803],[6.9851,46.00465],[7.00072,45.99896],[7.0054,46.00157],[7.01048,45.99738],[7.01023,45.99452],[7.01255,45.99144],[7.01153,45.98923],[7.01218,45.98709],[7.01532,45.98682],[7.01966,45.98389],[7.02045,45.98174],[7.02319,45.97978],[7.02321,45.97847],[7.02108,45.97621],[7.01015,45.97316],[7.00901,45.96897],[7.01798,45.96035],[7.02302,45.9582],[7.03531,45.95598],[7.03761,45.9543],[7.03705,45.95221],[7.03854,45.94476],[7.03676,45.94357],[7.03716,45.94143],[7.03588,45.93793],[7.03854,45.93353],[7.04159,45.93142],[7.04357,45.92435],[7.04507,45.92245],[7.04036,45.92233],[7.03803,45.92066],[7.03496,45.92115],[7.02922,45.91963],[7.02441,45.91619],[7.02098,45.91619],[7.01831,45.91437],[7.01813,45.91226],[7.01462,45.90975],[7.01427,45.90633],[7.0082,45.90406],[7.00315,45.89783],[7.00452,45.88966],[7.00675,45.88709],[7.00536,45.88435],[7.00079,45.88071],[6.99895,45.87732],[6.99995,45.87547],[6.99921,45.87366],[6.99145,45.86798],[6.98214,45.86918],[6.97638,45.86825],[6.97085,45.8669],[6.96765,45.86428],[6.96288,45.86349],[6.9608,45.86186],[6.95134,45.86122],[6.94944,45.85701],[6.9455,45.85316],[6.94121,45.85113],[6.94221,45.84924],[6.94137,45.84693],[6.93795,45.84684],[6.93371,45.84481],[6.92784,45.84785],[6.92182,45.84759],[6.91646,45.84444],[6.9153,45.84201],[6.91327,45.84082],[6.91,45.84186],[6.90785,45.84398],[6.90345,45.84231],[6.8951,45.8426],[6.88277,45.84936],[6.87914,45.84915],[6.87361,45.8455],[6.87479,45.84228],[6.87207,45.83946],[6.87025,45.83932],[6.86991,45.8379],[6.87268,45.83638],[6.86954,45.83205],[6.87205,45.83124],[6.87215,45.83011],[6.87049,45.82882],[6.87009,45.82554],[6.86738,45.82409],[6.86437,45.82733],[6.86443,45.82863],[6.86158,45.82868],[6.86263,45.83035],[6.86078,45.83109],[6.86037,45.83274],[6.85433,45.83681],[6.84436,45.84046],[6.84147,45.84088],[6.8333,45.83743],[6.8251,45.83798],[6.81889,45.8362],[6.8178,45.83152],[6.80484,45.81559],[6.81035,45.81217],[6.81307,45.80747],[6.81102,45.80205],[6.81136,45.79762],[6.81312,45.79548],[6.80563,45.79289],[6.80199,45.78384],[6.80216,45.78195],[6.80084,45.78078],[6.80252,45.77837],[6.80181,45.77525],[6.80638,45.76979],[6.805,45.76859],[6.80503,45.76489],[6.80598,45.76395],[6.805,45.75515],[6.80719,45.75046],[6.80562,45.74846],[6.80812,45.74503],[6.81725,45.7403],[6.81385,45.73332],[6.80814,45.72728],[6.80842,45.72515],[6.81935,45.71868],[6.8197,45.71524],[6.82221,45.71131],[6.82642,45.70762],[6.82719,45.70435],[6.83149,45.70201],[6.83602,45.70237],[6.84139,45.7004],[6.84687,45.69189],[6.84634,45.6902],[6.8563,45.68551],[6.86542,45.68461],[6.86697,45.68396],[6.86859,45.68096],[6.87889,45.67865],[6.88195,45.67925],[6.88279,45.68071],[6.89334,45.6755],[6.89761,45.67812],[6.89874,45.6801],[6.90253,45.68094],[6.907,45.6759],[6.90517,45.67241],[6.90661,45.67036],[6.90586,45.6676],[6.90214,45.66374],[6.91452,45.66116],[6.9165,45.65955],[6.91603,45.65309],[6.91483,45.65173],[6.9202,45.65071],[6.92666,45.6472],[6.92955,45.64717],[6.93083,45.64567],[6.95885,45.65336],[6.96058,45.65485],[6.97046,45.65387],[6.97241,45.64883],[6.97486,45.64656],[6.98948,45.64397],[6.99065,45.64109],[6.99315,45.63958],[7.00069,45.6399],[7.00104,45.63498],[6.99902,45.63384],[6.99602,45.62946],[6.98719,45.62447],[6.98648,45.62147],[6.98514,45.6209],[6.98353,45.61691],[6.98429,45.61458],[6.98636,45.6131],[6.98505,45.60761],[6.97991,45.59692],[6.9806,45.59428],[6.97802,45.59042],[6.97801,45.58718],[6.98075,45.58318],[6.99102,45.57865],[6.99445,45.57595],[6.99529,45.57456],[6.99376,45.5717],[6.997,45.5689],[6.99347,45.56517],[6.99022,45.56387],[6.98975,45.55676],[6.99123,45.5553],[6.99254,45.54886],[6.99596,45.54516],[6.99261,45.53745],[6.99119,45.53044],[7.00326,45.52151],[7.00531,45.5171],[7.0013,45.51132],[7.00033,45.50442],[7.00497,45.50319],[7.01026,45.49981],[7.02122,45.49678],[7.02909,45.49596],[7.03584,45.49693],[7.0391,45.49608],[7.04537,45.49748],[7.05457,45.49497],[7.05636,45.48962],[7.0556,45.48749],[7.04956,45.485],[7.04585,45.47835],[7.04718,45.47753],[7.04799,45.47344],[7.05038,45.47212],[7.06028,45.47099],[7.06474,45.47386],[7.07358,45.47308],[7.07704,45.47379],[7.08204,45.4724],[7.08655,45.47275],[7.08952,45.47078],[7.10303,45.46845],[7.10438,45.46704],[7.10151,45.46567],[7.09893,45.46096],[7.09918,45.45879],[7.10073,45.45448],[7.10775,45.44815],[7.11086,45.44711],[7.11215,45.44363],[7.11461,45.44172],[7.11457,45.43595],[7.11352,45.43419],[7.11435,45.43349],[7.1194,45.43273],[7.13385,45.42657],[7.14149,45.4261],[7.15224,45.4232],[7.15689,45.41701],[7.16342,45.41339],[7.17403,45.40964],[7.18427,45.40748],[7.18589,45.40323],[7.17887,45.39686],[7.17798,45.39342],[7.17944,45.39035],[7.17319,45.38539],[7.17085,45.38567],[7.16504,45.38358],[7.16302,45.38092],[7.16278,45.37669],[7.15846,45.37039],[7.15829,45.36918],[7.15982,45.36839],[7.16034,45.36346],[7.16451,45.36066],[7.15814,45.35867],[7.15757,45.35716],[7.15286,45.35505],[7.15274,45.3529],[7.13815,45.35102],[7.13393,45.34723],[7.13371,45.34291],[7.13173,45.3407],[7.13416,45.33609],[7.13472,45.33124],[7.13175,45.32924],[7.12618,45.32677],[7.11524,45.32902],[7.11117,45.32694],[7.11222,45.32415],[7.10962,45.3189],[7.11271,45.31471],[7.11801,45.31155],[7.11753,45.30707],[7.12049,45.30362],[7.11996,45.30184],[7.1218,45.29622],[7.13369,45.28487],[7.13643,45.2808],[7.13364,45.27483],[7.12815,45.27176],[7.13061,45.27067],[7.13346,45.26659],[7.13174,45.26287],[7.13284,45.26067],[7.13531,45.26047],[7.13759,45.25569],[7.13129,45.25118],[7.13001,45.24793],[7.12521,45.24394],[7.12103,45.24421],[7.11589,45.24626],[7.1106,45.24635],[7.10773,45.24317],[7.1063,45.23728],[7.09833,45.23428],[7.09608,45.23095],[7.09054,45.2286],[7.08872,45.22588],[7.08453,45.22623],[7.08075,45.22445],[7.08324,45.22196],[7.08309,45.21782],[7.07944,45.21603],[7.07994,45.21276],[7.07615,45.21239],[7.07185,45.20995],[7.06641,45.21043],[7.05847,45.21851],[7.05749,45.22071],[7.05118,45.22533],[7.04721,45.22581],[7.04488,45.22474],[7.04276,45.22531],[7.02634,45.21544],[7.02497,45.21568],[7.02329,45.21858],[7.02018,45.21659],[7.01959,45.21467],[7.01512,45.21629],[7.00687,45.21685],[7.00356,45.21991],[6.99749,45.21502],[6.99467,45.21545],[6.99306,45.20997],[6.98579,45.21143],[6.97448,45.20778],[6.96575,45.20795],[6.96058,45.20298],[6.96395,45.20054],[6.96447,45.19818],[6.96738,45.19639],[6.95939,45.19356],[6.95844,45.1922],[6.9544,45.19168],[6.95232,45.18969],[6.95226,45.1865],[6.95454,45.18245],[6.95419,45.17961],[6.95059,45.1799],[6.94904,45.17802],[6.94291,45.17619],[6.94713,45.17076],[6.92718,45.1705],[6.92338,45.1682],[6.92427,45.16632],[6.91447,45.16871],[6.91052,45.16548],[6.90345,45.16788],[6.89395,45.16852],[6.89161,45.16704],[6.89224,45.16376],[6.89126,45.16173],[6.88527,45.15846],[6.88411,45.15674],[6.88995,45.15012],[6.89025,45.1465],[6.89756,45.14301],[6.89807,45.14141],[6.89438,45.13737],[6.89235,45.13682],[6.88056,45.13489],[6.87363,45.13593],[6.86733,45.13171],[6.84789,45.1272],[6.84534,45.13126],[6.84725,45.13556],[6.83602,45.13523],[6.83042,45.13927],[6.83037,45.14031],[6.82453,45.14229],[6.82139,45.14526],[6.81942,45.14429],[6.81357,45.1479],[6.8014,45.15008],[6.79684,45.15296],[6.7872,45.15333],[6.7807,45.15758],[6.76795,45.15974],[6.76128,45.15323],[6.75472,45.15001],[6.75191,45.144],[6.74002,45.13674],[6.73583,45.13843],[6.72704,45.13849],[6.71211,45.14465],[6.70496,45.14361],[6.69209,45.13918],[6.68007,45.14012],[6.67382,45.13077],[6.67423,45.12841],[6.67246,45.12441],[6.66636,45.12351],[6.66238,45.12051],[6.65813,45.12176],[6.65489,45.11745],[6.6482,45.11477],[6.64295,45.11601],[6.63563,45.11588],[6.63298,45.11466],[6.63294,45.11056],[6.62999,45.10933],[6.62729,45.11078],[6.62482,45.11524],[6.62041,45.11671],[6.61555,45.12148],[6.61273,45.12046],[6.60829,45.12071],[6.6065,45.1196],[6.60295,45.11979],[6.60171,45.1218],[6.59271,45.11894],[6.58452,45.12009],[6.57653,45.1231],[6.57221,45.1196],[6.5708,45.11685],[6.56391,45.11382],[6.56135,45.11122],[6.5613,45.10531],[6.55866,45.10397],[6.55104,45.10329],[6.53916,45.09909],[6.52971,45.09857],[6.52552,45.10039],[6.52166,45.10413],[6.51667,45.10549],[6.51042,45.109],[6.5047,45.10367],[6.49382,45.09994],[6.48426,45.09434],[6.48049,45.09417],[6.48038,45.09079],[6.48556,45.08584],[6.48679,45.08164],[6.48698,45.07992],[6.48411,45.07894],[6.48311,45.07722],[6.48851,45.07285],[6.4896,45.06767],[6.48915,45.06571],[6.48657,45.06508],[6.48601,45.06266],[6.48725,45.05685],[6.48623,45.05607],[6.46891,45.05561],[6.4578,45.05399],[6.4518,45.05172],[6.4434,45.05508],[6.44409,45.05676],[6.44163,45.05803],[6.43979,45.0616],[6.43427,45.06359],[6.43173,45.06369],[6.42278,45.06008],[6.41078,45.06402],[6.40378,45.06476],[6.39635,45.06105],[6.38854,45.06398],[6.38427,45.06391],[6.37944,45.06749],[6.37486,45.06749],[6.36488,45.07017],[6.37214,45.07857],[6.37467,45.08317],[6.37241,45.08544],[6.37126,45.09085],[6.36699,45.09622],[6.36574,45.10096],[6.36278,45.10506],[6.35548,45.1082],[6.34784,45.11445],[6.33992,45.11612],[6.33789,45.12065],[6.33448,45.12284],[6.33229,45.11873],[6.31733,45.11199],[6.31042,45.1116],[6.29922,45.10855],[6.29355,45.10851],[6.28628,45.11016],[6.28261,45.11412],[6.27484,45.11578],[6.27374,45.11752],[6.26963,45.11969],[6.26671,45.12452],[6.26417,45.12641],[6.26057,45.12685],[6.25714,45.12218],[6.2545,45.12079],[6.24652,45.12034],[6.24016,45.1128],[6.23154,45.11061],[6.22885,45.10831],[6.22943,45.0997],[6.23071,45.0961],[6.23452,45.09228],[6.23583,45.08723],[6.23721,45.08579],[6.23924,45.07514],[6.24452,45.07171],[6.24348,45.06937],[6.24012,45.06772],[6.22468,45.06679],[6.22008,45.06537],[6.21692,45.0553],[6.21534,45.05323],[6.21558,45.04831],[6.21079,45.04514],[6.20859,45.04068],[6.20973,45.03599],[6.20869,45.03256],[6.20981,45.02924],[6.20484,45.02634],[6.20276,45.02276],[6.20393,45.01247],[6.25176,44.9967],[6.25343,44.99521],[6.26001,44.99777],[6.26372,44.99707],[6.27895,45.00078],[6.28518,45.00011],[6.29647,45.00348],[6.30133,45.00408],[6.30379,45.003],[6.3064,45.00475],[6.3182,45.00386],[6.32352,44.99907],[6.31593,44.98997],[6.31712,44.9888],[6.31679,44.98423],[6.31482,44.98018],[6.31848,44.97714],[6.31819,44.97593],[6.32229,44.97429],[6.32269,44.97203],[6.32954,44.96924],[6.3279,44.96474],[6.32283,44.96176],[6.32361,44.96128],[6.32292,44.95302],[6.33052,44.94641],[6.33907,44.94702],[6.34338,44.9442],[6.35046,44.94396],[6.35884,44.94128],[6.35897,44.93664],[6.35637,44.93308],[6.35603,44.92813],[6.35317,44.92608],[6.35299,44.92451],[6.35746,44.92214],[6.35612,44.92102],[6.35609,44.91593],[6.35767,44.91321],[6.35656,44.91087],[6.3589,44.90718],[6.35641,44.90028],[6.3536,44.89746],[6.35818,44.89378],[6.358,44.88929],[6.3593,44.88807],[6.35078,44.8812],[6.3504,44.87369],[6.35232,44.87133],[6.35392,44.86496],[6.35133,44.86244],[6.35536,44.85478],[6.35395,44.85348],[6.34806,44.85166],[6.34455,44.84934],[6.33632,44.84837],[6.33044,44.85128],[6.32409,44.85221],[6.31915,44.8549],[6.32012,44.85704],[6.31717,44.8602],[6.31736,44.86191],[6.31235,44.86298],[6.30868,44.86576],[6.30727,44.86946],[6.30391,44.87305],[6.2886,44.87406],[6.28146,44.86993],[6.2774,44.87147],[6.26941,44.87047],[6.25837,44.86373],[6.25349,44.85516],[6.24998,44.85191],[6.22544,44.8522],[6.22211,44.85366],[6.20843,44.85547],[6.20623,44.85766],[6.20207,44.85892],[6.19638,44.85898],[6.19473,44.85713],[6.19187,44.85692],[6.18767,44.85377],[6.17042,44.85434],[6.16845,44.85225],[6.16232,44.85425],[6.15854,44.85857],[6.15358,44.85926],[6.15117,44.85813],[6.14376,44.85842],[6.13857,44.86328],[6.1329,44.8645],[6.12836,44.8619],[6.12111,44.85353],[6.11833,44.85277],[6.11471,44.84663],[6.11068,44.84316],[6.10642,44.84388],[6.1007,44.84258],[6.09652,44.83749],[6.08994,44.83573],[6.08794,44.83291],[6.07899,44.82856],[6.0733,44.82779],[6.06823,44.82373],[6.06695,44.82142],[6.05856,44.81904],[6.0565,44.81581],[6.05046,44.81812],[6.04769,44.82132],[6.04728,44.82368],[6.0379,44.82943],[6.03414,44.83518],[6.03094,44.83659],[6.03021,44.8381],[6.02506,44.83669],[6.02182,44.83755],[6.01594,44.83548],[6.01142,44.83104],[6.00941,44.83038],[6.00774,44.82386],[6.00552,44.82082],[5.99617,44.81787],[5.97918,44.81858],[5.97255,44.81456],[5.96464,44.81176],[5.96024,44.81198],[5.95743,44.80837],[5.94952,44.80453],[5.95175,44.80067],[5.95376,44.79953],[5.95953,44.79957],[5.96152,44.79595],[5.96921,44.79441],[5.97778,44.79098],[5.98015,44.78118],[5.95316,44.77131],[5.95184,44.7695],[5.95247,44.76214],[5.95112,44.75962],[5.93727,44.76361],[5.93817,44.76268],[5.93622,44.7599],[5.93108,44.75962],[5.92484,44.75692],[5.92067,44.75169],[5.91901,44.75143],[5.91086,44.75771],[5.90015,44.75832],[5.89463,44.7548],[5.89227,44.75572],[5.88942,44.75239],[5.88883,44.7488],[5.88181,44.74663],[5.87546,44.7493],[5.87395,44.74845],[5.8712,44.74894],[5.87164,44.74978],[5.86669,44.75164],[5.85084,44.75078],[5.84679,44.75162],[5.83843,44.75782],[5.83569,44.75746],[5.82709,44.75969],[5.8267,44.75416],[5.82845,44.75046],[5.82746,44.74761],[5.8278,44.74504],[5.82963,44.74367],[5.82931,44.74161],[5.82542,44.73673],[5.8227,44.73559],[5.82142,44.73324],[5.81768,44.73097],[5.81816,44.72938],[5.81495,44.7211],[5.81116,44.71789],[5.81117,44.71275],[5.80319,44.71034],[5.80125,44.70828],[5.80147,44.70678],[5.80387,44.70585],[5.81133,44.70567],[5.81496,44.70327],[5.82036,44.70364],[5.82541,44.70147],[5.82712,44.70029],[5.82716,44.69645],[5.83044,44.69055],[5.82969,44.68868],[5.8258,44.68569],[5.79942,44.67415],[5.80039,44.66934],[5.79784,44.66325],[5.79252,44.66084],[5.79143,44.65862],[5.79234,44.65567],[5.79062,44.65329],[5.78048,44.65264],[5.76381,44.65557],[5.76109,44.65876],[5.75394,44.66271],[5.7535,44.66061],[5.74992,44.66081],[5.75009,44.6563],[5.74748,44.65471],[5.75356,44.64858],[5.7433,44.64767],[5.7428,44.64904],[5.73679,44.64975],[5.73477,44.64648],[5.73865,44.64064],[5.72804,44.6392],[5.72107,44.63973],[5.7146,44.64365],[5.70688,44.64208],[5.70377,44.64491],[5.68964,44.64726],[5.67996,44.65223],[5.66844,44.64837],[5.6555,44.65149],[5.65633,44.65372],[5.65446,44.65539],[5.65155,44.65521],[5.64803,44.65225],[5.64172,44.65107],[5.64022,44.64793],[5.64158,44.63856],[5.63921,44.63552],[5.64162,44.63118],[5.64123,44.62786],[5.6429,44.62605],[5.64306,44.62217],[5.64946,44.61937],[5.64719,44.61156],[5.64619,44.60938],[5.64193,44.60999],[5.63533,44.60915],[5.63659,44.60461],[5.63491,44.60165],[5.63204,44.59984],[5.63139,44.59751],[5.62748,44.59496],[5.62751,44.59105],[5.62573,44.58957],[5.62679,44.58841],[5.62632,44.58662],[5.61785,44.5839],[5.6159,44.57939],[5.61536,44.57325],[5.61285,44.57124],[5.60905,44.57082],[5.60702,44.56834],[5.60217,44.55683],[5.60026,44.55534],[5.59725,44.54327],[5.60472,44.54067],[5.61198,44.53606],[5.61499,44.53282],[5.62187,44.53528],[5.62737,44.53458],[5.65314,44.51483],[5.66293,44.50527],[5.6645,44.50189],[5.65696,44.50202],[5.65007,44.49916],[5.6413,44.50234],[5.62979,44.50119],[5.62668,44.49857],[5.62502,44.4948],[5.62353,44.48947],[5.62502,44.48457],[5.62105,44.48212],[5.61631,44.47271],[5.61174,44.4696],[5.6063,44.46795],[5.60338,44.46542],[5.59508,44.46651],[5.5792,44.47169],[5.5703,44.47676],[5.56139,44.47466],[5.55878,44.47307],[5.55522,44.47696],[5.54526,44.4825],[5.53135,44.4855],[5.51609,44.49173],[5.47988,44.49124],[5.47427,44.49454],[5.47359,44.49857],[5.47203,44.49852],[5.4714,44.49976],[5.46426,44.50053],[5.45841,44.49939],[5.45693,44.49624],[5.45891,44.48852],[5.46279,44.48108],[5.46543,44.48006],[5.46773,44.47333],[5.46742,44.47222],[5.459,44.46903],[5.45873,44.46614],[5.46105,44.46366],[5.4609,44.45974],[5.46405,44.45736],[5.46443,44.44789],[5.48113,44.44168],[5.48546,44.44178],[5.48766,44.44019],[5.49358,44.43934],[5.4983,44.43732],[5.49362,44.42822],[5.48656,44.42931],[5.48463,44.42833],[5.48323,44.42432],[5.47649,44.41972],[5.47285,44.42039],[5.47044,44.42287],[5.46291,44.42654],[5.46015,44.42661],[5.44971,44.43122],[5.43672,44.4337],[5.43007,44.4317],[5.4184,44.42477],[5.42217,44.419],[5.42295,44.41577],[5.42853,44.4155],[5.43123,44.41425],[5.43415,44.41011],[5.43638,44.40226],[5.44303,44.39124],[5.44079,44.38791],[5.44088,44.38409],[5.44415,44.37945],[5.44144,44.37776],[5.4366,44.37785],[5.43376,44.37648],[5.43022,44.37699],[5.43191,44.37099],[5.43832,44.3674],[5.44882,44.36905],[5.45199,44.36743],[5.45882,44.36851],[5.46255,44.36738],[5.46574,44.36486],[5.46726,44.36045],[5.46687,44.35454],[5.46786,44.35216],[5.47126,44.35045],[5.47517,44.35154],[5.47989,44.35119],[5.48246,44.34981],[5.48218,44.34729],[5.49057,44.33963],[5.49129,44.33786],[5.49803,44.33971],[5.50229,44.34408],[5.51049,44.34607],[5.52137,44.35108],[5.52275,44.34775],[5.52896,44.34303],[5.53986,44.34264],[5.53737,44.33353],[5.541,44.33115],[5.54457,44.33136],[5.54727,44.33],[5.55559,44.3317],[5.56051,44.33557],[5.56803,44.33217],[5.57386,44.33394],[5.57434,44.33227],[5.58792,44.33211],[5.59125,44.33321],[5.59531,44.33176],[5.60397,44.33421],[5.60618,44.33263],[5.61777,44.3323],[5.62349,44.33384],[5.6238,44.33522],[5.62692,44.33476],[5.63082,44.33299],[5.63257,44.32835],[5.62872,44.32782],[5.61605,44.31657],[5.61107,44.31594],[5.61102,44.31059],[5.60808,44.30851],[5.6079,44.30667],[5.60947,44.30635],[5.61615,44.30944],[5.61977,44.30786],[5.62705,44.30108],[5.63625,44.30077],[5.63821,44.299],[5.6396,44.29567],[5.643,44.29381],[5.63299,44.29045],[5.63177,44.28689],[5.63211,44.2839],[5.63677,44.27873],[5.64751,44.27248],[5.64558,44.26924],[5.64678,44.26709],[5.65759,44.27236],[5.67252,44.27436],[5.67561,44.27589],[5.68657,44.26692],[5.68559,44.26393],[5.67986,44.26126],[5.67419,44.25639],[5.67468,44.24962],[5.67299,44.24619],[5.67544,44.24405],[5.673,44.23984],[5.67763,44.23629],[5.68241,44.2343],[5.67945,44.2288],[5.68069,44.22503],[5.67921,44.22093],[5.67726,44.21976],[5.67602,44.21215],[5.68236,44.2048],[5.68336,44.20022],[5.68645,44.19716],[5.68642,44.19464],[5.6845,44.19276],[5.67604,44.19143],[5.67501,44.1888],[5.66863,44.18985],[5.65794,44.18898],[5.65159,44.18958],[5.6523,44.18541],[5.64796,44.17968],[5.64778,44.17518],[5.64378,44.17309],[5.64327,44.17072],[5.64386,44.1689],[5.64571,44.16835],[5.64697,44.16629],[5.66263,44.16687],[5.67264,44.16451],[5.68236,44.16363],[5.67919,44.15535],[5.67794,44.14638],[5.66738,44.14911],[5.65522,44.14756],[5.63114,44.15058],[5.63222,44.15217],[5.63171,44.15858],[5.63722,44.16234],[5.63959,44.16759],[5.63616,44.16998],[5.63359,44.16978],[5.63209,44.17108],[5.63198,44.17369],[5.62629,44.17594],[5.61613,44.1778],[5.61596,44.18254],[5.6132,44.18604],[5.60959,44.1875],[5.60933,44.19071],[5.60205,44.19149],[5.60043,44.18933],[5.59621,44.18765],[5.59099,44.18716],[5.58369,44.18868],[5.57619,44.18804],[5.57462,44.18683],[5.57535,44.18504],[5.57282,44.18173],[5.56838,44.17999],[5.56437,44.1709],[5.56735,44.16928],[5.57325,44.16281],[5.58298,44.15762],[5.57873,44.15208],[5.56882,44.14803],[5.55133,44.14979],[5.55006,44.14577],[5.5414,44.13263],[5.51106,44.12411],[5.51125,44.12186],[5.5087,44.1185],[5.50261,44.11565],[5.49471,44.11538],[5.48259,44.11779],[5.46123,44.11814],[5.45472,44.11923],[5.45058,44.12154],[5.44873,44.12564],[5.44978,44.12877],[5.44757,44.13675],[5.44302,44.13827],[5.43919,44.13793],[5.43656,44.13998],[5.43754,44.14455],[5.4366,44.148],[5.43766,44.14923],[5.43567,44.15085],[5.43576,44.15225],[5.43244,44.15221],[5.42839,44.14912],[5.42391,44.14929],[5.41677,44.15511],[5.40853,44.15308],[5.39661,44.15196],[5.39247,44.15225],[5.38582,44.15558],[5.38324,44.15528],[5.38276,44.16048],[5.3846,44.16596],[5.38366,44.17293],[5.38648,44.17691],[5.38666,44.18168],[5.3863,44.18565],[5.38149,44.19168],[5.38108,44.19592],[5.38453,44.20118],[5.35535,44.21456],[5.33668,44.20435],[5.33683,44.20353],[5.33197,44.20392],[5.31831,44.20987],[5.31282,44.20816],[5.30334,44.2099],[5.30253,44.20856],[5.30379,44.20646],[5.3033,44.20539],[5.2976,44.20793],[5.29225,44.21447],[5.28067,44.2198],[5.27755,44.22019],[5.26855,44.22544],[5.2523,44.23121],[5.24045,44.23083],[5.23815,44.21323],[5.2339,44.21343],[5.23082,44.21193],[5.22851,44.21231],[5.22684,44.21497],[5.22541,44.21518],[5.22213,44.21341],[5.21614,44.21505],[5.20673,44.21376],[5.20206,44.21662],[5.19836,44.21667],[5.18871,44.22028],[5.18482,44.2188],[5.18248,44.21977],[5.18183,44.21897],[5.17497,44.22081],[5.16656,44.22593],[5.16556,44.22473],[5.16169,44.22753],[5.16092,44.22976],[5.15813,44.22884],[5.1549,44.23094],[5.1554,44.2334],[5.15325,44.23297],[5.14947,44.2353],[5.16155,44.24559],[5.16237,44.25498],[5.15999,44.25725],[5.15965,44.2623],[5.16073,44.26655],[5.14872,44.26942],[5.14682,44.2718],[5.14707,44.27557],[5.14973,44.28208],[5.16116,44.28739],[5.16163,44.28908],[5.16811,44.28992],[5.17005,44.29986],[5.16929,44.30128],[5.1737,44.30837],[5.17314,44.30951],[5.17089,44.3098],[5.16992,44.31315],[5.16775,44.31483],[5.15063,44.30962],[5.15395,44.30589],[5.15477,44.30187],[5.14995,44.30193],[5.14268,44.29694],[5.11915,44.28692],[5.11589,44.28431],[5.10789,44.2809],[5.10797,44.27725],[5.10529,44.27768],[5.10412,44.27991],[5.09431,44.2828],[5.08647,44.28393],[5.08453,44.28264],[5.07651,44.28409],[5.07056,44.28922],[5.06814,44.29545],[5.06847,44.29981],[5.06056,44.30814],[5.04522,44.30126],[5.02214,44.29584],[5.00554,44.28675],[4.99712,44.28564],[4.98496,44.28586],[4.98145,44.28483],[4.95989,44.27419],[4.9427,44.269],[4.93291,44.26215],[4.92841,44.26267],[4.92308,44.26113],[4.92227,44.25984],[4.90192,44.26017],[4.89927,44.25685],[4.89574,44.25769],[4.90128,44.26428],[4.89615,44.26443],[4.88501,44.26171],[4.87905,44.26148],[4.87523,44.26004],[4.8705,44.25635],[4.8674,44.25575],[4.86595,44.24957],[4.8587,44.2486],[4.85696,44.24774],[4.85709,44.24598],[4.84622,44.24077],[4.84351,44.24178],[4.84148,44.23953],[4.8408,44.23567],[4.83771,44.23646],[4.83231,44.2319],[4.82769,44.23047],[4.82665,44.22833],[4.81738,44.2297],[4.8141,44.23231],[4.81214,44.24205],[4.8136,44.24712],[4.81208,44.2512],[4.81308,44.25271],[4.81267,44.25772],[4.80979,44.26372],[4.804,44.26921],[4.80656,44.2732],[4.8031,44.27999],[4.80302,44.28507],[4.80472,44.28782],[4.80501,44.29191],[4.80288,44.2966],[4.80456,44.3039],[4.79935,44.30348],[4.7905,44.30753],[4.78749,44.31358],[4.78534,44.31351],[4.77967,44.31937],[4.77182,44.31747],[4.76225,44.32538],[4.74932,44.32507],[4.71795,44.32689],[4.71885,44.32573],[4.71381,44.32557],[4.71251,44.32386],[4.71302,44.32065],[4.67903,44.32049],[4.67528,44.32399],[4.67143,44.32478],[4.67132,44.32366],[4.66953,44.32284],[4.65062,44.32981],[4.65133,44.32258],[4.64932,44.31156],[4.65347,44.3021],[4.65367,44.29728],[4.65139,44.2867],[4.65097,44.27436],[4.64922,44.27036],[4.64579,44.27069],[4.64123,44.27439],[4.63806,44.28297],[4.63493,44.28482],[4.62883,44.28401],[4.616,44.27818],[4.61381,44.28003],[4.61223,44.28613],[4.60929,44.28917],[4.60453,44.29138],[4.59653,44.29198],[4.59312,44.29403],[4.58698,44.29459],[4.58119,44.29719],[4.57725,44.30037],[4.575,44.30087],[4.57,44.29934],[4.5587,44.30244],[4.54447,44.32077],[4.5491,44.32369],[4.54879,44.32572],[4.54624,44.32645],[4.53961,44.32338],[4.53224,44.32267],[4.52288,44.33042],[4.51828,44.3301],[4.51275,44.32809],[4.51152,44.33175],[4.51317,44.33407],[4.50689,44.33738],[4.50676,44.34266],[4.50563,44.34402],[4.50368,44.34419],[4.50226,44.34301],[4.5036,44.34005],[4.50286,44.3389],[4.49902,44.33825],[4.48875,44.33908],[4.48153,44.33691],[4.47923,44.33745],[4.47494,44.34202],[4.46716,44.34028],[4.46476,44.34167],[4.45762,44.34163],[4.45422,44.33963],[4.45201,44.3375],[4.45089,44.33262],[4.44842,44.29661],[4.45321,44.29787],[4.44725,44.29352],[4.44544,44.28711],[4.44201,44.28556],[4.44042,44.28342],[4.43465,44.28326],[4.43351,44.28459],[4.43371,44.28662],[4.43142,44.2876],[4.43311,44.29113],[4.42673,44.28782],[4.42011,44.28709],[4.40407,44.28882],[4.39979,44.28795],[4.39897,44.28954],[4.39538,44.29086],[4.3934,44.29364],[4.39365,44.2972],[4.39237,44.29808],[4.39411,44.29961],[4.3929,44.30058],[4.39006,44.29996],[4.38959,44.30109],[4.40326,44.33358],[4.39513,44.34488],[4.3913,44.34694],[4.38818,44.34717],[4.38374,44.34419],[4.36772,44.33939],[4.36191,44.34021],[4.33566,44.33968],[4.32577,44.33832],[4.33002,44.33389],[4.32995,44.33212],[4.32564,44.33072],[4.32172,44.32399],[4.31663,44.32069],[4.30443,44.31524],[4.29415,44.31334],[4.29298,44.31561],[4.29043,44.31673],[4.28784,44.31395],[4.29074,44.30868],[4.28861,44.29188],[4.28383,44.28557],[4.28004,44.28248],[4.27792,44.27522],[4.27194,44.27122],[4.2638,44.26898],[4.25789,44.26481],[4.24924,44.26607],[4.24147,44.2698],[4.23979,44.27208],[4.23504,44.27418],[4.22958,44.27793],[4.22844,44.27988],[4.22603,44.2806],[4.22461,44.28331],[4.21525,44.29067],[4.1872,44.29931],[4.18353,44.30267],[4.18288,44.30579],[4.17778,44.31284],[4.17872,44.31499],[4.17799,44.31774],[4.17475,44.31816],[4.16497,44.31215],[4.14287,44.31335],[4.14114,44.31774],[4.14241,44.32291],[4.1403,44.32788],[4.1345,44.32865],[4.13508,44.33103],[4.13254,44.33224],[4.13172,44.33604],[4.12675,44.33773],[4.11944,44.33285],[4.11576,44.32687],[4.10399,44.3339],[4.09379,44.3345],[4.0933,44.3305],[4.08653,44.33075],[4.08514,44.32852],[4.07371,44.32986],[4.0695,44.32515],[4.06099,44.32181],[4.06014,44.32017],[4.05145,44.31732],[4.04683,44.31938],[4.04935,44.32145],[4.046,44.32168],[4.04744,44.32364],[4.04331,44.32411],[4.03971,44.32727],[4.03698,44.32816],[4.03573,44.3302],[4.04805,44.33394],[4.05015,44.33684],[4.05353,44.33867],[4.05111,44.34397],[4.05089,44.34717],[4.05463,44.35044],[4.05403,44.35815],[4.05277,44.35975],[4.05576,44.3597],[4.05757,44.36346],[4.05322,44.36708],[4.05311,44.37014],[4.05079,44.37436],[4.05298,44.3787],[4.04865,44.38052],[4.04617,44.38361],[4.04375,44.38455],[4.04048,44.3913],[4.04247,44.39464],[4.04428,44.3944],[4.04783,44.3975],[4.04815,44.39591],[4.05304,44.39543],[4.05301,44.3944],[4.05634,44.39259],[4.05872,44.39427],[4.06453,44.39456],[4.06268,44.39866],[4.06677,44.4013],[4.06844,44.40511],[4.06123,44.40908],[4.05721,44.41378],[4.04655,44.41844],[4.03969,44.41805],[4.03549,44.42009],[4.04269,44.42637],[4.04192,44.42792],[4.04518,44.4299],[4.04646,44.43271],[4.0451,44.43539],[4.04243,44.43686],[4.04192,44.4407],[4.0376,44.44572],[4.03622,44.44588],[4.0348,44.44427],[4.03222,44.44629],[4.02882,44.44639],[4.02821,44.44482],[4.02321,44.44558],[4.02113,44.44741],[4.02151,44.45014],[4.01437,44.45096],[4.01449,44.45471],[4.01102,44.45452],[4.00907,44.45666],[4.00435,44.45651],[4.0021,44.4592],[3.99816,44.4598],[3.99692,44.46606],[3.99258,44.46699],[3.99222,44.47005],[3.98765,44.47278],[3.98585,44.47816],[3.98708,44.4817],[3.98468,44.4834],[3.98696,44.48615],[3.98514,44.48856],[3.98689,44.49092],[3.98442,44.49405],[3.98707,44.49526],[3.98588,44.49711],[3.98805,44.49824],[3.98846,44.49963],[3.98654,44.5002],[3.98596,44.502],[3.98807,44.50311],[3.9881,44.50419],[3.98319,44.50894],[3.98396,44.51127],[3.98166,44.51566],[3.97797,44.51636],[3.97953,44.51988],[3.97916,44.52246],[3.97623,44.52317],[3.97104,44.52662],[3.97195,44.52786],[3.96966,44.52889],[3.97114,44.53],[3.96923,44.53381],[3.96607,44.53578],[3.96593,44.54006],[3.96247,44.54438],[3.96178,44.54907],[3.95971,44.55139],[3.96069,44.55503],[3.95823,44.557],[3.95897,44.55915],[3.95148,44.57059],[3.94855,44.57131],[3.94877,44.57289],[3.94515,44.57379],[3.93665,44.57382],[3.93226,44.57208],[3.92946,44.56875],[3.92831,44.57052],[3.9243,44.57142],[3.92337,44.57369],[3.91702,44.57912],[3.91561,44.58289],[3.91952,44.58553],[3.91828,44.58848],[3.91604,44.589],[3.91493,44.59064],[3.90517,44.59271],[3.90616,44.59485],[3.90371,44.59746],[3.90732,44.60249],[3.90611,44.6048],[3.90831,44.60662],[3.9071,44.61059],[3.9047,44.61279],[3.89872,44.61345],[3.89599,44.61245],[3.894,44.6137],[3.89272,44.6273],[3.89591,44.63775],[3.89358,44.64052],[3.89769,44.64348],[3.89465,44.64776],[3.89475,44.65113],[3.88967,44.65691],[3.88491,44.65586],[3.88288,44.65768],[3.88383,44.66514],[3.87982,44.66632],[3.8778,44.66846],[3.87882,44.67393],[3.87765,44.67503],[3.87099,44.67579],[3.86954,44.67825],[3.87691,44.68534],[3.87667,44.6885],[3.88255,44.69072],[3.88417,44.69259],[3.8843,44.69758],[3.88211,44.69793],[3.87618,44.69594],[3.86965,44.6971],[3.86867,44.69833],[3.86997,44.69958],[3.86943,44.70084],[3.8672,44.70227],[3.86806,44.70387],[3.87234,44.70561],[3.87256,44.70723],[3.87084,44.70865],[3.86798,44.70837],[3.86458,44.7104],[3.86187,44.71057],[3.86151,44.71202],[3.86464,44.71795],[3.86196,44.71889],[3.8623,44.7201],[3.86686,44.72842],[3.87059,44.72822],[3.8712,44.72985],[3.8782,44.73231],[3.87698,44.73579],[3.87752,44.73745],[3.87546,44.74063],[3.86573,44.74339],[3.86395,44.74303],[3.85527,44.74625],[3.85005,44.7465],[3.8473,44.74528],[3.83543,44.74804],[3.83619,44.75109],[3.82982,44.75479],[3.83046,44.75616],[3.83725,44.76004],[3.84287,44.76766],[3.84319,44.77022],[3.84017,44.77274],[3.83512,44.77339],[3.83356,44.77647],[3.83154,44.77668],[3.82872,44.77454],[3.81772,44.7719],[3.81811,44.77014],[3.81585,44.76827],[3.81233,44.76878],[3.81214,44.76603],[3.80927,44.76516],[3.80333,44.77042],[3.8049,44.77247],[3.80229,44.77916],[3.80323,44.78158],[3.79853,44.78609],[3.78763,44.79231],[3.78716,44.79366],[3.77989,44.7956],[3.778,44.79873],[3.7753,44.79656],[3.77126,44.7972],[3.77168,44.79881],[3.77338,44.79892],[3.77394,44.80044],[3.77175,44.80173],[3.77141,44.80318],[3.76871,44.80384],[3.76661,44.80306],[3.76414,44.80038],[3.7612,44.80186],[3.76063,44.80452],[3.75878,44.80652],[3.76304,44.80981],[3.76138,44.8119],[3.76174,44.81373],[3.75983,44.81605],[3.75589,44.81705],[3.75507,44.81994],[3.74994,44.82288],[3.74979,44.82405],[3.75139,44.82507],[3.75155,44.8284],[3.74663,44.82945],[3.74521,44.83634],[3.74255,44.83895],[3.73498,44.83976],[3.73457,44.83846],[3.73697,44.83497],[3.73464,44.83301],[3.7282,44.83381],[3.72289,44.83099],[3.71746,44.8315],[3.71161,44.83572],[3.70822,44.83657],[3.70013,44.83666],[3.69791,44.83637],[3.69917,44.83343],[3.69544,44.83096],[3.68876,44.83206],[3.68339,44.82921],[3.67304,44.83045],[3.66636,44.82878],[3.66534,44.83081],[3.66323,44.82983],[3.66199,44.83149],[3.66293,44.83231],[3.65937,44.8335],[3.65742,44.83612],[3.66961,44.84089],[3.67182,44.84339],[3.67047,44.85087],[3.67364,44.85412],[3.67244,44.85683],[3.66677,44.85757],[3.6626,44.86328],[3.66288,44.86472],[3.66155,44.86496],[3.66122,44.86722],[3.65975,44.86853],[3.65985,44.87106],[3.65772,44.87153],[3.65364,44.87594],[3.65244,44.87605],[3.65108,44.87431],[3.64453,44.8765],[3.64388,44.87817],[3.63688,44.87764],[3.63174,44.87862],[3.63005,44.8794],[3.63021,44.88093],[3.62281,44.87818],[3.62257,44.87603],[3.61802,44.87585],[3.61475,44.87418],[3.60919,44.8777],[3.60828,44.87933],[3.60328,44.87943],[3.59373,44.87657],[3.59532,44.8743],[3.59407,44.87215],[3.59544,44.86845],[3.59421,44.86756],[3.59866,44.86207],[3.59874,44.85972],[3.59688,44.85907],[3.5976,44.85695],[3.5944,44.85514],[3.59586,44.85216],[3.59042,44.84663],[3.5943,44.8411],[3.59,44.8384],[3.58663,44.83812],[3.58936,44.83219],[3.5902,44.82755],[3.58892,44.8264],[3.57884,44.82542],[3.57454,44.83461],[3.57058,44.83587],[3.56509,44.83304],[3.56022,44.83279],[3.56232,44.8279],[3.56152,44.82488],[3.55172,44.82576],[3.54305,44.82838],[3.53139,44.82772],[3.50565,44.82385],[3.49365,44.8147],[3.49301,44.81106],[3.48907,44.807],[3.48704,44.80644],[3.47824,44.80968],[3.47757,44.81355],[3.4647,44.82794],[3.45599,44.82916],[3.45535,44.83177],[3.45841,44.83614],[3.45885,44.83993],[3.4556,44.84468],[3.45131,44.8454],[3.4418,44.85423],[3.43862,44.86082],[3.43777,44.87253],[3.43571,44.88024],[3.42706,44.89047],[3.42045,44.8951],[3.41798,44.90077],[3.41926,44.90524],[3.417,44.90625],[3.41926,44.90843],[3.41401,44.91504],[3.41038,44.91778],[3.41383,44.91986],[3.41426,44.92553],[3.41581,44.92741],[3.41562,44.93114],[3.41241,44.93873],[3.41519,44.94158],[3.40438,44.95703],[3.39994,44.95724],[3.39725,44.95853],[3.39201,44.95332],[3.39276,44.95251],[3.38907,44.95137],[3.37135,44.96025],[3.37224,44.96343],[3.37528,44.96359],[3.37619,44.96462],[3.37031,44.96999],[3.3722,44.97554],[3.36134,44.97141],[3.35545,44.9603],[3.35453,44.95482],[3.33795,44.95591],[3.31531,44.94417],[3.31622,44.94062],[3.31333,44.93849],[3.31039,44.93765],[3.30684,44.94114],[3.29914,44.93909],[3.29839,44.93627],[3.28602,44.92638],[3.27993,44.92607],[3.27166,44.9274],[3.26153,44.93207],[3.26229,44.93669],[3.26801,44.94142],[3.26663,44.94229],[3.25642,44.94201],[3.24841,44.93951],[3.25083,44.93643],[3.25055,44.93459],[3.24692,44.93367],[3.24283,44.93558],[3.24169,44.93515],[3.24173,44.9337],[3.24328,44.93171],[3.24813,44.92983],[3.24708,44.92786],[3.24421,44.92703],[3.24818,44.9211],[3.24969,44.91624],[3.24418,44.91604],[3.2425,44.91431],[3.23979,44.9146],[3.23657,44.91259],[3.22643,44.90998],[3.22889,44.90596],[3.22705,44.89814],[3.22754,44.89612],[3.23453,44.88949],[3.23611,44.88935],[3.23633,44.88791],[3.23155,44.88546],[3.2289,44.8862],[3.22717,44.88477],[3.22735,44.88347],[3.21673,44.87612],[3.21571,44.87436],[3.21177,44.87472],[3.21073,44.87329],[3.2016,44.87507],[3.19918,44.87464],[3.19259,44.86965],[3.19361,44.86617],[3.19181,44.86403],[3.19236,44.86273],[3.18855,44.86145],[3.18231,44.86373],[3.18034,44.8674],[3.17489,44.87094],[3.17353,44.87299],[3.16992,44.87327],[3.16703,44.87487],[3.16467,44.87381],[3.16356,44.87543],[3.16518,44.87821],[3.16142,44.8813],[3.16009,44.88523],[3.15438,44.88855],[3.15317,44.89302],[3.15009,44.89412],[3.14459,44.89943],[3.14424,44.90208],[3.1411,44.90332],[3.12838,44.90358],[3.12536,44.9],[3.12513,44.89713],[3.12142,44.89486],[3.12391,44.89173],[3.12401,44.88989],[3.11788,44.89024],[3.11742,44.89379],[3.11509,44.894],[3.11178,44.88817],[3.10398,44.88656],[3.10313,44.88463],[3.10679,44.8797],[3.10637,44.87691],[3.10285,44.87424],[3.10287,44.87046],[3.1077,44.86647],[3.10338,44.86511],[3.10206,44.86115],[3.09671,44.8588],[3.09324,44.85424],[3.09504,44.85261],[3.0949,44.85057],[3.09799,44.85034],[3.0988,44.84893],[3.0968,44.84665],[3.09975,44.84487],[3.09972,44.84334],[3.09732,44.84219],[3.09931,44.84006],[3.09916,44.83291],[3.09506,44.8338],[3.09056,44.83261],[3.0853,44.83309],[3.07266,44.83744],[3.07149,44.83579],[3.07172,44.83309],[3.07416,44.82672],[3.07698,44.82419],[3.06943,44.8228],[3.06217,44.81898],[3.06163,44.81556],[3.06002,44.81349],[3.0578,44.81315],[3.05669,44.80992],[3.0519,44.80572],[3.04809,44.80425],[3.04596,44.79778],[3.04943,44.79385],[3.04822,44.78896],[3.05172,44.78525],[3.04968,44.78485],[3.04988,44.77874],[3.04624,44.77705],[3.04259,44.77221],[3.04904,44.76272],[3.03921,44.75891],[3.03486,44.75421],[3.03482,44.75128],[3.03108,44.74941],[3.02995,44.746],[3.03162,44.74298],[3.03047,44.74105],[3.03068,44.73705],[3.02976,44.73372],[3.02636,44.72893],[3.0314,44.72813],[3.03141,44.72917],[3.03443,44.72919],[3.03533,44.72523],[3.03801,44.72157],[3.03913,44.71499],[3.0263,44.71694],[3.02474,44.71568],[3.02472,44.71404],[3.02307,44.71347],[3.01653,44.71437],[3.01268,44.70934],[3.0141,44.70686],[3.01356,44.7034],[3.00923,44.70005],[3.00877,44.69716],[3.00716,44.69538],[3.00866,44.69425],[3.00591,44.69111],[3.00121,44.68912],[3.00092,44.68792],[3.00276,44.68618],[3.00054,44.68413],[3.00139,44.68142],[2.99801,44.67288],[2.98393,44.6567],[2.98305,44.65299],[2.98176,44.652],[2.98306,44.6502],[2.98494,44.65037],[2.98168,44.64468],[2.97545,44.64472],[2.973,44.64572],[2.96376,44.65431],[2.96187,44.65447],[2.96318,44.65868],[2.95493,44.66076],[2.95482,44.66778],[2.95037,44.66992],[2.94821,44.67443],[2.94571,44.67655],[2.93935,44.67758],[2.93774,44.68055],[2.93858,44.68248],[2.9444,44.68466],[2.94141,44.68662],[2.93885,44.69081],[2.93981,44.69206],[2.93566,44.69357],[2.93274,44.69665],[2.93387,44.69741],[2.93509,44.705],[2.9289,44.71714],[2.92559,44.7271],[2.92382,44.72729],[2.92326,44.72864],[2.93221,44.73818],[2.93524,44.74487],[2.9333,44.74623],[2.93377,44.74987],[2.92746,44.7567],[2.92621,44.75729],[2.92361,44.7564],[2.92284,44.75461],[2.92006,44.7548],[2.91698,44.7564],[2.91147,44.76182],[2.91346,44.76469],[2.91745,44.76669],[2.92206,44.76595],[2.93074,44.76177],[2.93565,44.76696],[2.93443,44.7707],[2.9356,44.77389],[2.93775,44.77487],[2.93228,44.78337],[2.92638,44.7878],[2.92535,44.79109],[2.92019,44.79431],[2.916,44.79158],[2.91156,44.79057],[2.9088,44.78645],[2.90511,44.78377],[2.89277,44.7864],[2.88786,44.78921],[2.88933,44.79194],[2.88326,44.79746],[2.87957,44.80301],[2.87721,44.8073],[2.87762,44.80986],[2.87593,44.81498],[2.87224,44.8184],[2.87041,44.82942],[2.86804,44.83339],[2.86174,44.83594],[2.85998,44.83879],[2.85932,44.84148],[2.86034,44.84251],[2.864,44.8425],[2.86559,44.84362],[2.86513,44.84725],[2.86259,44.84749],[2.86211,44.84962],[2.86016,44.85062],[2.85907,44.8489],[2.85755,44.84878],[2.8549,44.85041],[2.85625,44.8519],[2.85506,44.85326],[2.85608,44.85469],[2.85649,44.86539],[2.86075,44.86716],[2.86126,44.86838],[2.85945,44.87042],[2.85968,44.87446],[2.85575,44.87503],[2.85149,44.87184],[2.84795,44.8715],[2.84327,44.87273],[2.83674,44.87146],[2.83232,44.87256],[2.82605,44.87061],[2.81928,44.87194],[2.81616,44.86953],[2.8135,44.86939],[2.80797,44.87415],[2.80418,44.87439],[2.80196,44.87363],[2.79915,44.86946],[2.79046,44.86724],[2.78403,44.86276],[2.78073,44.85719],[2.77581,44.85775],[2.77385,44.85474],[2.77173,44.8563],[2.77027,44.85941],[2.77134,44.86024],[2.76741,44.86558],[2.76896,44.87057],[2.77062,44.8707],[2.76888,44.87482],[2.77116,44.87605],[2.77063,44.87984],[2.77424,44.88048],[2.77541,44.8848],[2.77859,44.8875],[2.77676,44.88863],[2.77209,44.89849],[2.77186,44.90227],[2.77609,44.90896],[2.77185,44.91802],[2.76095,44.92557],[2.76022,44.92994],[2.75524,44.93297],[2.75164,44.93393],[2.74593,44.93144],[2.74362,44.92928],[2.74178,44.92961],[2.74123,44.93276],[2.74315,44.93468],[2.74304,44.93657],[2.74053,44.93999],[2.73825,44.94122],[2.73692,44.93934],[2.73349,44.93831],[2.73348,44.93737],[2.72924,44.93693],[2.72662,44.93352],[2.72673,44.93106],[2.72569,44.928],[2.72404,44.92665],[2.72402,44.92458],[2.72111,44.92495],[2.71621,44.92906],[2.71359,44.92713],[2.71554,44.92398],[2.71345,44.92367],[2.71324,44.92165],[2.71107,44.91918],[2.71246,44.91836],[2.71226,44.9172],[2.71043,44.91675],[2.70753,44.91095],[2.70828,44.90834],[2.70522,44.90637],[2.70047,44.90419],[2.69661,44.90379],[2.69507,44.90442],[2.69592,44.90771],[2.69427,44.90767],[2.69439,44.90483],[2.69031,44.90215],[2.68736,44.9058],[2.68344,44.90496],[2.68345,44.90707],[2.68048,44.90686],[2.68045,44.90416],[2.67621,44.90386],[2.67098,44.89585],[2.66634,44.89241],[2.66506,44.89012],[2.65796,44.88685],[2.65807,44.88352],[2.65932,44.88329],[2.65872,44.87664],[2.65749,44.87372],[2.65477,44.87206],[2.65425,44.86968],[2.64831,44.86991],[2.6478,44.87082],[2.64368,44.87001],[2.64008,44.87196],[2.63054,44.87284],[2.62577,44.86719],[2.62317,44.86647],[2.62079,44.85897],[2.61775,44.85667],[2.61854,44.85217],[2.61683,44.85078],[2.61538,44.85272],[2.61163,44.84769],[2.61018,44.84756],[2.60699,44.84446],[2.60458,44.84465],[2.60268,44.84317],[2.60267,44.84123],[2.60475,44.84005],[2.60361,44.83902],[2.60772,44.8374],[2.61137,44.83266],[2.61161,44.83068],[2.60989,44.82597],[2.60793,44.82597],[2.60747,44.82394],[2.60298,44.82368],[2.60127,44.82153],[2.59695,44.82028],[2.59853,44.81843],[2.59883,44.81388],[2.60097,44.81343],[2.60058,44.80993],[2.60196,44.80798],[2.6,44.80618],[2.60042,44.80344],[2.59909,44.80173],[2.60085,44.80096],[2.5995,44.79544],[2.6,44.79305],[2.58656,44.78399],[2.58282,44.78386],[2.57817,44.78599],[2.57355,44.78496],[2.56524,44.77819],[2.56284,44.77787],[2.5627,44.77473],[2.56484,44.77265],[2.56236,44.76708],[2.56305,44.76582],[2.55994,44.76235],[2.56126,44.75915],[2.55368,44.75742],[2.55284,44.75584],[2.55058,44.75608],[2.55057,44.75414],[2.55327,44.75094],[2.5537,44.74806],[2.54998,44.74838],[2.55489,44.74472],[2.55393,44.74266],[2.55166,44.74168],[2.55437,44.73991],[2.55329,44.73803],[2.5512,44.73821],[2.5507,44.73664],[2.55561,44.73487],[2.55572,44.73352],[2.55239,44.73339],[2.55213,44.73145],[2.55093,44.73128],[2.54952,44.72853],[2.54574,44.72791],[2.54453,44.72513],[2.55368,44.72525],[2.55514,44.72911],[2.5595,44.73149],[2.55735,44.72811],[2.56075,44.7273],[2.55796,44.72519],[2.55827,44.72272],[2.56042,44.72118],[2.55864,44.71984],[2.55549,44.72124],[2.54975,44.71944],[2.54891,44.71639],[2.54077,44.71352],[2.54019,44.71169],[2.53267,44.71098],[2.52376,44.70504],[2.51802,44.70415],[2.51971,44.70118],[2.51414,44.69309],[2.51105,44.69576],[2.50947,44.6935],[2.50012,44.69019],[2.49859,44.68434],[2.49409,44.67643],[2.48752,44.66842],[2.48751,44.66622],[2.48877,44.66487],[2.4877,44.66258],[2.48908,44.66204],[2.49128,44.65749],[2.48717,44.65655],[2.48319,44.65034],[2.47883,44.649],[2.47253,44.6522],[2.47096,44.65161],[2.469,44.64964],[2.46911,44.64393],[2.46804,44.64289],[2.44845,44.64868],[2.44486,44.64701],[2.44498,44.64418],[2.435,44.63888],[2.43022,44.64028],[2.42846,44.64298],[2.42481,44.6441],[2.41654,44.64254],[2.40685,44.6469],[2.40362,44.64727],[2.40135,44.64542],[2.39436,44.6461],[2.39071,44.64359],[2.38781,44.64426],[2.3873,44.64561],[2.38926,44.64822],[2.38894,44.6493],[2.38542,44.64926],[2.38005,44.65129],[2.37501,44.6457],[2.37009,44.64413],[2.3667,44.64121],[2.35698,44.64139],[2.35453,44.64013],[2.34911,44.64094],[2.34646,44.64382],[2.33296,44.64873],[2.33246,44.6504],[2.33448,44.6517],[2.33417,44.65435],[2.33788,44.6566],[2.33618,44.65975],[2.33624,44.662],[2.32679,44.66969],[2.31625,44.66529],[2.31116,44.66528],[2.30687,44.66267],[2.30458,44.66245],[2.29337,44.66708],[2.28739,44.66559],[2.28529,44.66676],[2.27395,44.66067],[2.26593,44.66109],[2.26027,44.65855],[2.25751,44.65531],[2.25089,44.65189],[2.24107,44.65302],[2.23415,44.65547],[2.22863,44.65511],[2.22504,44.65247],[2.21591,44.65069],[2.20841,44.64384],[2.21146,44.64033],[2.21127,44.63835],[2.21323,44.63741],[2.21096,44.63592],[2.21191,44.63129],[2.21615,44.62445],[2.22069,44.6232],[2.22057,44.62203],[2.21755,44.62198],[2.21068,44.61873],[2.20748,44.61553],[2.20552,44.61648],[2.20627,44.61778],[2.19953,44.62089],[2.1994,44.62228],[2.19757,44.62339],[2.19321,44.62496],[2.19459,44.6264],[2.19377,44.62802],[2.19219,44.62663],[2.19043,44.62916],[2.18634,44.6286],[2.17989,44.63471],[2.17655,44.63547],[2.17435,44.63462],[2.16873,44.63861],[2.16926,44.64788],[2.17449,44.65136],[2.17404,44.65365],[2.17007,44.6581],[2.16184,44.6634],[2.16575,44.66462],[2.16846,44.66426],[2.17193,44.66633],[2.17625,44.67251],[2.17915,44.67445],[2.17429,44.67737],[2.17302,44.68051],[2.16537,44.68747],[2.15953,44.69741],[2.1553,44.70024],[2.15303,44.70001],[2.14756,44.69501],[2.13828,44.6936],[2.13639,44.69526],[2.13367,44.69526],[2.13341,44.69763],[2.12995,44.69867],[2.13295,44.7038],[2.13131,44.70533],[2.13123,44.70885],[2.13773,44.71223],[2.13791,44.71443],[2.14036,44.71633],[2.14325,44.71678],[2.14905,44.72214],[2.14746,44.72357],[2.14796,44.72637],[2.15078,44.72822],[2.1499,44.73002],[2.15248,44.73569],[2.15057,44.74073],[2.15574,44.74245],[2.15479,44.74375],[2.15252,44.74393],[2.15194,44.74555],[2.15408,44.7487],[2.1561,44.74883],[2.15514,44.75176],[2.15083,44.75689],[2.1502,44.75873],[2.15221,44.75914],[2.1517,44.76022],[2.14746,44.76326],[2.15017,44.76466],[2.14846,44.76655],[2.15053,44.77002],[2.15288,44.76966],[2.15413,44.77196],[2.15748,44.77124],[2.15861,44.77255],[2.16165,44.77233],[2.16309,44.77103],[2.16556,44.77152],[2.16696,44.77314],[2.16599,44.77662],[2.16972,44.77748],[2.16831,44.783],[2.17146,44.78562],[2.17177,44.7898],[2.16751,44.79529],[2.16751,44.79808],[2.1653,44.79956],[2.16643,44.80105],[2.16478,44.80383],[2.1652,44.80789],[2.16772,44.81096],[2.16526,44.81356],[2.15874,44.81638],[2.15424,44.81655],[2.14664,44.82103],[2.14461,44.82369],[2.14044,44.8236],[2.13531,44.827],[2.13181,44.83438],[2.12902,44.83554],[2.12749,44.83793],[2.12767,44.84063],[2.12653,44.84184],[2.12809,44.84531],[2.12278,44.8466],[2.12278,44.84763],[2.11721,44.84826],[2.11658,44.85019],[2.10818,44.85823],[2.10181,44.86694],[2.097,44.87112],[2.09351,44.87237],[2.09249,44.87543],[2.09078,44.87569],[2.08968,44.88212],[2.086,44.88418],[2.08625,44.88531],[2.08434,44.88567],[2.08352,44.8871],[2.08529,44.88824],[2.08366,44.89534],[2.087,44.89994],[2.08591,44.90384],[2.0899,44.90304],[2.09217,44.90431],[2.09826,44.90473],[2.10117,44.90568],[2.1011,44.90703],[2.10501,44.90817],[2.10728,44.91028],[2.10212,44.91644],[2.10458,44.91977],[2.10224,44.91963],[2.09906,44.92241],[2.09476,44.92366],[2.08371,44.93214],[2.07901,44.9324],[2.0778,44.93393],[2.07601,44.94103],[2.08023,44.94388],[2.07857,44.9463],[2.0807,44.95329],[2.0758,44.95742],[2.07477,44.96011],[2.07064,44.96257],[2.06757,44.9691],[2.06761,44.97251],[2.06291,44.97651],[2.06981,44.97832],[2.07431,44.97766],[2.08418,44.98159],[2.08526,44.9838],[2.09304,44.98589],[2.09387,44.9844],[2.09977,44.98415],[2.10219,44.98023],[2.10731,44.98137],[2.11421,44.98553],[2.11746,44.98405],[2.11936,44.9845],[2.1198,44.98585],[2.12398,44.98595],[2.13026,44.98421],[2.13329,44.98574],[2.13348,44.98871],[2.13645,44.99016],[2.13707,44.99502],[2.13897,44.99511],[2.14011,44.99723],[2.13934,44.9983],[2.14218,45.00033],[2.13933,45.00257],[2.14089,45.00653],[2.13733,45.00874],[2.1336,45.00878],[2.12794,45.01196],[2.12482,45.01497],[2.12316,45.01969],[2.11827,45.02044],[2.11598,45.02224],[2.11342,45.02759],[2.11341,45.03006],[2.11182,45.03074],[2.11035,45.03388],[2.11173,45.03641],[2.1118,45.0378],[2.11001,45.03829],[2.11083,45.04054],[2.10758,45.04328],[2.1046,45.043],[2.10466,45.04498],[2.09932,45.04763],[2.09516,45.05603],[2.10074,45.056],[2.10093,45.05727],[2.09743,45.05847],[2.09793,45.06067],[2.09926,45.06198],[2.10268,45.06248],[2.10406,45.06675],[2.10978,45.06838],[2.11427,45.07177],[2.11809,45.0689],[2.12069,45.06989],[2.12029,45.07286],[2.12468,45.0744],[2.12632,45.07679],[2.12992,45.07769],[2.1315,45.08179],[2.13829,45.08153],[2.14018,45.08652],[2.1426,45.08662],[2.14394,45.08518],[2.14692,45.08573],[2.14832,45.08492],[2.14821,45.08294],[2.15721,45.08633],[2.1593,45.08476],[2.16451,45.08495],[2.16572,45.08383],[2.16547,45.08194],[2.16725,45.08086],[2.17455,45.08226],[2.1739,45.08775],[2.18023,45.09487],[2.18042,45.09905],[2.17665,45.1022],[2.18016,45.10319],[2.17901,45.10423],[2.1811,45.10495],[2.18167,45.10671],[2.17932,45.10751],[2.1797,45.1095],[2.18166,45.10994],[2.18058,45.11255],[2.18711,45.11445],[2.18781,45.11274],[2.1901,45.114],[2.19034,45.11612],[2.1892,45.1177],[2.18405,45.11949],[2.18385,45.12268],[2.1848,45.12317],[2.18085,45.12686],[2.18205,45.13208],[2.17879,45.1363],[2.18763,45.13586],[2.18788,45.13456],[2.19411,45.13479],[2.19709,45.13772],[2.20256,45.13916],[2.20489,45.14205],[2.20846,45.14367],[2.21157,45.14844],[2.21207,45.15282],[2.20798,45.15875],[2.20843,45.16032],[2.21179,45.16127],[2.21427,45.15983],[2.22222,45.15984],[2.22788,45.16088],[2.23042,45.16209],[2.22946,45.16363],[2.232,45.16398],[2.23295,45.16659],[2.23187,45.16745],[2.23174,45.17006],[2.2222,45.17023],[2.22105,45.17217],[2.21837,45.17247],[2.2192,45.17419],[2.21526,45.17395],[2.21411,45.17616],[2.20666,45.17988],[2.20133,45.17979],[2.20213,45.18394],[2.20054,45.18492],[2.19842,45.19234],[2.19854,45.19441],[2.19969,45.19527],[2.19823,45.19666],[2.19988,45.19797],[2.19803,45.20008],[2.19173,45.20093],[2.18987,45.20406],[2.1943,45.21433],[2.19665,45.21612],[2.19588,45.21811],[2.18932,45.22211],[2.19116,45.22306],[2.19428,45.22081],[2.20172,45.22244],[2.20306,45.22316],[2.20234,45.22698],[2.21265,45.23167],[2.22117,45.23753],[2.22494,45.24185],[2.22569,45.24451],[2.23141,45.24712],[2.23377,45.24654],[2.24027,45.24759],[2.24134,45.24943],[2.24006,45.25537],[2.23765,45.25872],[2.24284,45.26535],[2.245,45.2671],[2.2524,45.26783],[2.25856,45.27022],[2.2613,45.27737],[2.26173,45.28322],[2.26778,45.28682],[2.26899,45.28939],[2.27141,45.29015],[2.28244,45.28678],[2.28742,45.28656],[2.29022,45.28805],[2.29513,45.29534],[2.30016,45.2988],[2.30289,45.30506],[2.30589,45.3074],[2.30787,45.31329],[2.31137,45.3159],[2.31575,45.32183],[2.3296,45.32535],[2.33643,45.3264],[2.33987,45.3258],[2.34611,45.32783],[2.35166,45.32783],[2.35594,45.33345],[2.35976,45.33651],[2.35856,45.33899],[2.35217,45.3433],[2.35026,45.34604],[2.3507,45.34776],[2.35735,45.3541],[2.35932,45.35491],[2.36335,45.35329],[2.36513,45.35608],[2.36449,45.36253],[2.36775,45.36582],[2.3643,45.37234],[2.36462,45.37468],[2.36297,45.37842],[2.36393,45.38089],[2.36769,45.38327],[2.36936,45.3865],[2.36827,45.38862],[2.36514,45.39051],[2.36343,45.39726],[2.35672,45.39951],[2.35455,45.4014],[2.35008,45.40968],[2.3497,45.41175],[2.35066,45.41292],[2.35513,45.41503],[2.36957,45.41615],[2.37269,45.41385],[2.37825,45.41431],[2.3875,45.41196],[2.39549,45.40732],[2.396,45.40323],[2.39879,45.39999],[2.40499,45.39774],[2.41405,45.39643],[2.42267,45.39723],[2.42579,45.39368],[2.43263,45.39317],[2.44186,45.38426],[2.44505,45.38327],[2.45323,45.38362],[2.45917,45.38569],[2.47498,45.3813],[2.47518,45.37995],[2.47313,45.37748],[2.4716,45.37815],[2.47057,45.37672],[2.47025,45.37384],[2.47223,45.37406],[2.47312,45.37537],[2.47605,45.37401],[2.47662,45.37028],[2.48013,45.37031],[2.48269,45.37301],[2.4804,45.37482],[2.48059,45.37657],[2.48219,45.37616],[2.48577,45.37895],[2.50083,45.38136],[2.50644,45.37833],[2.51144,45.3826],[2.51585,45.38434],[2.51936,45.38488],[2.52318,45.38281],[2.52331,45.38541],[2.52787,45.39161],[2.52756,45.39359],[2.52214,45.39702],[2.52361,45.39945],[2.52202,45.40031],[2.52127,45.40264],[2.51775,45.40184],[2.50609,45.40865],[2.50526,45.41063],[2.50137,45.40969],[2.50245,45.41167],[2.49346,45.41344],[2.48754,45.41816],[2.48786,45.41979],[2.49272,45.42369],[2.49138,45.42554],[2.49153,45.42937],[2.49589,45.43583],[2.49295,45.43854],[2.49558,45.44114],[2.49629,45.44316],[2.4956,45.4455],[2.49688,45.44726],[2.50001,45.44847],[2.5025,45.44787],[2.50302,45.45008],[2.49908,45.45436],[2.49941,45.46025],[2.50505,45.46231],[2.50677,45.46407],[2.50715,45.46564],[2.50537,45.46861],[2.50974,45.4731],[2.5076,45.48327],[2.51389,45.49235],[2.50778,45.50311],[2.51153,45.51115],[2.5162,45.51668],[2.51921,45.51694],[2.51839,45.51821],[2.52039,45.52045],[2.51956,45.52279],[2.51176,45.5251],[2.5194,45.53224],[2.51914,45.53368],[2.51512,45.53692],[2.51475,45.54192],[2.51815,45.54357],[2.51854,45.54587],[2.51529,45.54848],[2.51684,45.55302],[2.51467,45.55428],[2.50781,45.55277],[2.50647,45.55421],[2.50359,45.55471],[2.50096,45.55354],[2.49956,45.55417],[2.49873,45.55683],[2.49565,45.55692],[2.49093,45.56039],[2.48977,45.56179],[2.48991,45.56346],[2.49164,45.56502],[2.49146,45.56795],[2.48136,45.57088],[2.48219,45.57327],[2.47419,45.57877],[2.47112,45.57922],[2.47254,45.58093],[2.47517,45.58124],[2.47524,45.58236],[2.47229,45.58439],[2.47229,45.58687],[2.46883,45.588],[2.46897,45.58971],[2.46532,45.59407],[2.46117,45.59646],[2.46592,45.60136],[2.47093,45.60239],[2.47452,45.60648],[2.47843,45.60791],[2.48036,45.61151],[2.47879,45.61785],[2.48021,45.62599],[2.47957,45.62712],[2.48324,45.63035],[2.48202,45.63135],[2.48203,45.63521],[2.48339,45.6393],[2.4875,45.6424],[2.48975,45.64235],[2.49198,45.63776],[2.49461,45.63857],[2.49512,45.64041],[2.49756,45.64067],[2.50166,45.6386],[2.51654,45.63897],[2.52014,45.64069],[2.52079,45.64289],[2.51804,45.64596],[2.52338,45.65211],[2.52353,45.65375],[2.52736,45.65472],[2.52677,45.65679],[2.52828,45.65854],[2.52707,45.6593],[2.52385,45.6572],[2.51904,45.65923],[2.51834,45.66008],[2.51951,45.66201],[2.51546,45.66354],[2.51259,45.66976],[2.51293,45.67133],[2.51781,45.67524],[2.5175,45.67817],[2.52193,45.67739],[2.52386,45.68085],[2.52868,45.6822],[2.52651,45.68539],[2.52427,45.68494],[2.5235,45.68756],[2.52667,45.69198],[2.51891,45.69764],[2.52059,45.69997],[2.51879,45.70029],[2.52008,45.70353],[2.51874,45.7056],[2.52107,45.70722],[2.521,45.70893],[2.52357,45.70901],[2.52301,45.71145],[2.51645,45.71296],[2.51384,45.71551],[2.51314,45.71951],[2.50988,45.72113],[2.51027,45.72231],[2.50898,45.72415],[2.50474,45.72479],[2.50334,45.72749],[2.50051,45.72875],[2.49937,45.73244],[2.49495,45.73394],[2.4938,45.73771],[2.49213,45.73767],[2.4904,45.74064],[2.49158,45.74221],[2.48793,45.74356],[2.48651,45.74726],[2.48484,45.74848],[2.47661,45.74754],[2.47442,45.74566],[2.4686,45.75331],[2.46866,45.75632],[2.46012,45.75719],[2.45447,45.76002],[2.45475,45.76115],[2.45138,45.76147],[2.45047,45.75715],[2.4445,45.75819],[2.44001,45.76481],[2.43546,45.76697],[2.43342,45.77319],[2.43279,45.78659],[2.43086,45.78862],[2.42592,45.79069],[2.42753,45.79235],[2.42727,45.79464],[2.42465,45.79703],[2.41693,45.79915],[2.41281,45.8023],[2.41411,45.80613],[2.41257,45.80806],[2.40672,45.80968],[2.40614,45.81315],[2.38943,45.82373],[2.38802,45.82539],[2.38802,45.82738],[2.39322,45.82971],[2.39536,45.83353],[2.39716,45.83497],[2.39863,45.83457],[2.40154,45.8378],[2.40367,45.83843],[2.41177,45.83631],[2.41594,45.8337],[2.41807,45.83477],[2.42193,45.83491],[2.42297,45.83369],[2.42825,45.83504],[2.43094,45.83382],[2.43158,45.83495],[2.43081,45.83589],[2.43269,45.83976],[2.43127,45.84034],[2.43514,45.84479],[2.43418,45.84525],[2.43663,45.847],[2.43823,45.84596],[2.44094,45.84717],[2.44351,45.84515],[2.4459,45.84496],[2.44782,45.84582],[2.44777,45.84839],[2.44951,45.84821],[2.44965,45.8536],[2.44257,45.85689],[2.44374,45.85878],[2.44265,45.86404],[2.44336,45.86661],[2.44767,45.86584],[2.45425,45.86678],[2.45714,45.86565],[2.45824,45.86758],[2.46178,45.86673],[2.46558,45.86825],[2.46527,45.87135],[2.47062,45.87233],[2.47898,45.87035],[2.47955,45.86841],[2.47846,45.86648],[2.47974,45.86454],[2.49223,45.86403],[2.4923,45.86723],[2.49979,45.87243],[2.50329,45.87823],[2.50299,45.88229],[2.50058,45.88513],[2.50221,45.88849],[2.51033,45.88542],[2.51419,45.88568],[2.51466,45.88996],[2.51816,45.89056],[2.52059,45.89404],[2.52472,45.89439],[2.52661,45.89812],[2.52884,45.89965],[2.53467,45.90121],[2.54143,45.90097],[2.54266,45.90272],[2.5419,45.90458],[2.5428,45.90651],[2.54435,45.90754],[2.54822,45.90739],[2.5488,45.90888],[2.55501,45.91251],[2.5554,45.91372],[2.54394,45.91577],[2.5415,45.92153],[2.54351,45.92383],[2.54307,45.92549],[2.54507,45.92706],[2.54405,45.92841],[2.54425,45.93241],[2.54754,45.93236],[2.55362,45.93582],[2.55164,45.94127],[2.56133,45.94597],[2.56991,45.94721],[2.56357,45.95559],[2.56963,45.95881],[2.57984,45.96014],[2.58326,45.96171],[2.5848,45.96013],[2.58965,45.96066],[2.5943,45.9634],[2.60088,45.96423],[2.6036,45.96625],[2.60902,45.96665],[2.60878,45.9689],[2.61157,45.97208],[2.60715,45.97938],[2.60123,45.98191],[2.5993,45.98583],[2.59725,45.98633],[2.59359,45.98984],[2.5933,45.99921],[2.59546,46.00294],[2.59514,46.00428],[2.5972,46.00505],[2.59903,46.00765],[2.59773,46.0081],[2.60041,46.01183],[2.59866,46.01251],[2.59764,46.01566],[2.6025,46.01921],[2.60026,46.02308],[2.60111,46.02546],[2.60034,46.02757],[2.60251,46.03346],[2.59588,46.0373],[2.58975,46.03902],[2.58923,46.04064],[2.58528,46.04117],[2.58427,46.04353],[2.58118,46.04462],[2.57859,46.04422],[2.57073,46.0473],[2.5719,46.04941],[2.5681,46.05423],[2.56824,46.05643],[2.56514,46.05824],[2.56606,46.0599],[2.56337,46.06374],[2.56428,46.06486],[2.56046,46.06603],[2.55711,46.06914],[2.55533,46.07644],[2.55302,46.07932],[2.55207,46.08431],[2.55039,46.08607],[2.55242,46.09065],[2.55218,46.09574],[2.55058,46.09817],[2.55181,46.10042],[2.55182,46.10397],[2.54836,46.10903],[2.54728,46.11297],[2.55239,46.11598],[2.55245,46.11737],[2.55066,46.1185],[2.55382,46.11953],[2.55818,46.12452],[2.55793,46.12564],[2.55528,46.12533],[2.55398,46.12637],[2.55437,46.1279],[2.55729,46.12875],[2.55588,46.13253],[2.55659,46.13361],[2.55898,46.13126],[2.56092,46.1317],[2.56165,46.13328],[2.55862,46.13787],[2.55921,46.13873],[2.56354,46.13845],[2.56452,46.14079],[2.56317,46.14214],[2.56634,46.14376],[2.56287,46.14915],[2.56549,46.15396],[2.56446,46.15595],[2.56077,46.15559],[2.56149,46.15811],[2.55942,46.15961],[2.56177,46.16392],[2.56022,46.16487],[2.5598,46.17337],[2.55715,46.17527],[2.55418,46.17442],[2.55328,46.17653],[2.55127,46.17698],[2.54316,46.17561],[2.53295,46.18084],[2.53225,46.18259],[2.52599,46.18769],[2.52853,46.19218],[2.52802,46.19546],[2.5266,46.19623],[2.52461,46.2015],[2.5228,46.20119],[2.52169,46.20304],[2.52223,46.20546],[2.52592,46.20722],[2.52464,46.2087],[2.52055,46.20835],[2.51958,46.20952],[2.52302,46.21072],[2.52335,46.21248],[2.51992,46.21388],[2.52019,46.21725],[2.51651,46.22135],[2.51632,46.22464],[2.5147,46.22482],[2.51686,46.22985],[2.51635,46.23237],[2.51453,46.23354],[2.51585,46.23696],[2.51462,46.23994],[2.51099,46.23908],[2.50601,46.24229],[2.50654,46.24413],[2.50303,46.24558],[2.50356,46.24692],[2.49579,46.24725],[2.49436,46.24865],[2.48916,46.24753],[2.48833,46.25298],[2.48368,46.25779],[2.48201,46.26198],[2.47871,46.26361],[2.4802,46.26504],[2.47988,46.26671],[2.47709,46.26936],[2.48076,46.28101],[2.47641,46.28084],[2.47441,46.2821],[2.47188,46.2848],[2.4711,46.28449],[2.47,46.28809],[2.46248,46.28828],[2.45652,46.29116],[2.45385,46.29103],[2.44303,46.295],[2.43458,46.29307],[2.43303,46.29451],[2.43187,46.29442],[2.43037,46.29001],[2.42745,46.28723],[2.42802,46.28533],[2.42277,46.28386],[2.42134,46.28462],[2.4174,46.2942],[2.41421,46.29691],[2.41564,46.29812],[2.41578,46.29992],[2.41941,46.29983],[2.4211,46.30153],[2.41987,46.30248],[2.42066,46.31013],[2.41943,46.30946],[2.40886,46.31486],[2.40789,46.31706],[2.39186,46.32998],[2.38861,46.32976],[2.38608,46.33197],[2.38504,46.32954],[2.37958,46.32761],[2.37542,46.31812],[2.37685,46.3169],[2.37048,46.31263],[2.36497,46.3107],[2.36204,46.31339],[2.36295,46.31519],[2.36179,46.31943],[2.3549,46.32568],[2.35244,46.32374],[2.35016,46.32433],[2.34887,46.32707],[2.34646,46.32505],[2.34355,46.32627],[2.34237,46.32465],[2.33588,46.32329],[2.33354,46.3264],[2.33075,46.32559],[2.33088,46.3287],[2.32432,46.32982],[2.32127,46.32901],[2.31893,46.33409],[2.31594,46.33441],[2.31465,46.33598],[2.31354,46.33508],[2.31185,46.33742],[2.31158,46.34183],[2.30347,46.34286],[2.30099,46.34223],[2.30074,46.34371],[2.30789,46.34511],[2.3071,46.3479],[2.30944,46.34867],[2.30886,46.35154],[2.30587,46.3506],[2.30275,46.35442],[2.30541,46.35573],[2.31138,46.35555],[2.31255,46.35771],[2.31119,46.35995],[2.31307,46.35986],[2.31431,46.35798],[2.3169,46.35838],[2.31827,46.35933],[2.31905,46.36257],[2.3225,46.36356],[2.32314,46.36738],[2.32893,46.36688],[2.33789,46.36414],[2.3351,46.37323],[2.33139,46.37872],[2.31989,46.37759],[2.31716,46.37521],[2.31547,46.3752],[2.30442,46.3788],[2.29825,46.38411],[2.28831,46.38208],[2.28673,46.38285],[2.28686,46.38406],[2.28479,46.38631],[2.28582,46.38811],[2.2827,46.3918],[2.28477,46.39359],[2.28386,46.3998],[2.2778,46.4097],[2.28203,46.41082],[2.27878,46.41379],[2.27851,46.41915],[2.2815,46.42166],[2.27694,46.42513],[2.28045,46.42985],[2.28457,46.43986],[2.28335,46.44928],[2.28837,46.45622],[2.29683,46.46319],[2.29818,46.4685],[2.30079,46.47237],[2.30547,46.47543],[2.31667,46.46855],[2.32071,46.46851],[2.32299,46.46968],[2.32553,46.47296],[2.32787,46.47377],[2.32747,46.47606],[2.32983,46.47854],[2.32891,46.48434],[2.325,46.48645],[2.32533,46.48817],[2.32396,46.48834],[2.32377,46.49011],[2.32929,46.49275],[2.32889,46.49549],[2.33308,46.49694],[2.33464,46.50103],[2.33653,46.50094],[2.33887,46.50355],[2.34461,46.50552],[2.35157,46.51214],[2.3654,46.51785],[2.38847,46.51825],[2.41695,46.52057],[2.418,46.52358],[2.42203,46.52574],[2.43006,46.52654],[2.44171,46.52496],[2.44282,46.52114],[2.44549,46.52005],[2.44986,46.52068],[2.44973,46.52171],[2.45723,46.52413],[2.45776,46.52517],[2.47001,46.52601],[2.48293,46.5327],[2.49695,46.53367],[2.49581,46.52674],[2.49718,46.52152],[2.50264,46.52142],[2.50519,46.52281],[2.50551,46.52146],[2.50708,46.52164],[2.51243,46.52389],[2.5123,46.52533],[2.51355,46.52595],[2.51225,46.52806],[2.52053,46.53089],[2.52737,46.52823],[2.52861,46.52948],[2.53076,46.52943],[2.52937,46.52327],[2.53008,46.52214],[2.53665,46.5197],[2.54555,46.52621],[2.55324,46.52939],[2.57249,46.53385],[2.57537,46.53816],[2.5835,46.54274],[2.59778,46.54774],[2.60986,46.55014],[2.61496,46.55328],[2.61478,46.55589],[2.60957,46.55689],[2.60919,46.55941],[2.61102,46.56111],[2.60953,46.56314],[2.60464,46.56229],[2.60328,46.56428],[2.60347,46.56523],[2.60845,46.56679],[2.60938,46.57133],[2.60562,46.57539],[2.60529,46.57715],[2.6068,46.57764],[2.60615,46.57935],[2.60199,46.58124],[2.6032,46.58785],[2.60029,46.5919],[2.59716,46.5929],[2.5975,46.59497],[2.60011,46.59524],[2.59418,46.59719],[2.59233,46.59372],[2.58966,46.59441],[2.58156,46.59316],[2.57821,46.60127],[2.57778,46.60788],[2.5738,46.60735],[2.56838,46.60938],[2.5757,46.61126],[2.58132,46.61409],[2.58688,46.61466],[2.58832,46.61596],[2.5858,46.62001],[2.58639,46.6228],[2.58425,46.62582],[2.58603,46.62757],[2.59158,46.62967],[2.59665,46.63722],[2.59511,46.6423],[2.59316,46.64433],[2.5931,46.64658],[2.58959,46.64803],[2.56928,46.65091],[2.56674,46.65293],[2.56713,46.65374],[2.56975,46.655],[2.57055,46.65927],[2.57455,46.6612],[2.58148,46.66186],[2.58449,46.66423],[2.59261,46.66543],[2.59431,46.66668],[2.59777,46.66465],[2.60543,46.67121],[2.60726,46.66963],[2.60715,46.6605],[2.61741,46.66083],[2.61923,46.65866],[2.62391,46.65663],[2.62864,46.65954],[2.62834,46.66359],[2.63129,46.66602],[2.63369,46.67527],[2.62499,46.67314],[2.62389,46.67637],[2.62005,46.67972],[2.62216,46.68272],[2.62054,46.68448],[2.62344,46.68776],[2.62337,46.68964],[2.6396,46.69154],[2.64025,46.69028],[2.64463,46.6904],[2.64513,46.68725],[2.653,46.69276],[2.65473,46.69654],[2.66522,46.70061],[2.67438,46.70193],[2.67511,46.70345],[2.6778,46.70461],[2.67637,46.70673],[2.6716,46.70886],[2.67993,46.71288],[2.68596,46.71435],[2.6845,46.72168],[2.68556,46.72262],[2.68752,46.72253],[2.68816,46.72091],[2.69169,46.7196],[2.6921,46.72252],[2.69612,46.72347],[2.70092,46.72096],[2.69966,46.71948],[2.70228,46.71817],[2.7051,46.72059],[2.70256,46.7215],[2.7069,46.72539],[2.70077,46.72802],[2.70309,46.73184],[2.70552,46.73282],[2.70522,46.7362],[2.7062,46.73768],[2.70477,46.73814],[2.70498,46.73939],[2.7145,46.74449],[2.71698,46.74457],[2.7186,46.74168],[2.72635,46.74535],[2.72886,46.74849],[2.73206,46.74762],[2.73992,46.74116],[2.73649,46.73807],[2.74164,46.73441],[2.74421,46.72887],[2.75008,46.72584],[2.75675,46.72477],[2.75527,46.71911],[2.75852,46.71775],[2.76503,46.72096],[2.76843,46.72149],[2.77035,46.72328],[2.7719,46.7231],[2.7711,46.72076],[2.77371,46.71823],[2.77667,46.72087],[2.7859,46.7225],[2.78554,46.7271],[2.79075,46.73126],[2.79123,46.73345],[2.79509,46.73434],[2.80574,46.73304],[2.81493,46.73534],[2.82749,46.73533],[2.83521,46.72801],[2.84677,46.72706],[2.84382,46.7389],[2.84542,46.74286],[2.86228,46.75488],[2.86951,46.75692],[2.87702,46.76147],[2.87617,46.76845],[2.88038,46.77032],[2.89304,46.77277],[2.89581,46.77528],[2.90093,46.77575],[2.91039,46.77939],[2.91146,46.78128],[2.90874,46.78403],[2.90792,46.78768],[2.91327,46.79103],[2.92261,46.79421],[2.93152,46.79575],[2.93564,46.79492],[2.93782,46.79572],[2.93989,46.79318],[2.94154,46.79515],[2.94706,46.79058],[2.95323,46.79113],[2.95355,46.79716],[2.95875,46.79898],[2.9585,46.80051],[2.9605,46.80369],[2.9628,46.80399],[2.98238,46.80294],[2.98825,46.80052],[2.99259,46.79708],[3.01752,46.7999],[3.02234,46.79735],[3.02479,46.79505],[3.02465,46.79401],[3.02765,46.79336],[3.03207,46.79491],[3.03572,46.78917],[3.03683,46.7844],[3.03615,46.77635],[3.04153,46.76714],[3.04907,46.75808],[3.05264,46.7564],[3.06676,46.74548],[3.07166,46.74419],[3.08433,46.7374],[3.12978,46.7272],[3.14085,46.71449],[3.14925,46.70822],[3.15671,46.69948],[3.16574,46.69173],[3.16983,46.68985],[3.17987,46.68793],[3.19882,46.67951],[3.20443,46.67875],[3.20518,46.68068],[3.20729,46.68202],[3.21246,46.68193],[3.2166,46.68338],[3.21721,46.68491],[3.22193,46.68523],[3.22084,46.68649],[3.22776,46.69027],[3.22852,46.69629],[3.23474,46.6975],[3.24689,46.70402],[3.25996,46.70773],[3.26979,46.71674],[3.27742,46.71662],[3.2863,46.71386],[3.30092,46.7163],[3.3018,46.70658],[3.30328,46.70536],[3.30246,46.70392],[3.31204,46.6948],[3.3115,46.69291],[3.31397,46.68875],[3.33061,46.68757],[3.33495,46.68529],[3.34671,46.68442],[3.3589,46.68939],[3.36575,46.6896],[3.37085,46.69626],[3.37711,46.70178],[3.37943,46.70684],[3.37855,46.71238],[3.38861,46.71495],[3.39737,46.71455],[3.40562,46.71173],[3.41717,46.71031],[3.41815,46.71049],[3.41873,46.71313],[3.42182,46.71373],[3.42747,46.71216],[3.43369,46.71223],[3.43103,46.7065],[3.43123,46.70375],[3.42842,46.70076],[3.43298,46.69334],[3.4448,46.69296],[3.44832,46.69202],[3.44867,46.6904],[3.45305,46.69009],[3.45272,46.68658],[3.45519,46.68251],[3.4523,46.68222],[3.45434,46.68013],[3.45172,46.67949],[3.45464,46.67531],[3.4527,46.67353],[3.44832,46.67285],[3.44533,46.67077],[3.4455,46.66934],[3.44836,46.66832],[3.44734,46.66356],[3.44208,46.662],[3.4522,46.6582],[3.4553,46.6524],[3.45729,46.65176],[3.47699,46.6535],[3.48183,46.65067],[3.48735,46.65484],[3.48804,46.65699],[3.48635,46.66079],[3.49226,46.66194],[3.50354,46.67253],[3.51125,46.6756],[3.51325,46.67738],[3.51102,46.67997],[3.51693,46.68157],[3.51442,46.68358],[3.53206,46.68879],[3.53838,46.68513],[3.53783,46.68329],[3.53965,46.68008],[3.54648,46.67829],[3.54942,46.68159],[3.56115,46.68862],[3.54821,46.70617],[3.54794,46.7091],[3.55033,46.71316],[3.55039,46.71586],[3.54784,46.71877],[3.54724,46.72143],[3.54811,46.72232],[3.55748,46.72006],[3.55989,46.71652],[3.56882,46.71549],[3.57421,46.71632],[3.57208,46.72076],[3.57593,46.72288],[3.57826,46.72177],[3.57648,46.71585],[3.57731,46.71485],[3.598,46.72398],[3.59771,46.72804],[3.58455,46.73939],[3.58345,46.74268],[3.58467,46.74451],[3.57708,46.74752],[3.57569,46.74952],[3.57936,46.7524],[3.5837,46.75347],[3.58691,46.75673],[3.58865,46.76134],[3.59268,46.76308],[3.59509,46.7618],[3.59776,46.76203],[3.59725,46.75629],[3.59818,46.75417],[3.60204,46.75124],[3.62011,46.75406],[3.62655,46.75228],[3.62942,46.74946],[3.62882,46.746],[3.62403,46.7425],[3.6226,46.74013],[3.62512,46.73597],[3.63534,46.72852],[3.63759,46.72453],[3.63764,46.70748],[3.63964,46.7062],[3.65066,46.70517],[3.65547,46.68775],[3.65783,46.68516],[3.67029,46.68403],[3.67315,46.68184],[3.66877,46.67531],[3.66898,46.67351],[3.67076,46.67173],[3.68826,46.66545],[3.69695,46.66058],[3.69883,46.65723],[3.69991,46.65056],[3.70324,46.64796],[3.70919,46.63533],[3.72399,46.62633],[3.72303,46.62207],[3.71388,46.614],[3.71286,46.61023],[3.71972,46.60502],[3.73238,46.60491],[3.73599,46.60337],[3.73732,46.60157],[3.73706,46.59923],[3.73389,46.59512],[3.73805,46.58706],[3.7431,46.5655],[3.74065,46.55905],[3.73361,46.55387],[3.73154,46.54958],[3.7347,46.54545],[3.74185,46.53951],[3.747,46.53729],[3.75467,46.53602],[3.76244,46.53705],[3.76746,46.53901],[3.77253,46.5385],[3.77762,46.53618],[3.7774,46.53276],[3.78067,46.52836],[3.79324,46.52779],[3.79638,46.52591],[3.80176,46.5199],[3.80513,46.51932],[3.81135,46.52014],[3.81767,46.52523],[3.82505,46.52796],[3.83584,46.53161],[3.83916,46.53129],[3.84263,46.52954],[3.84647,46.52436],[3.83976,46.51756],[3.84187,46.51421],[3.84947,46.51303],[3.85717,46.51558],[3.86002,46.51523],[3.8638,46.51274],[3.86463,46.50972],[3.86129,46.50252],[3.86039,46.4956],[3.86178,46.49207],[3.86491,46.48974],[3.86994,46.48773],[3.87824,46.48668],[3.89047,46.48125],[3.89521,46.48069],[3.89699,46.48147],[3.90135,46.49064],[3.91016,46.49538],[3.91897,46.49606],[3.92811,46.49215],[3.93758,46.49076],[3.94961,46.49248],[3.95572,46.49168],[3.95813,46.49059],[3.95715,46.48711],[3.95208,46.48142],[3.95233,46.47849],[3.95501,46.47693],[3.97229,46.47947],[3.97683,46.47895],[3.97717,46.47539],[3.97915,46.47388],[3.98991,46.46995],[3.99886,46.46487],[4.00081,46.46245],[4.00154,46.45862],[3.9976,46.45328],[3.99745,46.45026],[4.00557,46.44353],[4.00554,46.44246],[4.00043,46.43915],[3.9945,46.43985],[3.98945,46.43782],[3.98814,46.43546],[3.99022,46.43106],[3.9946,46.42943],[3.9961,46.42738],[3.99531,46.4251],[3.99265,46.4233],[3.98662,46.42172],[3.98408,46.41963],[3.98445,46.41666],[3.98814,46.41179],[3.9887,46.40877],[3.98606,46.40525],[3.97722,46.39922],[3.98304,46.3806],[3.98426,46.37829],[3.98842,46.37593],[3.99161,46.36963],[3.98868,46.36094],[3.98939,46.35873],[3.98739,46.35075],[3.98765,46.34661],[3.98921,46.34424],[3.98596,46.3379],[3.98474,46.32973],[3.98682,46.32768],[3.98915,46.32711],[4.00178,46.32836],[4.00457,46.32748],[3.99741,46.32329],[3.9938,46.32222],[3.98941,46.32296],[3.98789,46.32037],[3.98981,46.31508],[3.98734,46.31485],[3.98402,46.31872],[3.97748,46.31931],[3.97143,46.32151],[3.96859,46.32177],[3.9589,46.31881],[3.94578,46.32124],[3.94945,46.31386],[3.94786,46.30366],[3.94543,46.30046],[3.93133,46.29585],[3.91357,46.29668],[3.90772,46.29429],[3.89722,46.29246],[3.89927,46.28918],[3.89807,46.2878],[3.8945,46.2879],[3.89124,46.28525],[3.89324,46.28036],[3.89953,46.27591],[3.90176,46.27646],[3.90473,46.27354],[3.90605,46.26786],[3.90732,46.26667],[3.90724,46.26379],[3.90612,46.26335],[3.90676,46.26083],[3.90865,46.26089],[3.9094,46.25773],[3.90548,46.25207],[3.90969,46.24778],[3.90669,46.24472],[3.90664,46.24314],[3.90785,46.24237],[3.90487,46.23786],[3.89885,46.2406],[3.89661,46.23712],[3.89736,46.23598],[3.8963,46.23285],[3.89804,46.22854],[3.89809,46.22518],[3.89443,46.22203],[3.89364,46.21691],[3.89013,46.21449],[3.8983,46.21024],[3.90124,46.21056],[3.91356,46.20692],[3.91837,46.20285],[3.93352,46.20642],[3.94277,46.2062],[3.9566,46.20379],[3.95731,46.20454],[3.96462,46.20179],[3.96517,46.20286],[3.97255,46.20271],[3.97317,46.19091],[3.97097,46.18915],[3.97278,46.18682],[3.97814,46.18602],[3.97972,46.17817],[3.98397,46.17734],[3.98388,46.17428],[3.98586,46.17133],[3.99012,46.16911],[3.99348,46.17288],[4.00267,46.17041],[4.0184,46.17239],[4.02751,46.16941],[4.0305,46.16977],[4.03089,46.17189],[4.03346,46.17369],[4.04105,46.17592],[4.04445,46.17879],[4.05163,46.18124],[4.05886,46.18806],[4.06284,46.18912],[4.06845,46.18639],[4.07087,46.18698],[4.0748,46.19016],[4.09464,46.19282],[4.09688,46.19581],[4.10383,46.19844],[4.11165,46.19197],[4.11538,46.19097],[4.1228,46.18613],[4.12536,46.18334],[4.13324,46.18052],[4.13228,46.17861],[4.13339,46.17732],[4.16434,46.17296],[4.18701,46.17457],[4.18844,46.17513],[4.18644,46.17903],[4.18411,46.18096],[4.18436,46.1846],[4.18318,46.18597],[4.18524,46.1894],[4.18806,46.18841],[4.19177,46.18921],[4.19713,46.19258],[4.20791,46.19484],[4.21669,46.18655],[4.21956,46.1851],[4.22469,46.178],[4.23167,46.17941],[4.23687,46.18175],[4.23673,46.18365],[4.2416,46.18545],[4.24085,46.18637],[4.24236,46.18883],[4.25221,46.18694],[4.25491,46.18801],[4.25561,46.18584],[4.25811,46.18365],[4.25768,46.18212],[4.26352,46.17536],[4.25728,46.17277],[4.25661,46.17004],[4.25274,46.16686],[4.24866,46.16711],[4.25046,46.16469],[4.24991,46.15818],[4.2695,46.15748],[4.2756,46.15607],[4.27732,46.15708],[4.28123,46.15594],[4.28728,46.16024],[4.29038,46.16896],[4.28899,46.17006],[4.29231,46.17248],[4.30696,46.17461],[4.30941,46.17228],[4.31531,46.17064],[4.31584,46.17274],[4.32614,46.1817],[4.32709,46.18479],[4.33661,46.18102],[4.33807,46.18406],[4.34567,46.18784],[4.35223,46.18664],[4.35438,46.18358],[4.35833,46.1832],[4.35866,46.18185],[4.36333,46.18203],[4.36627,46.18585],[4.37081,46.18432],[4.37394,46.18684],[4.37062,46.18982],[4.37163,46.19084],[4.36959,46.19344],[4.36558,46.1936],[4.36215,46.1956],[4.36283,46.20004],[4.36472,46.20176],[4.3671,46.20153],[4.37023,46.20382],[4.3735,46.20462],[4.37315,46.20917],[4.37511,46.21111],[4.38938,46.21329],[4.38971,46.21661],[4.38719,46.22048],[4.38699,46.22553],[4.38592,46.22604],[4.38728,46.23317],[4.39241,46.23542],[4.38995,46.24018],[4.39002,46.24216],[4.3864,46.24404],[4.38545,46.24684],[4.39239,46.25157],[4.38966,46.2585],[4.39253,46.26048],[4.39205,46.26302],[4.39708,46.26681],[4.39611,46.26877],[4.39636,46.27454],[4.39876,46.27783],[4.39754,46.28334],[4.40446,46.28798],[4.40542,46.29093],[4.40781,46.29238],[4.40581,46.29606],[4.42187,46.29495],[4.42506,46.29683],[4.42704,46.30282],[4.43808,46.29789],[4.43773,46.29538],[4.43876,46.29338],[4.45264,46.29659],[4.45767,46.29578],[4.45863,46.29693],[4.46722,46.29078],[4.46922,46.28728],[4.47591,46.28405],[4.47975,46.28424],[4.48455,46.28753],[4.48846,46.28799],[4.49239,46.28045],[4.49996,46.27508],[4.50082,46.27372],[4.50012,46.27243],[4.504,46.26713],[4.51272,46.26778],[4.5154,46.26993],[4.51784,46.26943],[4.52127,46.27067],[4.53237,46.26938],[4.53726,46.26991],[4.54645,46.27392],[4.54536,46.27772],[4.54779,46.28141],[4.5478,46.28501],[4.55323,46.28567],[4.55215,46.28807],[4.55256,46.29014],[4.55404,46.29155],[4.55605,46.29141],[4.55705,46.29361],[4.56025,46.29524],[4.56883,46.29385],[4.57159,46.29046],[4.57298,46.28654],[4.57213,46.28133],[4.57294,46.27592],[4.58348,46.27083],[4.58377,46.26949],[4.59111,46.268],[4.59995,46.26818],[4.60921,46.26629],[4.61243,46.26721],[4.61856,46.26479],[4.62122,46.26793],[4.62189,46.27138],[4.62059,46.27767],[4.61643,46.28216],[4.62381,46.28494],[4.62753,46.28842],[4.63624,46.29014],[4.63571,46.2915],[4.6367,46.29336],[4.6351,46.297],[4.63526,46.29929],[4.63682,46.30066],[4.6463,46.30178],[4.65273,46.30402],[4.65965,46.30019],[4.65915,46.29907],[4.66404,46.29501],[4.66625,46.29667],[4.67188,46.29782],[4.67392,46.29994],[4.67785,46.30054],[4.67616,46.30224],[4.67633,46.30461],[4.6792,46.30626],[4.68279,46.30399],[4.683,46.30286],[4.68879,46.30134],[4.69341,46.30142],[4.69257,46.2987],[4.69472,46.29205],[4.69847,46.29125],[4.70191,46.28636],[4.70344,46.28583],[4.70421,46.2827],[4.70762,46.2834],[4.70741,46.28173],[4.71039,46.27857],[4.70834,46.27605],[4.70769,46.26965],[4.70421,46.27116],[4.7007,46.26748],[4.69341,46.27172],[4.68914,46.26879],[4.68788,46.26531],[4.68158,46.26675],[4.68189,46.26489],[4.67905,46.25987],[4.68174,46.25549],[4.68373,46.25343],[4.68647,46.25494],[4.6885,46.25405],[4.68823,46.24933],[4.69324,46.24823],[4.69832,46.25293],[4.70132,46.25217],[4.70075,46.25069],[4.70338,46.25014],[4.70505,46.25123],[4.71732,46.244],[4.72077,46.24428],[4.72235,46.2433],[4.72133,46.24229],[4.72223,46.24057],[4.72442,46.24182],[4.73041,46.23612],[4.73577,46.23424],[4.73666,46.23247],[4.73238,46.22662],[4.7209,46.22947],[4.71953,46.22788],[4.72252,46.22633],[4.72042,46.22156],[4.73062,46.21897],[4.72925,46.21724],[4.72885,46.21405],[4.73568,46.2117],[4.73428,46.20642],[4.72627,46.2083],[4.72506,46.2044],[4.72068,46.20072],[4.72166,46.1993],[4.72006,46.19398],[4.72168,46.19385],[4.72166,46.1904],[4.72521,46.1886],[4.72438,46.1843],[4.7285,46.18404],[4.72955,46.18276],[4.72726,46.17912],[4.74129,46.17553],[4.74782,46.1753],[4.75164,46.17234],[4.75849,46.17206],[4.76081,46.17597],[4.76244,46.17625],[4.76422,46.17567],[4.76809,46.1768],[4.77089,46.17539],[4.77549,46.17709],[4.78021,46.17668]],[[4.89291,44.36482],[4.89228,44.36163],[4.89068,44.35978],[4.88494,44.35753],[4.88348,44.35571],[4.88063,44.35528],[4.88089,44.35361],[4.87264,44.35015],[4.8701,44.34807],[4.86953,44.34508],[4.87965,44.34534],[4.89533,44.33806],[4.89423,44.33287],[4.88947,44.33308],[4.88163,44.32487],[4.88408,44.32021],[4.89138,44.3134],[4.89091,44.30562],[4.89166,44.30425],[4.92215,44.30878],[4.94403,44.30586],[4.9509,44.30093],[4.95698,44.30241],[4.95921,44.30039],[4.95946,44.29875],[4.96856,44.29909],[4.97965,44.29748],[4.98702,44.29271],[4.98866,44.29709],[4.98771,44.30112],[4.98975,44.30877],[4.99313,44.31427],[4.9983,44.31754],[4.99657,44.31974],[5.00065,44.31983],[5.01378,44.32579],[5.01035,44.32787],[5.00901,44.33377],[5.01786,44.34112],[5.01996,44.34162],[5.02329,44.34595],[5.02179,44.35309],[5.02217,44.35845],[5.02389,44.36056],[5.0277,44.36282],[5.03252,44.36121],[5.03477,44.36378],[5.03666,44.36421],[5.04075,44.36414],[5.04274,44.36219],[5.05504,44.36502],[5.05697,44.36726],[5.0576,44.37016],[5.06758,44.37443],[5.07156,44.37749],[5.07206,44.38041],[5.071,44.38313],[5.06875,44.38333],[5.06585,44.38173],[5.06445,44.38253],[5.06474,44.38356],[5.0625,44.3841],[5.05197,44.38134],[5.04757,44.38135],[5.04408,44.38342],[5.04294,44.38727],[5.03818,44.38761],[5.0345,44.39084],[5.02635,44.39243],[5.02077,44.39122],[5.0181,44.3933],[5.01558,44.39304],[5.01331,44.40535],[5.01766,44.40727],[5.01727,44.40841],[5.02019,44.41027],[5.01876,44.41598],[5.01215,44.41582],[5.00997,44.41083],[5.00106,44.4126],[4.98861,44.4232],[4.97869,44.42348],[4.97667,44.42875],[4.97308,44.43153],[4.97044,44.43137],[4.96836,44.427],[4.96437,44.42498],[4.9633,44.42193],[4.96047,44.42005],[4.95196,44.42005],[4.95192,44.41874],[4.94621,44.41486],[4.93922,44.41457],[4.93503,44.41214],[4.92842,44.41166],[4.92342,44.40808],[4.92191,44.40951],[4.91852,44.40779],[4.90968,44.39672],[4.91186,44.38789],[4.90896,44.37734],[4.90663,44.3741],[4.9024,44.37243],[4.90248,44.37126],[4.8999,44.36952],[4.89455,44.3691],[4.89318,44.36788],[4.89291,44.36482]]]}}]}