{"type":"FeatureCollection","features":[{"type":"Feature","properties":{"reg_name":"francia-idf","source":"IGN Admin Express via france-geojson, Licence Ouverte 2.0"},"geometry":{"type":"Polygon","coordinates":[[[2.59052,49.07965],[2.59787,49.08179],[2.6033,49.08588],[2.60818,49.09013],[2.61033,49.09305],[2.61034,49.09494],[2.6169,49.09389],[2.623,49.09559],[2.62488,49.09877],[2.62433,49.10036],[2.62763,49.10147],[2.62729,49.10223],[2.63064,49.10245],[2.63327,49.10838],[2.63655,49.10711],[2.63511,49.10455],[2.63647,49.1036],[2.63584,49.10181],[2.64071,49.10103],[2.64124,49.09909],[2.65021,49.10055],[2.65636,49.09851],[2.65903,49.09617],[2.66129,49.09674],[2.66277,49.09369],[2.67315,49.09086],[2.67739,49.08829],[2.67853,49.08545],[2.69502,49.07474],[2.69115,49.07062],[2.68991,49.06757],[2.69781,49.0644],[2.70523,49.06504],[2.72049,49.07488],[2.72058,49.07943],[2.72436,49.08046],[2.72466,49.07537],[2.72931,49.07477],[2.73242,49.0704],[2.73192,49.0681],[2.73339,49.0623],[2.73501,49.06045],[2.75355,49.06074],[2.76626,49.06474],[2.775,49.07074],[2.77793,49.07023],[2.78708,49.0755],[2.76834,49.08326],[2.78887,49.08287],[2.78854,49.08445],[2.78399,49.08864],[2.79386,49.0908],[2.80925,49.09754],[2.81985,49.08737],[2.82954,49.08383],[2.83363,49.08295],[2.84495,49.08488],[2.84827,49.08167],[2.85014,49.07757],[2.85496,49.07338],[2.85465,49.07018],[2.87032,49.07019],[2.87606,49.07407],[2.87961,49.07366],[2.88053,49.07597],[2.88376,49.07612],[2.88761,49.07947],[2.89495,49.07706],[2.90151,49.08537],[2.90599,49.08301],[2.92331,49.07758],[2.93307,49.08095],[2.93471,49.08085],[2.93408,49.07909],[2.94059,49.07713],[2.94288,49.0782],[2.94459,49.08161],[2.94442,49.08485],[2.94583,49.08808],[2.95674,49.08541],[2.95877,49.08774],[2.96531,49.09116],[2.96873,49.09146],[2.96877,49.08916],[2.97143,49.08897],[2.96961,49.08543],[2.97228,49.08519],[2.97177,49.08349],[2.97535,49.0742],[2.97713,49.07442],[2.97746,49.07266],[2.97972,49.07306],[2.98284,49.07132],[2.9834,49.07218],[2.98689,49.07107],[2.9882,49.07268],[2.98771,49.07634],[2.98884,49.08029],[2.99124,49.08401],[2.9953,49.0855],[2.99641,49.08774],[2.99944,49.0874],[3.00088,49.08953],[3.00396,49.08874],[3.00605,49.08645],[3.00852,49.09151],[3.01555,49.09123],[3.03157,49.08561],[3.03279,49.08907],[3.03966,49.08673],[3.04658,49.0866],[3.051,49.08509],[3.05451,49.08579],[3.05507,49.08834],[3.05737,49.08707],[3.05854,49.08855],[3.06501,49.08515],[3.06511,49.08702],[3.0631,49.09058],[3.05735,49.09399],[3.05562,49.09643],[3.05602,49.10048],[3.05659,49.10213],[3.0594,49.10226],[3.05935,49.10365],[3.06254,49.10619],[3.06334,49.10961],[3.06714,49.11134],[3.06766,49.11439],[3.06994,49.1159],[3.06969,49.11752],[3.07321,49.11721],[3.07533,49.11521],[3.0785,49.1145],[3.07799,49.11311],[3.08098,49.11183],[3.08592,49.11229],[3.08843,49.11093],[3.09403,49.11049],[3.0948,49.11169],[3.10264,49.108],[3.11573,49.10731],[3.11607,49.10841],[3.12146,49.10931],[3.12582,49.10599],[3.13817,49.10713],[3.14397,49.10192],[3.15181,49.09993],[3.16523,49.09965],[3.15859,49.08774],[3.15358,49.08328],[3.16126,49.07926],[3.16658,49.07784],[3.17663,49.06958],[3.18159,49.06275],[3.18064,49.05543],[3.18217,49.05236],[3.18996,49.05257],[3.19075,49.05104],[3.1909,49.04762],[3.18924,49.04596],[3.18046,49.04449],[3.1796,49.04271],[3.18273,49.04169],[3.18076,49.0387],[3.17864,49.03813],[3.17994,49.03403],[3.17649,49.03298],[3.17692,49.03075],[3.17407,49.02854],[3.17126,49.02981],[3.16367,49.02663],[3.16103,49.02423],[3.16301,49.01994],[3.1659,49.02069],[3.16829,49.01667],[3.1674,49.0124],[3.18052,49.01298],[3.1884,49.00923],[3.19754,49.00849],[3.19605,49.00482],[3.19899,49.00578],[3.20309,49.00094],[3.20716,49.00069],[3.20852,48.99883],[3.20932,48.99379],[3.22471,48.99102],[3.22368,48.99004],[3.22484,48.98733],[3.22918,48.98842],[3.2293,48.98734],[3.2272,48.98551],[3.22714,48.98191],[3.23033,48.98131],[3.22994,48.97811],[3.23122,48.97675],[3.23656,48.97754],[3.24419,48.97683],[3.24935,48.97436],[3.25362,48.96912],[3.25521,48.96205],[3.2594,48.95333],[3.25721,48.95249],[3.26297,48.94903],[3.26018,48.94479],[3.26396,48.94181],[3.26487,48.93915],[3.27187,48.93755],[3.27377,48.93891],[3.28453,48.94053],[3.30475,48.94876],[3.31288,48.93362],[3.31308,48.92122],[3.3267,48.91283],[3.3303,48.90871],[3.3343,48.91075],[3.33648,48.90919],[3.3387,48.91197],[3.34649,48.91702],[3.3492,48.91552],[3.3504,48.91796],[3.35358,48.91524],[3.36053,48.9184],[3.36593,48.92313],[3.36677,48.92253],[3.36831,48.92766],[3.37207,48.92403],[3.37139,48.91861],[3.3765,48.90968],[3.37602,48.90741],[3.37148,48.90524],[3.36897,48.89368],[3.37115,48.89203],[3.37472,48.89185],[3.37988,48.88871],[3.38369,48.88891],[3.38432,48.88747],[3.38103,48.8869],[3.38323,48.88455],[3.38107,48.88392],[3.38279,48.88057],[3.3805,48.87955],[3.38143,48.87157],[3.3859,48.87233],[3.39165,48.87086],[3.39334,48.8718],[3.39324,48.8754],[3.40586,48.87588],[3.40594,48.87084],[3.40187,48.87043],[3.40048,48.86771],[3.40068,48.86611],[3.40421,48.86398],[3.41293,48.86398],[3.41513,48.86552],[3.41888,48.86558],[3.42065,48.86732],[3.42399,48.86738],[3.42469,48.86493],[3.42729,48.86219],[3.43035,48.86074],[3.43559,48.85955],[3.44563,48.86035],[3.45223,48.85629],[3.44846,48.853],[3.45053,48.84893],[3.44674,48.84834],[3.44536,48.84323],[3.45909,48.84136],[3.46059,48.84077],[3.46071,48.83944],[3.46617,48.84252],[3.47046,48.851],[3.48519,48.85191],[3.49131,48.83467],[3.48496,48.82501],[3.4872,48.81519],[3.48092,48.81218],[3.47421,48.81829],[3.47485,48.81938],[3.47038,48.82089],[3.45938,48.81804],[3.46059,48.81511],[3.4515,48.81312],[3.44815,48.81115],[3.44666,48.81233],[3.44136,48.81157],[3.44126,48.81302],[3.43217,48.81226],[3.41661,48.81783],[3.40417,48.80927],[3.41113,48.8037],[3.42013,48.80338],[3.42304,48.80075],[3.43045,48.80177],[3.43814,48.80435],[3.44212,48.80358],[3.43994,48.79812],[3.44255,48.79488],[3.44163,48.7935],[3.44254,48.79182],[3.44395,48.79139],[3.44186,48.78241],[3.44069,48.78225],[3.43992,48.78438],[3.43817,48.78511],[3.4348,48.78319],[3.43387,48.78079],[3.42945,48.77943],[3.42739,48.77985],[3.4241,48.78412],[3.41466,48.78449],[3.41285,48.78314],[3.40892,48.7839],[3.40738,48.7778],[3.39583,48.75925],[3.39911,48.755],[3.40062,48.75548],[3.4091,48.7523],[3.41433,48.75471],[3.42586,48.75452],[3.42852,48.75839],[3.43659,48.75318],[3.43782,48.74658],[3.43628,48.74368],[3.44407,48.73663],[3.45182,48.73603],[3.45304,48.73806],[3.4674,48.73863],[3.46973,48.73787],[3.46747,48.73522],[3.46675,48.72877],[3.46807,48.7169],[3.46531,48.71187],[3.46726,48.70857],[3.4643,48.70738],[3.4695,48.70333],[3.47035,48.70144],[3.47281,48.70185],[3.47778,48.69792],[3.47256,48.69786],[3.47064,48.69395],[3.47251,48.69119],[3.47143,48.69027],[3.47354,48.68865],[3.47168,48.68567],[3.46939,48.68644],[3.46268,48.68545],[3.45456,48.68212],[3.44755,48.67725],[3.44949,48.67576],[3.4427,48.67251],[3.44618,48.6669],[3.44061,48.66365],[3.44257,48.66228],[3.44568,48.66221],[3.45096,48.65753],[3.45815,48.65493],[3.46043,48.65301],[3.45797,48.65022],[3.45882,48.64986],[3.45571,48.64735],[3.45698,48.64698],[3.45543,48.64419],[3.45637,48.64225],[3.45364,48.64071],[3.45203,48.63789],[3.4533,48.63614],[3.45109,48.63465],[3.45788,48.63391],[3.45797,48.6348],[3.46184,48.6349],[3.46802,48.63694],[3.47657,48.63733],[3.47602,48.63805],[3.48596,48.64224],[3.48964,48.64678],[3.49288,48.64762],[3.5175,48.64337],[3.53324,48.64651],[3.52938,48.6449],[3.52969,48.64321],[3.52821,48.64319],[3.52107,48.6378],[3.51738,48.63719],[3.51907,48.63347],[3.52228,48.63259],[3.53196,48.63319],[3.53798,48.63162],[3.54784,48.62679],[3.55125,48.62308],[3.55482,48.62201],[3.55847,48.61844],[3.55851,48.61696],[3.55703,48.61586],[3.54084,48.61604],[3.54011,48.61264],[3.53462,48.61035],[3.50321,48.60456],[3.51231,48.5962],[3.51586,48.58978],[3.49318,48.59025],[3.48528,48.58043],[3.47338,48.57688],[3.46552,48.57049],[3.47196,48.56387],[3.47423,48.56449],[3.47453,48.56011],[3.47696,48.55753],[3.47694,48.55541],[3.47548,48.55469],[3.47638,48.55208],[3.47889,48.55054],[3.48374,48.55015],[3.48589,48.54727],[3.48576,48.54521],[3.47909,48.54552],[3.48175,48.54145],[3.47566,48.5414],[3.46969,48.53853],[3.46722,48.53539],[3.45695,48.52963],[3.45071,48.52867],[3.44948,48.53046],[3.44675,48.52892],[3.44003,48.5284],[3.43331,48.52915],[3.43031,48.53138],[3.42658,48.53085],[3.42344,48.53356],[3.41548,48.53233],[3.41424,48.53347],[3.4054,48.52801],[3.42355,48.51481],[3.42614,48.50839],[3.4351,48.49602],[3.43338,48.49329],[3.43464,48.49025],[3.42361,48.4904],[3.42258,48.49202],[3.42044,48.49174],[3.41944,48.48994],[3.41683,48.49032],[3.41469,48.48722],[3.41093,48.48746],[3.40966,48.48569],[3.40847,48.48595],[3.40756,48.48866],[3.40507,48.48855],[3.40398,48.48602],[3.39997,48.48738],[3.39811,48.4863],[3.40056,48.48453],[3.39933,48.48361],[3.39348,48.48434],[3.39245,48.48156],[3.38336,48.47944],[3.38616,48.47728],[3.3885,48.47719],[3.39115,48.47047],[3.39581,48.47057],[3.39677,48.4686],[3.39964,48.46768],[3.40024,48.46646],[3.39718,48.46631],[3.39414,48.46454],[3.39438,48.46274],[3.40064,48.45954],[3.40049,48.45757],[3.40648,48.45245],[3.40628,48.44811],[3.40406,48.44276],[3.40494,48.43941],[3.40148,48.43765],[3.40159,48.43575],[3.39515,48.43682],[3.39698,48.43457],[3.39663,48.43274],[3.3946,48.43173],[3.39562,48.43072],[3.39477,48.42801],[3.39207,48.4269],[3.39167,48.42325],[3.39748,48.42452],[3.40097,48.42394],[3.40048,48.42249],[3.40477,48.4235],[3.41183,48.42131],[3.41146,48.41742],[3.4087,48.41763],[3.40764,48.41556],[3.40241,48.41767],[3.40175,48.41622],[3.4025,48.41517],[3.41355,48.41416],[3.41528,48.41563],[3.4221,48.41619],[3.42224,48.41286],[3.41519,48.39571],[3.41479,48.39027],[3.40637,48.38978],[3.4059,48.3911],[3.40204,48.38971],[3.39997,48.39208],[3.39549,48.39244],[3.39473,48.39546],[3.38816,48.3972],[3.38789,48.39835],[3.37791,48.39911],[3.37541,48.39869],[3.37348,48.3935],[3.36722,48.39432],[3.36279,48.38258],[3.36261,48.37699],[3.36306,48.37596],[3.36572,48.37585],[3.36516,48.37228],[3.35642,48.37121],[3.35656,48.37845],[3.35097,48.37863],[3.34842,48.37326],[3.3364,48.373],[3.33547,48.37018],[3.331,48.3731],[3.32237,48.37348],[3.32001,48.37561],[3.31207,48.37723],[3.30932,48.37698],[3.31091,48.37297],[3.30515,48.37287],[3.30494,48.37397],[3.3018,48.37394],[3.30129,48.37534],[3.29933,48.37544],[3.30019,48.37837],[3.29811,48.37869],[3.28963,48.37584],[3.29126,48.38005],[3.28282,48.38157],[3.2824,48.37752],[3.27316,48.37717],[3.27218,48.37889],[3.26802,48.37797],[3.2684,48.37597],[3.2668,48.37589],[3.26704,48.37355],[3.26089,48.37301],[3.26174,48.36829],[3.25661,48.36783],[3.25673,48.36648],[3.25443,48.36642],[3.25438,48.36502],[3.24966,48.3656],[3.24803,48.36751],[3.23885,48.36778],[3.23206,48.3693],[3.23284,48.37033],[3.22372,48.3704],[3.20865,48.3653],[3.20034,48.36368],[3.19615,48.36854],[3.19026,48.37093],[3.18494,48.36813],[3.18253,48.37331],[3.17967,48.37572],[3.17181,48.37768],[3.16677,48.37065],[3.15707,48.37215],[3.15555,48.37029],[3.15242,48.37144],[3.15039,48.36953],[3.14813,48.36989],[3.14657,48.36565],[3.14102,48.36887],[3.14132,48.3706],[3.13987,48.3726],[3.13246,48.36946],[3.12809,48.36963],[3.12885,48.36723],[3.12247,48.36862],[3.11721,48.36662],[3.11352,48.36332],[3.10902,48.35566],[3.10342,48.34951],[3.0996,48.3516],[3.10115,48.35645],[3.09888,48.35782],[3.08869,48.35725],[3.07836,48.36119],[3.07016,48.35823],[3.06055,48.35744],[3.05426,48.3605],[3.04952,48.36012],[3.04836,48.3582],[3.04617,48.35797],[3.03714,48.34257],[3.03962,48.34165],[3.03676,48.3401],[3.03666,48.33502],[3.04273,48.33251],[3.0423,48.33154],[3.04358,48.33044],[3.03735,48.32805],[3.03658,48.32603],[3.02822,48.32163],[3.02898,48.31982],[3.02624,48.31908],[3.02703,48.31701],[3.02244,48.31407],[3.01478,48.30622],[3.01941,48.30318],[3.02744,48.30286],[3.02725,48.30037],[3.02005,48.29655],[3.01874,48.29476],[3.02977,48.28584],[3.02635,48.28192],[3.02496,48.27601],[3.03174,48.27358],[3.03793,48.27341],[3.04547,48.27073],[3.04616,48.2669],[3.04276,48.26201],[3.045,48.25925],[3.04757,48.2497],[3.04308,48.24932],[3.03566,48.2509],[3.03146,48.24888],[3.02621,48.24205],[3.02756,48.24148],[3.01857,48.23519],[3.02062,48.23418],[3.01892,48.23177],[3.02281,48.23032],[3.01131,48.22081],[3.00687,48.21458],[3.00851,48.21219],[3.00462,48.20677],[2.99694,48.20709],[2.99301,48.20445],[2.98896,48.20902],[2.97992,48.20559],[2.97305,48.20555],[2.97145,48.20102],[2.97377,48.19849],[2.97376,48.19678],[2.97131,48.19477],[2.96738,48.19286],[2.95869,48.19129],[2.95542,48.19252],[2.94852,48.18909],[2.9405,48.18306],[2.93695,48.18303],[2.93475,48.17882],[2.93458,48.17594],[2.93631,48.16339],[2.86803,48.15643],[2.85901,48.14735],[2.84988,48.1411],[2.84692,48.14111],[2.84611,48.13981],[2.842,48.1387],[2.83618,48.13414],[2.82421,48.13393],[2.82088,48.12966],[2.81364,48.13144],[2.81034,48.13021],[2.80122,48.13145],[2.79926,48.13798],[2.79688,48.14172],[2.80114,48.14958],[2.79791,48.15116],[2.80291,48.15574],[2.80892,48.15878],[2.80866,48.16013],[2.81031,48.161],[2.81142,48.16376],[2.81033,48.16613],[2.80168,48.16428],[2.80061,48.16474],[2.80008,48.16806],[2.79748,48.1674],[2.79526,48.16908],[2.79415,48.16887],[2.79207,48.16455],[2.77916,48.1675],[2.77172,48.16169],[2.76803,48.16292],[2.76724,48.1649],[2.75856,48.1634],[2.7597,48.16182],[2.75517,48.16009],[2.75271,48.16243],[2.75055,48.16208],[2.73641,48.16631],[2.741,48.15987],[2.74379,48.1584],[2.74556,48.15882],[2.74601,48.1572],[2.75358,48.15321],[2.75549,48.14938],[2.7552,48.14565],[2.72046,48.13691],[2.71856,48.13297],[2.7075,48.12594],[2.70532,48.12303],[2.70351,48.12424],[2.69661,48.12521],[2.69413,48.12531],[2.69278,48.12397],[2.68868,48.12496],[2.67811,48.12483],[2.67743,48.12593],[2.67281,48.12475],[2.67154,48.12214],[2.66885,48.12084],[2.66475,48.12054],[2.64471,48.13732],[2.63967,48.13895],[2.62105,48.13603],[2.61297,48.1329],[2.60268,48.13149],[2.58059,48.13234],[2.57482,48.13127],[2.57056,48.14082],[2.55827,48.14161],[2.53751,48.14034],[2.52152,48.1273],[2.51964,48.12714],[2.52187,48.12512],[2.5161,48.12648],[2.49032,48.1266],[2.47601,48.12964],[2.47205,48.1282],[2.46916,48.12919],[2.46796,48.12735],[2.46487,48.12911],[2.4601,48.12691],[2.45438,48.12237],[2.45109,48.12346],[2.44921,48.12548],[2.44431,48.12423],[2.44276,48.1254],[2.44426,48.13147],[2.45157,48.13218],[2.45192,48.13434],[2.46012,48.13685],[2.46753,48.14822],[2.47465,48.14883],[2.47386,48.15406],[2.47534,48.15611],[2.47857,48.155],[2.47838,48.15674],[2.48121,48.16267],[2.48324,48.16452],[2.50633,48.15644],[2.51653,48.16624],[2.51469,48.16933],[2.51235,48.17068],[2.51547,48.17477],[2.50728,48.17968],[2.51814,48.18991],[2.51715,48.19093],[2.51376,48.19042],[2.51297,48.19298],[2.52313,48.19489],[2.52294,48.20052],[2.51851,48.20133],[2.52102,48.20659],[2.51699,48.20983],[2.5174,48.21438],[2.51412,48.21438],[2.51534,48.21762],[2.5142,48.21865],[2.51334,48.22436],[2.51833,48.22759],[2.50689,48.22599],[2.50771,48.23282],[2.50619,48.23854],[2.48666,48.24011],[2.48411,48.23905],[2.47634,48.24444],[2.4789,48.24951],[2.47594,48.25028],[2.47635,48.25118],[2.46909,48.25527],[2.45016,48.25004],[2.4464,48.25518],[2.44014,48.2532],[2.43873,48.25465],[2.43039,48.25551],[2.42844,48.25659],[2.4269,48.25969],[2.42352,48.26037],[2.41996,48.26657],[2.42111,48.26764],[2.41789,48.27215],[2.41837,48.27422],[2.41984,48.27503],[2.4177,48.27885],[2.4202,48.28514],[2.42317,48.28752],[2.4225,48.29071],[2.42332,48.29476],[2.42129,48.29619],[2.42109,48.29867],[2.41881,48.30159],[2.41477,48.30452],[2.41342,48.30685],[2.40892,48.30911],[2.40953,48.30991],[2.40434,48.31491],[2.40414,48.31757],[2.40265,48.31802],[2.40266,48.32072],[2.39848,48.3187],[2.39996,48.31568],[2.39747,48.31456],[2.39518,48.31487],[2.38634,48.31177],[2.36995,48.30867],[2.36713,48.31206],[2.35823,48.30849],[2.35347,48.31441],[2.3487,48.31525],[2.34812,48.31633],[2.3459,48.31611],[2.34601,48.31733],[2.34198,48.31683],[2.33478,48.32739],[2.32816,48.3264],[2.32905,48.32901],[2.32755,48.33297],[2.32645,48.32965],[2.32445,48.32961],[2.3246,48.33193],[2.32365,48.33238],[2.31812,48.33018],[2.31718,48.33157],[2.31259,48.3308],[2.31306,48.32896],[2.31124,48.32882],[2.30168,48.31547],[2.30074,48.3157],[2.29871,48.312],[2.30021,48.31123],[2.29569,48.30808],[2.28314,48.31262],[2.27229,48.31204],[2.27222,48.31384],[2.26891,48.31352],[2.26912,48.31504],[2.2669,48.31468],[2.26259,48.31037],[2.26522,48.30937],[2.26192,48.30691],[2.25888,48.30721],[2.25357,48.30024],[2.24516,48.2984],[2.24494,48.30226],[2.24682,48.30559],[2.24661,48.30887],[2.24943,48.31458],[2.2493,48.31629],[2.23805,48.31637],[2.2443,48.3256],[2.24617,48.33126],[2.24287,48.33288],[2.24199,48.33126],[2.23983,48.33094],[2.23774,48.33207],[2.23343,48.33067],[2.23546,48.32932],[2.23432,48.32788],[2.22757,48.32963],[2.22925,48.33134],[2.22851,48.33296],[2.22669,48.33264],[2.22391,48.33642],[2.21961,48.33552],[2.21785,48.33353],[2.21583,48.33421],[2.21575,48.33713],[2.2117,48.33874],[2.21258,48.34064],[2.20716,48.3418],[2.20709,48.34494],[2.20225,48.3446],[2.20188,48.34308],[2.20508,48.34229],[2.20286,48.33891],[2.19148,48.33385],[2.19061,48.3326],[2.1879,48.33237],[2.18812,48.32805],[2.18213,48.32427],[2.18215,48.32152],[2.18457,48.32278],[2.1849,48.32112],[2.18069,48.31168],[2.17171,48.31594],[2.16902,48.3127],[2.1523,48.31591],[2.15183,48.31384],[2.15571,48.3045],[2.16097,48.30455],[2.16375,48.29843],[2.13612,48.29925],[2.1106,48.29695],[2.11372,48.30725],[2.10617,48.30763],[2.09985,48.30493],[2.09838,48.30259],[2.09118,48.2991],[2.08938,48.29528],[2.08534,48.29401],[2.06728,48.29402],[2.05271,48.29547],[2.05193,48.29098],[2.04126,48.28438],[2.03694,48.28638],[2.0374,48.28823],[2.02499,48.28923],[2.02433,48.28788],[2.02015,48.2877],[2.02003,48.28607],[2.01181,48.28583],[2.01155,48.28483],[2.00468,48.28477],[2.00333,48.28625],[1.99025,48.2877],[1.98985,48.28643],[1.98134,48.28821],[1.98073,48.28706],[1.97529,48.2872],[1.97272,48.28822],[1.97451,48.29291],[1.98038,48.29225],[1.98237,48.29545],[1.97543,48.29606],[1.97436,48.29394],[1.97141,48.29353],[1.97273,48.29672],[1.9652,48.29516],[1.96114,48.30478],[1.96222,48.30555],[1.9588,48.30664],[1.95987,48.3075],[1.95923,48.30869],[1.97346,48.31591],[1.9745,48.3126],[1.97909,48.31266],[1.97924,48.31855],[1.98065,48.31877],[1.9745,48.32317],[1.98234,48.32832],[1.9687,48.34131],[1.97059,48.34226],[1.96971,48.34329],[1.97536,48.34479],[1.97447,48.34699],[1.97547,48.34726],[1.97291,48.35405],[1.97331,48.35581],[1.98903,48.36358],[1.98458,48.3651],[1.98415,48.36834],[1.97801,48.36886],[1.98022,48.37021],[1.97988,48.37183],[1.98149,48.3726],[1.98215,48.37485],[1.98012,48.37484],[1.98031,48.37826],[1.97781,48.37857],[1.97631,48.38027],[1.96672,48.38042],[1.96826,48.38412],[1.96934,48.38394],[1.97416,48.38979],[1.97335,48.39577],[1.97724,48.39917],[1.97651,48.39952],[1.97824,48.402],[1.97149,48.40162],[1.96223,48.40433],[1.94642,48.40634],[1.93212,48.40341],[1.92837,48.40605],[1.93273,48.41069],[1.92589,48.41274],[1.92762,48.41634],[1.93194,48.41631],[1.93219,48.42036],[1.93961,48.41958],[1.94072,48.42548],[1.93747,48.42641],[1.93698,48.4278],[1.93853,48.42871],[1.93676,48.43005],[1.93682,48.43126],[1.93911,48.43199],[1.93916,48.43428],[1.93633,48.43481],[1.94289,48.44109],[1.94033,48.44166],[1.93553,48.4407],[1.93296,48.44204],[1.93449,48.44379],[1.93144,48.44482],[1.93282,48.44968],[1.92855,48.45097],[1.93063,48.45372],[1.92792,48.45461],[1.92945,48.45696],[1.92215,48.4576],[1.92326,48.45338],[1.92074,48.44775],[1.91188,48.44776],[1.91163,48.44548],[1.90709,48.44536],[1.9064,48.44015],[1.90451,48.43999],[1.90426,48.43861],[1.89188,48.44031],[1.87169,48.43978],[1.86639,48.44215],[1.86402,48.442],[1.8638,48.44447],[1.85779,48.44557],[1.85762,48.44678],[1.84492,48.4461],[1.84599,48.44747],[1.84557,48.44934],[1.84416,48.44938],[1.84413,48.45203],[1.8396,48.45232],[1.83989,48.45651],[1.83562,48.46356],[1.83659,48.46709],[1.83214,48.46758],[1.81573,48.4657],[1.80145,48.46604],[1.80311,48.46902],[1.80126,48.47166],[1.80321,48.47257],[1.79525,48.47748],[1.79156,48.48124],[1.79634,48.48419],[1.7943,48.48517],[1.79462,48.48593],[1.79164,48.48673],[1.7921,48.48786],[1.78564,48.49008],[1.79064,48.49684],[1.78881,48.49759],[1.78905,48.50016],[1.78303,48.50022],[1.77989,48.50956],[1.77684,48.50931],[1.77617,48.51443],[1.77837,48.51768],[1.77575,48.52771],[1.77939,48.53599],[1.78206,48.53947],[1.7809,48.54],[1.78417,48.54482],[1.7838,48.54672],[1.78725,48.55374],[1.77818,48.55263],[1.77885,48.55357],[1.77666,48.55545],[1.76796,48.55896],[1.76273,48.56513],[1.76359,48.56712],[1.76223,48.5676],[1.76533,48.56937],[1.75871,48.57316],[1.7574,48.57496],[1.75314,48.57457],[1.74586,48.57614],[1.74389,48.57246],[1.74284,48.57326],[1.73683,48.57228],[1.73178,48.57554],[1.72742,48.5726],[1.70925,48.57802],[1.7103,48.58136],[1.70199,48.585],[1.70912,48.59532],[1.71413,48.59806],[1.71381,48.59968],[1.71877,48.60574],[1.71719,48.60756],[1.71848,48.60992],[1.71677,48.6103],[1.71466,48.61468],[1.70282,48.61181],[1.69258,48.61464],[1.69091,48.61414],[1.68958,48.61165],[1.6871,48.61117],[1.68232,48.6156],[1.69063,48.61741],[1.68491,48.61983],[1.67889,48.61878],[1.67442,48.61471],[1.66794,48.61709],[1.66738,48.61412],[1.66622,48.61371],[1.65517,48.62272],[1.65824,48.62764],[1.65653,48.62867],[1.65699,48.62966],[1.64957,48.63227],[1.6493,48.63541],[1.65042,48.63744],[1.63832,48.6451],[1.64385,48.64806],[1.6432,48.65129],[1.63142,48.64848],[1.62276,48.65072],[1.62122,48.64958],[1.61295,48.65435],[1.6086,48.65899],[1.60312,48.66242],[1.60146,48.6652],[1.60128,48.66834],[1.608,48.6723],[1.60469,48.67524],[1.60586,48.67876],[1.61066,48.6854],[1.61177,48.68947],[1.60539,48.68926],[1.59436,48.69483],[1.5912,48.69251],[1.58695,48.69505],[1.58219,48.69605],[1.58512,48.69926],[1.57685,48.70258],[1.59171,48.70772],[1.59183,48.70884],[1.5876,48.71062],[1.59411,48.71609],[1.59702,48.72106],[1.60124,48.72051],[1.60376,48.72484],[1.61008,48.72887],[1.61583,48.73615],[1.62026,48.73601],[1.62343,48.74141],[1.6218,48.74194],[1.62654,48.74805],[1.60974,48.75765],[1.60834,48.76075],[1.58547,48.76172],[1.58281,48.76237],[1.58491,48.7633],[1.58146,48.76552],[1.58759,48.7736],[1.58308,48.77582],[1.58422,48.77727],[1.5804,48.77756],[1.58112,48.77992],[1.57783,48.78124],[1.57663,48.78302],[1.57603,48.78743],[1.57703,48.78879],[1.57529,48.79115],[1.58096,48.79375],[1.57754,48.79553],[1.5793,48.79635],[1.57817,48.79877],[1.57999,48.79991],[1.57725,48.8052],[1.58202,48.80532],[1.58343,48.80717],[1.57943,48.80889],[1.58071,48.81056],[1.58323,48.81067],[1.5912,48.81487],[1.5895,48.81953],[1.58409,48.8266],[1.57898,48.82944],[1.58427,48.83253],[1.59392,48.83372],[1.59785,48.83906],[1.59294,48.84001],[1.59347,48.84101],[1.58662,48.8432],[1.57727,48.84436],[1.5783,48.8491],[1.57977,48.85045],[1.58404,48.86051],[1.57804,48.86087],[1.56945,48.86567],[1.56049,48.86781],[1.55884,48.86424],[1.55522,48.86507],[1.54623,48.87243],[1.54836,48.87595],[1.55136,48.87516],[1.55618,48.88087],[1.55624,48.88221],[1.55978,48.88205],[1.56196,48.88715],[1.56105,48.88769],[1.56374,48.89063],[1.5534,48.89326],[1.5533,48.89546],[1.55097,48.89625],[1.54958,48.89768],[1.54997,48.89872],[1.54612,48.90121],[1.54354,48.90093],[1.54204,48.90365],[1.53917,48.90489],[1.53843,48.90848],[1.5413,48.90836],[1.54528,48.91092],[1.54525,48.91299],[1.54087,48.91681],[1.5384,48.92251],[1.51864,48.92535],[1.51419,48.92195],[1.51101,48.92365],[1.50734,48.9276],[1.50845,48.93097],[1.51123,48.9319],[1.51201,48.93447],[1.50152,48.94105],[1.511,48.95357],[1.50577,48.95391],[1.50547,48.95231],[1.50107,48.95268],[1.49497,48.95679],[1.49873,48.95695],[1.49813,48.9599],[1.49935,48.96046],[1.4919,48.96441],[1.49661,48.96934],[1.51555,48.9764],[1.51839,48.97835],[1.51242,48.97863],[1.5079,48.98376],[1.5001,48.98106],[1.49805,48.97992],[1.49836,48.97916],[1.48421,48.97968],[1.48115,48.9784],[1.47858,48.98055],[1.47504,48.97953],[1.47736,48.97689],[1.47089,48.97482],[1.46754,48.97937],[1.4661,48.98391],[1.46093,48.98644],[1.4617,48.98887],[1.47153,48.9897],[1.46907,48.9935],[1.47425,48.99764],[1.47666,48.99716],[1.47875,48.99889],[1.47818,48.99955],[1.48048,49.00115],[1.48003,49.00753],[1.47412,49.0096],[1.47788,49.01376],[1.47493,49.01775],[1.47005,49.01915],[1.45776,49.02629],[1.45796,49.03484],[1.44645,49.04635],[1.44992,49.04763],[1.4528,49.05054],[1.44728,49.05351],[1.45692,49.05789],[1.46173,49.06414],[1.46437,49.06231],[1.466,49.0595],[1.46893,49.05997],[1.47245,49.05779],[1.4738,49.05488],[1.48029,49.05201],[1.48741,49.05165],[1.48771,49.05345],[1.49376,49.05699],[1.5033,49.0591],[1.51001,49.06706],[1.50948,49.07043],[1.51431,49.07937],[1.50634,49.08472],[1.50792,49.08539],[1.51239,49.08384],[1.51593,49.08086],[1.51818,49.07773],[1.51697,49.07601],[1.52135,49.06835],[1.5413,49.07371],[1.54269,49.07251],[1.55083,49.07257],[1.55326,49.07057],[1.55814,49.06916],[1.56924,49.07328],[1.57036,49.07644],[1.57226,49.0768],[1.57341,49.07848],[1.57908,49.07828],[1.5807,49.0796],[1.58965,49.0811],[1.59216,49.08292],[1.59313,49.08229],[1.60508,49.08517],[1.60707,49.08417],[1.60345,49.08328],[1.6088,49.07789],[1.62332,49.08608],[1.61913,49.08776],[1.61891,49.08866],[1.62319,49.09088],[1.62309,49.09341],[1.61754,49.09399],[1.61858,49.09698],[1.62084,49.09757],[1.62202,49.10104],[1.62754,49.10306],[1.62703,49.10513],[1.6296,49.10752],[1.62956,49.10995],[1.63311,49.11105],[1.63275,49.1124],[1.63505,49.1143],[1.64457,49.11845],[1.64666,49.12138],[1.6471,49.12471],[1.64975,49.12527],[1.65035,49.12721],[1.6528,49.12817],[1.65278,49.12952],[1.65768,49.13188],[1.65657,49.13768],[1.65403,49.13664],[1.65295,49.13824],[1.65306,49.14463],[1.65622,49.14846],[1.65835,49.14893],[1.65934,49.15141],[1.66437,49.15337],[1.66078,49.15676],[1.66097,49.1578],[1.66293,49.15935],[1.66468,49.16587],[1.6702,49.16946],[1.66642,49.17519],[1.66639,49.17685],[1.66769,49.17754],[1.66753,49.17951],[1.67182,49.18088],[1.66907,49.18667],[1.67135,49.191],[1.6707,49.19333],[1.6745,49.19624],[1.6765,49.20016],[1.67688,49.20318],[1.67223,49.2062],[1.67426,49.20856],[1.67491,49.21148],[1.67689,49.21167],[1.67742,49.21329],[1.6846,49.21635],[1.68601,49.21802],[1.6889,49.21835],[1.69126,49.22092],[1.69164,49.22345],[1.69863,49.22452],[1.69881,49.226],[1.70407,49.22932],[1.70266,49.2312],[1.70515,49.23427],[1.70885,49.2355],[1.71006,49.23907],[1.7094,49.24131],[1.71264,49.24119],[1.71319,49.23506],[1.71211,49.23302],[1.71534,49.23325],[1.72966,49.2292],[1.74045,49.22344],[1.73411,49.22128],[1.73546,49.21595],[1.73224,49.2156],[1.73369,49.21096],[1.72895,49.20957],[1.72198,49.21001],[1.72012,49.20679],[1.71477,49.20734],[1.71555,49.20266],[1.7184,49.20279],[1.71992,49.20154],[1.72208,49.2025],[1.72253,49.20097],[1.72505,49.20078],[1.72583,49.19571],[1.72682,49.19489],[1.73744,49.1946],[1.73649,49.19282],[1.73989,49.19207],[1.74125,49.18554],[1.74464,49.18318],[1.74083,49.18073],[1.75551,49.17459],[1.77592,49.1837],[1.78481,49.18583],[1.7867,49.18416],[1.78637,49.18308],[1.78979,49.18165],[1.79099,49.17986],[1.79433,49.18041],[1.79368,49.18364],[1.79547,49.18526],[1.80258,49.18493],[1.80355,49.17996],[1.81384,49.17802],[1.81461,49.17596],[1.81134,49.17464],[1.81169,49.17361],[1.81609,49.17386],[1.81567,49.17484],[1.81955,49.17598],[1.8194,49.17693],[1.82691,49.17961],[1.82796,49.17804],[1.8343,49.17564],[1.83493,49.17421],[1.83748,49.17318],[1.83462,49.16504],[1.83647,49.16454],[1.84449,49.17043],[1.85503,49.17199],[1.85822,49.16986],[1.86801,49.17187],[1.87677,49.17531],[1.87704,49.17145],[1.88321,49.16631],[1.88257,49.16249],[1.88742,49.16322],[1.88727,49.16435],[1.89489,49.16483],[1.89453,49.16604],[1.91626,49.17142],[1.92396,49.17227],[1.92451,49.17352],[1.93433,49.17356],[1.93491,49.17008],[1.9424,49.16997],[1.94533,49.17147],[1.94982,49.17035],[1.9627,49.17461],[1.97101,49.18079],[1.97344,49.1839],[1.98239,49.18145],[1.98399,49.17966],[1.98831,49.17887],[1.99039,49.17667],[2.00184,49.17594],[2.02178,49.18868],[2.03356,49.18811],[2.03966,49.19316],[2.04629,49.19642],[2.04753,49.19859],[2.05877,49.19997],[2.07199,49.20413],[2.07491,49.20869],[2.07725,49.20851],[2.07745,49.20968],[2.08089,49.21045],[2.08117,49.20681],[2.08283,49.20569],[2.08597,49.20628],[2.08816,49.20898],[2.09117,49.20854],[2.09073,49.2017],[2.09224,49.20121],[2.0902,49.19833],[2.09219,49.19771],[2.09255,49.19564],[2.08946,49.19604],[2.08946,49.19366],[2.09257,49.19411],[2.09771,49.18917],[2.10205,49.19044],[2.10362,49.18892],[2.10966,49.19073],[2.11104,49.18699],[2.11334,49.18654],[2.12207,49.18872],[2.12598,49.19126],[2.12551,49.19242],[2.1281,49.19341],[2.13185,49.19066],[2.13521,49.19118],[2.13695,49.17905],[2.14076,49.17892],[2.14056,49.18574],[2.14705,49.1881],[2.14829,49.18485],[2.15812,49.18214],[2.16149,49.17958],[2.16457,49.17967],[2.16499,49.17846],[2.15775,49.1726],[2.16393,49.16609],[2.16879,49.16395],[2.17113,49.16496],[2.17124,49.16769],[2.17937,49.17066],[2.18225,49.17038],[2.17983,49.17321],[2.17495,49.17501],[2.1761,49.17603],[2.18195,49.17368],[2.18245,49.17442],[2.19552,49.17318],[2.19905,49.17529],[2.20124,49.17417],[2.20968,49.17553],[2.21865,49.18068],[2.22392,49.17395],[2.23077,49.1708],[2.23541,49.16703],[2.22456,49.1623],[2.22258,49.15933],[2.21656,49.15469],[2.22301,49.15187],[2.22958,49.15129],[2.24158,49.15157],[2.24187,49.15342],[2.25378,49.15261],[2.26221,49.1583],[2.26812,49.15571],[2.27701,49.15892],[2.28641,49.15992],[2.28509,49.16571],[2.28756,49.16589],[2.28697,49.16717],[2.2895,49.16803],[2.2888,49.17071],[2.29421,49.17161],[2.29675,49.17619],[2.29943,49.17584],[2.3012,49.18389],[2.31059,49.18488],[2.31093,49.18641],[2.32178,49.18443],[2.31965,49.18232],[2.32561,49.17876],[2.34105,49.16505],[2.34626,49.16182],[2.35545,49.15329],[2.35348,49.15117],[2.35598,49.14869],[2.3593,49.14735],[2.36223,49.15255],[2.36485,49.1523],[2.36709,49.15583],[2.37023,49.15677],[2.37073,49.15865],[2.37637,49.15904],[2.38045,49.15804],[2.39129,49.14935],[2.4131,49.15235],[2.41536,49.15176],[2.41535,49.14993],[2.42542,49.14945],[2.4409,49.1458],[2.4354,49.13394],[2.44706,49.13559],[2.45823,49.14114],[2.46249,49.13912],[2.46151,49.13594],[2.46762,49.13584],[2.46755,49.13504],[2.46994,49.13453],[2.47158,49.13543],[2.47548,49.13116],[2.4776,49.13107],[2.47547,49.12832],[2.49923,49.12227],[2.50326,49.11758],[2.49159,49.11131],[2.48993,49.10636],[2.5052,49.10365],[2.51053,49.10417],[2.53106,49.0996],[2.53299,49.11938],[2.53684,49.12],[2.5408,49.12225],[2.54348,49.12147],[2.54367,49.11972],[2.53853,49.11861],[2.53976,49.11645],[2.54716,49.11621],[2.54744,49.12026],[2.54897,49.12196],[2.55329,49.1246],[2.55702,49.12382],[2.55602,49.11762],[2.55153,49.1126],[2.55575,49.10904],[2.55813,49.10378],[2.55817,49.09839],[2.56132,49.09694],[2.56289,49.09748],[2.56664,49.09419],[2.57108,49.09521],[2.57868,49.09195],[2.5799,49.08971],[2.57785,49.08804],[2.57989,49.08669],[2.57885,49.08445],[2.58273,49.08245],[2.58302,49.08065],[2.59052,49.07965]]]}}]}