{"type":"FeatureCollection","features":[{"type":"Feature","properties":{"reg_name":"francia-naq","source":"IGN Admin Express via france-geojson, Licence Ouverte 2.0"},"geometry":{"type":"MultiPolygon","coordinates":[[[[1.41519,46.34722],[1.41675,46.34719],[1.41768,46.34958],[1.42819,46.35416],[1.42996,46.35328],[1.43092,46.35436],[1.44036,46.35637],[1.43588,46.36038],[1.4349,46.36467],[1.44295,46.36516],[1.44153,46.36902],[1.44254,46.37052],[1.44558,46.37157],[1.44643,46.375],[1.44925,46.37399],[1.45305,46.37626],[1.46214,46.37608],[1.46535,46.37478],[1.4682,46.37935],[1.46635,46.38136],[1.46892,46.3839],[1.47256,46.38343],[1.47766,46.39391],[1.49293,46.39834],[1.49695,46.39464],[1.49793,46.395],[1.49839,46.39856],[1.50008,46.3988],[1.50048,46.40641],[1.50943,46.41268],[1.51123,46.42063],[1.51974,46.42323],[1.52148,46.42437],[1.52191,46.4264],[1.52671,46.42686],[1.53325,46.42514],[1.53401,46.42635],[1.53654,46.42475],[1.53328,46.42284],[1.53592,46.42065],[1.54024,46.42062],[1.54409,46.4191],[1.5436,46.41103],[1.54685,46.40615],[1.54503,46.39786],[1.5462,46.39346],[1.55379,46.39433],[1.55985,46.39791],[1.56002,46.40012],[1.57144,46.40623],[1.57515,46.40653],[1.57862,46.41048],[1.58188,46.40778],[1.5876,46.40814],[1.58755,46.40706],[1.5954,46.40864],[1.59844,46.41523],[1.59864,46.41914],[1.60925,46.42312],[1.61201,46.42112],[1.61641,46.42272],[1.62001,46.42166],[1.62266,46.41826],[1.62217,46.41583],[1.61475,46.40678],[1.61425,46.39953],[1.61537,46.39842],[1.61992,46.39877],[1.62157,46.39738],[1.62166,46.39477],[1.62622,46.39403],[1.62503,46.3911],[1.62675,46.38851],[1.63273,46.38908],[1.63633,46.38632],[1.6424,46.38514],[1.64485,46.38682],[1.64501,46.38916],[1.65502,46.39493],[1.66262,46.40569],[1.67024,46.40968],[1.67784,46.41558],[1.6836,46.41818],[1.69248,46.4108],[1.69217,46.40882],[1.70021,46.40541],[1.69957,46.40455],[1.70088,46.40347],[1.69772,46.40157],[1.70215,46.40029],[1.70282,46.39926],[1.70186,46.39803],[1.70375,46.39667],[1.70616,46.39719],[1.7109,46.39206],[1.71957,46.39026],[1.72704,46.39021],[1.72922,46.3936],[1.73504,46.39601],[1.73922,46.40125],[1.75055,46.40558],[1.74865,46.413],[1.75333,46.41851],[1.75434,46.42135],[1.76027,46.42714],[1.75812,46.43352],[1.75476,46.43809],[1.75882,46.44026],[1.7543,46.44308],[1.74759,46.45002],[1.75434,46.45212],[1.77133,46.45243],[1.77599,46.45408],[1.77977,46.45365],[1.78652,46.45525],[1.7898,46.45302],[1.79838,46.45482],[1.80314,46.44692],[1.81733,46.43985],[1.81629,46.4392],[1.81919,46.43534],[1.81693,46.4321],[1.8195,46.43004],[1.82746,46.42818],[1.83018,46.42954],[1.83357,46.42925],[1.83481,46.42808],[1.83734,46.42831],[1.83978,46.42572],[1.8462,46.4284],[1.84571,46.43146],[1.85458,46.43392],[1.87537,46.43221],[1.88344,46.43255],[1.88456,46.4343],[1.8868,46.43415],[1.88667,46.43558],[1.88421,46.43575],[1.88511,46.43732],[1.88312,46.43967],[1.88778,46.44162],[1.89568,46.4394],[1.89751,46.43788],[1.89983,46.43856],[1.90246,46.43781],[1.90918,46.4435],[1.91413,46.44321],[1.91669,46.44038],[1.92053,46.44008],[1.92087,46.43828],[1.92269,46.43793],[1.92148,46.43613],[1.92169,46.43406],[1.92481,46.43375],[1.92424,46.43195],[1.93484,46.43207],[1.94387,46.43399],[1.95224,46.43763],[1.96076,46.4381],[1.96544,46.43951],[1.97811,46.43977],[1.97875,46.44152],[1.9883,46.4345],[1.99078,46.43523],[1.99308,46.43092],[2.00473,46.42916],[2.02034,46.42943],[2.02595,46.42764],[2.02941,46.42459],[2.03768,46.42394],[2.04518,46.42095],[2.06404,46.42139],[2.0742,46.41984],[2.07936,46.41247],[2.08875,46.41034],[2.08894,46.4089],[2.10332,46.40947],[2.10421,46.41195],[2.1098,46.41439],[2.11205,46.42038],[2.1155,46.42195],[2.117,46.42097],[2.11855,46.42223],[2.12037,46.42205],[2.12552,46.42058],[2.12701,46.4191],[2.14203,46.42142],[2.14587,46.42435],[2.15803,46.42235],[2.16779,46.42407],[2.17254,46.42228],[2.18516,46.42328],[2.19419,46.42599],[2.19757,46.4283],[2.21424,46.42319],[2.21839,46.42504],[2.22035,46.42328],[2.22367,46.42266],[2.22835,46.42504],[2.2333,46.42239],[2.24441,46.42578],[2.24987,46.42636],[2.25456,46.4256],[2.25483,46.42299],[2.26946,46.42296],[2.28105,46.42041],[2.27851,46.41915],[2.27878,46.41379],[2.28203,46.41082],[2.2778,46.4097],[2.28386,46.3998],[2.28477,46.39359],[2.2827,46.3918],[2.28582,46.38811],[2.28479,46.38631],[2.28686,46.38406],[2.28673,46.38285],[2.28831,46.38208],[2.29825,46.38411],[2.30442,46.3788],[2.31547,46.3752],[2.31716,46.37521],[2.31989,46.37759],[2.33139,46.37872],[2.3351,46.37323],[2.33789,46.36414],[2.32893,46.36688],[2.32314,46.36738],[2.3225,46.36356],[2.31905,46.36257],[2.31827,46.35933],[2.3169,46.35838],[2.31431,46.35798],[2.31307,46.35986],[2.31119,46.35995],[2.31255,46.35771],[2.31138,46.35555],[2.30541,46.35573],[2.30275,46.35442],[2.30587,46.3506],[2.30886,46.35154],[2.30944,46.34867],[2.3071,46.3479],[2.30789,46.34511],[2.30074,46.34371],[2.30099,46.34223],[2.30347,46.34286],[2.31158,46.34183],[2.31185,46.33742],[2.31354,46.33508],[2.31465,46.33598],[2.31594,46.33441],[2.31893,46.33409],[2.32127,46.32901],[2.32432,46.32982],[2.33088,46.3287],[2.33075,46.32559],[2.33354,46.3264],[2.33588,46.32329],[2.34237,46.32465],[2.34355,46.32627],[2.34646,46.32505],[2.34887,46.32707],[2.35016,46.32433],[2.35244,46.32374],[2.3549,46.32568],[2.36179,46.31943],[2.36295,46.31519],[2.36204,46.31339],[2.36497,46.3107],[2.37575,46.31578],[2.37685,46.3169],[2.37542,46.31812],[2.37705,46.32041],[2.37659,46.32203],[2.37958,46.32761],[2.38504,46.32954],[2.38608,46.33197],[2.38861,46.32976],[2.39186,46.32998],[2.39361,46.32899],[2.40789,46.31706],[2.40886,46.31486],[2.41943,46.30946],[2.42066,46.31013],[2.41987,46.30248],[2.4211,46.30153],[2.41941,46.29983],[2.41578,46.29992],[2.41564,46.29812],[2.41421,46.29691],[2.4174,46.2942],[2.42134,46.28462],[2.42277,46.28386],[2.42802,46.28533],[2.42745,46.28723],[2.43037,46.29001],[2.43187,46.29442],[2.43458,46.29307],[2.44303,46.295],[2.45385,46.29103],[2.45652,46.29116],[2.46248,46.28828],[2.47,46.28809],[2.4711,46.28449],[2.47188,46.2848],[2.47441,46.2821],[2.47641,46.28084],[2.48076,46.28101],[2.47709,46.26936],[2.47988,46.26671],[2.4802,46.26504],[2.47871,46.26361],[2.48201,46.26198],[2.48368,46.25779],[2.48833,46.25298],[2.48916,46.24753],[2.49436,46.24865],[2.49579,46.24725],[2.50356,46.24692],[2.50303,46.24558],[2.50654,46.24413],[2.50601,46.24229],[2.51099,46.23908],[2.51462,46.23994],[2.51585,46.23696],[2.51453,46.23354],[2.51635,46.23237],[2.51686,46.22985],[2.5147,46.22482],[2.51632,46.22464],[2.51651,46.22135],[2.52019,46.21725],[2.51992,46.21388],[2.52335,46.21248],[2.52302,46.21072],[2.51958,46.20952],[2.52055,46.20835],[2.52464,46.2087],[2.52592,46.20722],[2.52223,46.20546],[2.52169,46.20304],[2.5228,46.20119],[2.52461,46.2015],[2.5266,46.19623],[2.52802,46.19546],[2.52853,46.19218],[2.52599,46.18769],[2.53225,46.18259],[2.53295,46.18084],[2.54316,46.17561],[2.55127,46.17698],[2.55328,46.17653],[2.55418,46.17442],[2.55715,46.17527],[2.5598,46.17337],[2.56022,46.16487],[2.56177,46.16392],[2.55942,46.15961],[2.56149,46.15811],[2.56077,46.15559],[2.56446,46.15595],[2.56549,46.15396],[2.56287,46.14915],[2.56634,46.14376],[2.56317,46.14214],[2.56452,46.14079],[2.56354,46.13845],[2.55921,46.13873],[2.55862,46.13787],[2.56165,46.13328],[2.56092,46.1317],[2.55898,46.13126],[2.55659,46.13361],[2.55588,46.13253],[2.55729,46.12875],[2.55437,46.1279],[2.55398,46.12637],[2.55528,46.12533],[2.55793,46.12564],[2.55818,46.12452],[2.55382,46.11953],[2.55066,46.1185],[2.55245,46.11737],[2.55239,46.11598],[2.54728,46.11297],[2.54836,46.10903],[2.55182,46.10397],[2.55181,46.10042],[2.55058,46.09817],[2.55218,46.09574],[2.55242,46.09065],[2.55039,46.08607],[2.55207,46.08431],[2.55302,46.07932],[2.55533,46.07644],[2.55711,46.06914],[2.56046,46.06603],[2.56428,46.06486],[2.56337,46.06374],[2.56606,46.0599],[2.56514,46.05824],[2.56824,46.05643],[2.5681,46.05423],[2.5719,46.04941],[2.57073,46.0473],[2.57859,46.04422],[2.58118,46.04462],[2.58427,46.04353],[2.58528,46.04117],[2.58923,46.04064],[2.58975,46.03902],[2.59588,46.0373],[2.60251,46.03346],[2.60034,46.02757],[2.60111,46.02546],[2.60026,46.02308],[2.6025,46.01921],[2.59764,46.01566],[2.59866,46.01251],[2.60041,46.01183],[2.59773,46.0081],[2.59903,46.00765],[2.5972,46.00505],[2.59514,46.00428],[2.59546,46.00294],[2.5933,45.99921],[2.59322,45.99299],[2.59359,45.98984],[2.59725,45.98633],[2.5993,45.98583],[2.60123,45.98191],[2.60715,45.97938],[2.61087,45.97415],[2.61157,45.97208],[2.60878,45.9689],[2.60902,45.96665],[2.6036,45.96625],[2.60088,45.96423],[2.5943,45.9634],[2.58965,45.96066],[2.5848,45.96013],[2.58326,45.96171],[2.57984,45.96014],[2.56963,45.95881],[2.56357,45.95559],[2.56991,45.94721],[2.56133,45.94597],[2.55164,45.94127],[2.55362,45.93582],[2.54754,45.93236],[2.54425,45.93241],[2.54405,45.92841],[2.54507,45.92706],[2.54307,45.92549],[2.54351,45.92383],[2.5415,45.92153],[2.54394,45.91577],[2.5554,45.91372],[2.55501,45.91251],[2.5488,45.90888],[2.54822,45.90739],[2.54435,45.90754],[2.5428,45.90651],[2.5419,45.90458],[2.54266,45.90272],[2.54143,45.90097],[2.53467,45.90121],[2.52884,45.89965],[2.52661,45.89812],[2.52472,45.89439],[2.52059,45.89404],[2.51816,45.89056],[2.51466,45.88996],[2.51419,45.88568],[2.51033,45.88542],[2.50221,45.88849],[2.50058,45.88513],[2.50299,45.88229],[2.50329,45.87823],[2.49979,45.87243],[2.4923,45.86723],[2.49223,45.86403],[2.47974,45.86454],[2.47846,45.86648],[2.47955,45.86841],[2.47898,45.87035],[2.47062,45.87233],[2.46527,45.87135],[2.46558,45.86825],[2.46178,45.86673],[2.45824,45.86758],[2.45714,45.86565],[2.45425,45.86678],[2.44767,45.86584],[2.44336,45.86661],[2.44265,45.86404],[2.44374,45.85878],[2.44257,45.85689],[2.44965,45.8536],[2.44951,45.84821],[2.44777,45.84839],[2.44782,45.84582],[2.4459,45.84496],[2.44351,45.84515],[2.44094,45.84717],[2.43823,45.84596],[2.43663,45.847],[2.43418,45.84525],[2.43514,45.84479],[2.43127,45.84034],[2.43269,45.83976],[2.43081,45.83589],[2.43158,45.83495],[2.43094,45.83382],[2.42825,45.83504],[2.42297,45.83369],[2.42193,45.83491],[2.41807,45.83477],[2.41594,45.8337],[2.41177,45.83631],[2.40367,45.83843],[2.40154,45.8378],[2.39863,45.83457],[2.39716,45.83497],[2.39536,45.83353],[2.39322,45.82971],[2.38802,45.82738],[2.38802,45.82539],[2.38943,45.82373],[2.40614,45.81315],[2.40672,45.80968],[2.41257,45.80806],[2.41411,45.80613],[2.41281,45.8023],[2.41693,45.79915],[2.42465,45.79703],[2.42727,45.79464],[2.42753,45.79235],[2.42592,45.79069],[2.43086,45.78862],[2.43279,45.78659],[2.43342,45.77319],[2.43546,45.76697],[2.44001,45.76481],[2.4445,45.75819],[2.45047,45.75715],[2.45138,45.76147],[2.45475,45.76115],[2.45447,45.76002],[2.46012,45.75719],[2.46866,45.75632],[2.4686,45.75331],[2.47442,45.74566],[2.47661,45.74754],[2.48484,45.74848],[2.48651,45.74726],[2.48793,45.74356],[2.49158,45.74221],[2.4904,45.74064],[2.49213,45.73767],[2.4938,45.73771],[2.49495,45.73394],[2.49937,45.73244],[2.50051,45.72875],[2.50334,45.72749],[2.50474,45.72479],[2.50898,45.72415],[2.51027,45.72231],[2.50988,45.72113],[2.51314,45.71951],[2.51384,45.71551],[2.51645,45.71296],[2.52301,45.71145],[2.52357,45.70901],[2.521,45.70893],[2.52107,45.70722],[2.51874,45.7056],[2.52008,45.70353],[2.51879,45.70029],[2.52059,45.69997],[2.51891,45.69764],[2.52667,45.69198],[2.5235,45.68756],[2.52427,45.68494],[2.52651,45.68539],[2.52868,45.6822],[2.52386,45.68085],[2.52193,45.67739],[2.5175,45.67817],[2.51781,45.67524],[2.51293,45.67133],[2.51259,45.66976],[2.51546,45.66354],[2.51951,45.66201],[2.51834,45.66008],[2.51904,45.65923],[2.52385,45.6572],[2.52707,45.6593],[2.52828,45.65854],[2.52677,45.65679],[2.52736,45.65472],[2.52353,45.65375],[2.52338,45.65211],[2.51804,45.64596],[2.52079,45.64289],[2.52014,45.64069],[2.51654,45.63897],[2.50166,45.6386],[2.49756,45.64067],[2.49512,45.64041],[2.49461,45.63857],[2.49198,45.63776],[2.48975,45.64235],[2.4875,45.6424],[2.48339,45.6393],[2.48203,45.63521],[2.48202,45.63135],[2.48324,45.63035],[2.47957,45.62712],[2.48021,45.62599],[2.47879,45.61785],[2.48036,45.61151],[2.47843,45.60791],[2.47452,45.60648],[2.47093,45.60239],[2.46592,45.60136],[2.46117,45.59646],[2.46532,45.59407],[2.46897,45.58971],[2.46883,45.588],[2.47229,45.58687],[2.47229,45.58439],[2.47524,45.58236],[2.47517,45.58124],[2.47254,45.58093],[2.47112,45.57922],[2.47419,45.57877],[2.48219,45.57327],[2.48136,45.57088],[2.49146,45.56795],[2.49164,45.56502],[2.48991,45.56346],[2.48977,45.56179],[2.49093,45.56039],[2.49565,45.55692],[2.49873,45.55683],[2.49956,45.55417],[2.50096,45.55354],[2.50359,45.55471],[2.50647,45.55421],[2.50781,45.55277],[2.51467,45.55428],[2.51684,45.55302],[2.51529,45.54848],[2.51854,45.54587],[2.51815,45.54357],[2.51475,45.54192],[2.51512,45.53692],[2.51914,45.53368],[2.5194,45.53224],[2.51176,45.5251],[2.51956,45.52279],[2.52039,45.52045],[2.51839,45.51821],[2.51921,45.51694],[2.5162,45.51668],[2.51153,45.51115],[2.50778,45.50311],[2.51389,45.49235],[2.5076,45.48327],[2.50974,45.4731],[2.50537,45.46861],[2.50715,45.46564],[2.50677,45.46407],[2.50505,45.46231],[2.49941,45.46025],[2.49908,45.45436],[2.50302,45.45008],[2.5025,45.44787],[2.50001,45.44847],[2.49688,45.44726],[2.4956,45.4455],[2.49629,45.44316],[2.49558,45.44114],[2.49295,45.43854],[2.49589,45.43583],[2.49153,45.42937],[2.49138,45.42554],[2.49272,45.42369],[2.48786,45.41979],[2.48754,45.41816],[2.49346,45.41344],[2.50245,45.41167],[2.50137,45.40969],[2.50526,45.41063],[2.50609,45.40865],[2.51775,45.40184],[2.52127,45.40264],[2.52202,45.40031],[2.52361,45.39945],[2.52214,45.39702],[2.52756,45.39359],[2.52787,45.39161],[2.52331,45.38541],[2.52318,45.38281],[2.51936,45.38488],[2.51585,45.38434],[2.51144,45.3826],[2.50644,45.37833],[2.50083,45.38136],[2.48577,45.37895],[2.48219,45.37616],[2.48059,45.37657],[2.4804,45.37482],[2.48269,45.37301],[2.48013,45.37031],[2.47662,45.37028],[2.47605,45.37401],[2.47312,45.37537],[2.47223,45.37406],[2.47025,45.37384],[2.47057,45.37672],[2.4716,45.37815],[2.47313,45.37748],[2.47518,45.37995],[2.47498,45.3813],[2.45917,45.38569],[2.45323,45.38362],[2.44505,45.38327],[2.44186,45.38426],[2.43263,45.39317],[2.42579,45.39368],[2.42267,45.39723],[2.41405,45.39643],[2.40499,45.39774],[2.39879,45.39999],[2.396,45.40323],[2.39549,45.40732],[2.3875,45.41196],[2.37825,45.41431],[2.37269,45.41385],[2.36957,45.41615],[2.35513,45.41503],[2.35066,45.41292],[2.3497,45.41175],[2.35008,45.40968],[2.35455,45.4014],[2.35672,45.39951],[2.36343,45.39726],[2.36514,45.39051],[2.36827,45.38862],[2.36936,45.3865],[2.36769,45.38327],[2.36393,45.38089],[2.36297,45.37842],[2.36462,45.37468],[2.3643,45.37234],[2.36775,45.36582],[2.36449,45.36253],[2.36513,45.35608],[2.36335,45.35329],[2.35932,45.35491],[2.35735,45.3541],[2.3507,45.34776],[2.35026,45.34604],[2.35217,45.3433],[2.35856,45.33899],[2.35976,45.33651],[2.35594,45.33345],[2.35166,45.32783],[2.34611,45.32783],[2.33987,45.3258],[2.33643,45.3264],[2.3296,45.32535],[2.31575,45.32183],[2.31137,45.3159],[2.30787,45.31329],[2.30589,45.3074],[2.30289,45.30506],[2.30016,45.2988],[2.29513,45.29534],[2.29022,45.28805],[2.28742,45.28656],[2.28244,45.28678],[2.27141,45.29015],[2.26899,45.28939],[2.26778,45.28682],[2.26173,45.28322],[2.2613,45.27737],[2.25856,45.27022],[2.2524,45.26783],[2.245,45.2671],[2.24284,45.26535],[2.23765,45.25872],[2.24006,45.25537],[2.24134,45.24943],[2.24027,45.24759],[2.23377,45.24654],[2.23141,45.24712],[2.22569,45.24451],[2.22494,45.24185],[2.22117,45.23753],[2.21265,45.23167],[2.20234,45.22698],[2.20306,45.22316],[2.20172,45.22244],[2.19428,45.22081],[2.19116,45.22306],[2.18932,45.22211],[2.19588,45.21811],[2.19665,45.21612],[2.1943,45.21433],[2.18987,45.20406],[2.19173,45.20093],[2.19803,45.20008],[2.19988,45.19797],[2.19823,45.19666],[2.19969,45.19527],[2.19854,45.19441],[2.19842,45.19234],[2.20054,45.18492],[2.20213,45.18394],[2.20133,45.17979],[2.20666,45.17988],[2.21411,45.17616],[2.21526,45.17395],[2.2192,45.17419],[2.21837,45.17247],[2.22105,45.17217],[2.2222,45.17023],[2.23174,45.17006],[2.23187,45.16745],[2.23295,45.16659],[2.232,45.16398],[2.22946,45.16363],[2.23042,45.16209],[2.22788,45.16088],[2.22222,45.15984],[2.21427,45.15983],[2.21179,45.16127],[2.20843,45.16032],[2.20798,45.15875],[2.21207,45.15282],[2.21157,45.14844],[2.20846,45.14367],[2.20489,45.14205],[2.20256,45.13916],[2.19709,45.13772],[2.19411,45.13479],[2.18788,45.13456],[2.18763,45.13586],[2.17879,45.1363],[2.18205,45.13208],[2.18085,45.12686],[2.1848,45.12317],[2.18385,45.12268],[2.18405,45.11949],[2.1892,45.1177],[2.19034,45.11612],[2.1901,45.114],[2.18781,45.11274],[2.18711,45.11445],[2.18058,45.11255],[2.18166,45.10994],[2.1797,45.1095],[2.17932,45.10751],[2.18167,45.10671],[2.1811,45.10495],[2.17901,45.10423],[2.18016,45.10319],[2.17665,45.1022],[2.18042,45.09905],[2.18023,45.09487],[2.1739,45.08775],[2.17455,45.08226],[2.16725,45.08086],[2.16547,45.08194],[2.16572,45.08383],[2.16451,45.08495],[2.1593,45.08476],[2.15721,45.08633],[2.14821,45.08294],[2.14832,45.08492],[2.14692,45.08573],[2.14394,45.08518],[2.1426,45.08662],[2.14018,45.08652],[2.13829,45.08153],[2.1315,45.08179],[2.12992,45.07769],[2.12632,45.07679],[2.12468,45.0744],[2.12029,45.07286],[2.12069,45.06989],[2.11809,45.0689],[2.11427,45.07177],[2.10978,45.06838],[2.10406,45.06675],[2.10268,45.06248],[2.09926,45.06198],[2.09793,45.06067],[2.09743,45.05847],[2.10093,45.05727],[2.10074,45.056],[2.09516,45.05603],[2.09932,45.04763],[2.10466,45.04498],[2.1046,45.043],[2.10758,45.04328],[2.11083,45.04054],[2.11001,45.03829],[2.1118,45.0378],[2.11173,45.03641],[2.11035,45.03388],[2.11182,45.03074],[2.11341,45.03006],[2.11342,45.02759],[2.11598,45.02224],[2.11827,45.02044],[2.12316,45.01969],[2.12482,45.01497],[2.12794,45.01196],[2.1336,45.00878],[2.13733,45.00874],[2.14089,45.00653],[2.13933,45.00257],[2.14218,45.00033],[2.13934,44.9983],[2.14011,44.99723],[2.13897,44.99511],[2.13707,44.99502],[2.13645,44.99016],[2.13348,44.98871],[2.13329,44.98574],[2.13026,44.98421],[2.12398,44.98595],[2.1198,44.98585],[2.11936,44.9845],[2.11746,44.98405],[2.11421,44.98553],[2.10731,44.98137],[2.10219,44.98023],[2.09977,44.98415],[2.09387,44.9844],[2.09304,44.98589],[2.08526,44.9838],[2.08418,44.98159],[2.07431,44.97766],[2.06981,44.97832],[2.0588,44.97461],[2.05829,44.97568],[2.05929,44.97708],[2.05512,44.97581],[2.05256,44.97648],[2.04544,44.98367],[2.04031,44.98172],[2.03131,44.98201],[2.02885,44.98025],[2.02549,44.98037],[2.02367,44.97852],[2.01916,44.97963],[2.01706,44.97761],[2.01029,44.97754],[2.00827,44.97623],[2.00579,44.97806],[1.99358,44.97466],[1.99148,44.97591],[1.98166,44.97287],[1.9741,44.96664],[1.96892,44.96437],[1.9662,44.96193],[1.9564,44.95974],[1.95521,44.95658],[1.94916,44.95252],[1.94725,44.95355],[1.94028,44.95289],[1.94035,44.95478],[1.94216,44.95596],[1.94215,44.95923],[1.94165,44.96652],[1.93907,44.97322],[1.93673,44.97303],[1.93341,44.97455],[1.93226,44.97662],[1.93049,44.97683],[1.92883,44.97867],[1.92194,44.97613],[1.9213,44.97716],[1.91691,44.97701],[1.91658,44.97831],[1.91398,44.97898],[1.90866,44.97842],[1.90502,44.97471],[1.9028,44.9749],[1.90231,44.97326],[1.8992,44.97244],[1.89809,44.96942],[1.89899,44.96772],[1.89064,44.96418],[1.8895,44.96454],[1.88729,44.96272],[1.88582,44.95786],[1.88742,44.95657],[1.87892,44.95568],[1.8714,44.95331],[1.86861,44.95406],[1.8632,44.95022],[1.86321,44.94783],[1.85105,44.94625],[1.84741,44.94349],[1.84488,44.94307],[1.8451,44.93979],[1.84277,44.93708],[1.83644,44.93746],[1.83774,44.94088],[1.83687,44.94534],[1.83117,44.94549],[1.82924,44.93351],[1.82643,44.92927],[1.82082,44.92722],[1.81359,44.92719],[1.81149,44.92879],[1.80915,44.92825],[1.80815,44.92689],[1.80436,44.92571],[1.80129,44.92209],[1.80089,44.92421],[1.8024,44.92562],[1.7983,44.93032],[1.79087,44.93216],[1.7857,44.93691],[1.78482,44.93673],[1.78707,44.93224],[1.78632,44.93093],[1.78027,44.92874],[1.77493,44.92372],[1.76729,44.93368],[1.76068,44.93612],[1.74934,44.93758],[1.74888,44.93889],[1.75235,44.94],[1.75523,44.94289],[1.75589,44.94627],[1.75125,44.94732],[1.7508,44.95573],[1.74073,44.96058],[1.73667,44.96065],[1.7339,44.95943],[1.73242,44.96211],[1.73302,44.96477],[1.7315,44.96454],[1.72494,44.9681],[1.71432,44.96826],[1.71103,44.96729],[1.70702,44.97291],[1.70705,44.98079],[1.70264,44.98436],[1.70266,44.98783],[1.69324,44.99191],[1.68716,44.99638],[1.68437,45.00266],[1.67617,45.00423],[1.67319,45.00367],[1.67141,45.0043],[1.67011,45.00677],[1.67124,45.00763],[1.67021,45.00875],[1.66381,45.00884],[1.66498,45.01205],[1.65932,45.01354],[1.65956,45.01466],[1.65714,45.01497],[1.65444,45.01793],[1.65291,45.01814],[1.65263,45.02034],[1.65083,45.02236],[1.65189,45.02529],[1.64854,45.02382],[1.6478,45.02751],[1.64621,45.02849],[1.63546,45.02933],[1.62996,45.03357],[1.62596,45.03377],[1.62467,45.03093],[1.62327,45.03047],[1.62198,45.03217],[1.6187,45.03156],[1.61385,45.03329],[1.60772,45.03177],[1.60538,45.03531],[1.59346,45.03478],[1.57631,45.0407],[1.57005,45.03944],[1.55435,45.02931],[1.55204,45.02847],[1.54512,45.02888],[1.54092,45.03906],[1.54152,45.04167],[1.54006,45.04667],[1.53747,45.04669],[1.53386,45.04527],[1.52814,45.04537],[1.52659,45.04347],[1.5229,45.04308],[1.52061,45.03996],[1.51583,45.04145],[1.50664,45.03991],[1.49379,45.03343],[1.49176,45.0299],[1.48791,45.03248],[1.48254,45.03019],[1.48138,45.02725],[1.47732,45.02695],[1.4766,45.02506],[1.47847,45.02265],[1.47637,45.01958],[1.47689,45.01854],[1.4677,45.01703],[1.46199,45.0137],[1.45556,45.01528],[1.44826,45.01931],[1.44131,45.01533],[1.44438,45.01409],[1.42818,45.00922],[1.40927,45.006],[1.4133,44.99939],[1.41444,44.99489],[1.41324,44.99119],[1.41143,44.9896],[1.41179,44.98663],[1.41762,44.98295],[1.41747,44.98052],[1.41458,44.97779],[1.41259,44.97238],[1.416,44.96956],[1.42164,44.96858],[1.42102,44.96462],[1.41694,44.9622],[1.41663,44.96062],[1.41867,44.96068],[1.41952,44.95947],[1.41912,44.95596],[1.42178,44.95562],[1.42181,44.95401],[1.42565,44.95137],[1.42794,44.94658],[1.43075,44.94553],[1.43346,44.94604],[1.4347,44.94452],[1.4364,44.94062],[1.43561,44.93858],[1.43359,44.9383],[1.4331,44.93721],[1.43699,44.93536],[1.43728,44.93266],[1.43534,44.93143],[1.4364,44.92856],[1.43893,44.92871],[1.43842,44.92516],[1.44196,44.9209],[1.44235,44.91655],[1.42532,44.91997],[1.42306,44.9186],[1.42253,44.91626],[1.42121,44.91549],[1.41881,44.91578],[1.41372,44.91331],[1.41225,44.90979],[1.41265,44.90853],[1.41675,44.90901],[1.41798,44.90723],[1.42142,44.90626],[1.41797,44.90061],[1.42312,44.89539],[1.42597,44.89487],[1.43052,44.89134],[1.43986,44.88895],[1.44216,44.88302],[1.44192,44.87758],[1.43812,44.87382],[1.43109,44.87129],[1.42436,44.8725],[1.41818,44.8706],[1.41132,44.87229],[1.41264,44.86911],[1.41161,44.86591],[1.40538,44.86329],[1.40436,44.85733],[1.40512,44.85645],[1.40333,44.85405],[1.40249,44.85008],[1.39828,44.84893],[1.3929,44.84915],[1.38731,44.85104],[1.38488,44.84887],[1.3861,44.84743],[1.37714,44.84183],[1.37383,44.84351],[1.37283,44.84669],[1.37105,44.8474],[1.36866,44.84581],[1.36595,44.84579],[1.36086,44.83958],[1.35995,44.83425],[1.36099,44.83188],[1.36015,44.82517],[1.36587,44.81617],[1.36595,44.81518],[1.36338,44.81435],[1.3641,44.81157],[1.33887,44.80555],[1.3305,44.80705],[1.32551,44.80601],[1.29827,44.79619],[1.29847,44.79529],[1.29331,44.78984],[1.2975,44.78885],[1.30465,44.78909],[1.30354,44.7871],[1.30473,44.78454],[1.29977,44.78239],[1.29624,44.77781],[1.29846,44.77424],[1.31054,44.76979],[1.31433,44.76609],[1.31365,44.76509],[1.32282,44.76504],[1.32027,44.75855],[1.32021,44.75517],[1.31702,44.74947],[1.31605,44.74037],[1.30019,44.74428],[1.30053,44.74306],[1.29803,44.74138],[1.29554,44.73596],[1.30032,44.7337],[1.29856,44.72591],[1.28937,44.72065],[1.28778,44.71478],[1.27943,44.71583],[1.27476,44.71862],[1.2751,44.72155],[1.27078,44.72273],[1.268,44.71897],[1.26819,44.71618],[1.26342,44.71055],[1.26028,44.71021],[1.25936,44.70854],[1.25576,44.70945],[1.24871,44.70807],[1.24336,44.70375],[1.24449,44.69778],[1.24389,44.69565],[1.24101,44.69424],[1.24193,44.69288],[1.23544,44.69202],[1.2332,44.69074],[1.23008,44.69142],[1.22604,44.68864],[1.22455,44.68427],[1.21726,44.68262],[1.20696,44.6836],[1.20219,44.68292],[1.19799,44.68063],[1.19736,44.68382],[1.19412,44.68225],[1.17847,44.68264],[1.17215,44.68005],[1.16881,44.68002],[1.16069,44.67264],[1.14882,44.67028],[1.14673,44.6708],[1.14702,44.66553],[1.14938,44.66092],[1.14995,44.65517],[1.14867,44.6534],[1.14652,44.65284],[1.15191,44.6452],[1.15152,44.64308],[1.15272,44.64251],[1.15193,44.64119],[1.15333,44.64079],[1.15333,44.63774],[1.15089,44.63286],[1.14813,44.63247],[1.13851,44.62521],[1.13272,44.61926],[1.12465,44.6158],[1.11986,44.61021],[1.11066,44.60696],[1.09459,44.59234],[1.09382,44.59058],[1.09771,44.59054],[1.10253,44.58644],[1.10214,44.5841],[1.10347,44.58097],[1.09894,44.57993],[1.10348,44.57435],[1.10321,44.57173],[1.08769,44.57076],[1.07841,44.5748],[1.07709,44.5736],[1.07439,44.57728],[1.07381,44.57178],[1.0697,44.56611],[1.06376,44.56455],[1.05653,44.5647],[1.04758,44.56186],[1.04524,44.56237],[1.04312,44.55853],[1.04054,44.55666],[1.03613,44.55611],[1.02974,44.55198],[1.03094,44.5488],[1.02725,44.54817],[1.02196,44.54541],[1.01539,44.5376],[1.01297,44.53626],[1.01032,44.54176],[1.01023,44.54582],[1.00888,44.54711],[1.00013,44.54776],[0.99504,44.54973],[0.98654,44.54738],[0.98152,44.54444],[0.98231,44.54265],[0.9856,44.54193],[0.98932,44.5386],[0.98787,44.53304],[0.9927,44.52806],[0.99978,44.52688],[1.00339,44.52031],[1.00618,44.51922],[1.00695,44.51296],[1.01623,44.50587],[1.01651,44.49899],[1.01162,44.49565],[1.01768,44.4918],[1.01699,44.48905],[1.01251,44.48962],[1.01168,44.48862],[1.0142,44.4874],[1.00903,44.48004],[1.02301,44.47544],[1.02167,44.47335],[1.02401,44.47307],[1.02181,44.47056],[1.02336,44.4682],[1.02591,44.46701],[1.02267,44.46252],[1.02462,44.45971],[1.0213,44.45598],[1.02373,44.45146],[1.02177,44.44937],[1.02104,44.44535],[1.02425,44.44259],[1.03238,44.44133],[1.0282,44.434],[1.03421,44.43226],[1.04226,44.43497],[1.04528,44.43433],[1.04923,44.42933],[1.05394,44.4319],[1.05524,44.42742],[1.05749,44.42767],[1.05862,44.42169],[1.06067,44.41992],[1.06051,44.41532],[1.06187,44.4139],[1.06026,44.41285],[1.06016,44.41127],[1.06128,44.40899],[1.05993,44.40452],[1.06131,44.40188],[1.0583,44.39901],[1.05587,44.3983],[1.0545,44.39438],[1.05143,44.39209],[1.05724,44.39],[1.06035,44.39106],[1.06133,44.38635],[1.06448,44.38054],[1.06408,44.37851],[1.06353,44.37742],[1.05972,44.37653],[1.06067,44.37145],[1.05932,44.37096],[1.05904,44.36683],[1.06065,44.3656],[1.05246,44.36456],[1.0493,44.36236],[1.02821,44.36424],[1.01929,44.36333],[1.0138,44.36507],[1.00456,44.36559],[0.99671,44.36914],[0.99069,44.36322],[0.98182,44.35844],[0.97969,44.35841],[0.9773,44.35618],[0.97515,44.35798],[0.97517,44.36152],[0.96456,44.36134],[0.95924,44.35875],[0.95669,44.36075],[0.9547,44.35942],[0.95151,44.36158],[0.95,44.35932],[0.95141,44.35781],[0.94892,44.35768],[0.94603,44.35455],[0.9418,44.35319],[0.94519,44.3503],[0.94576,44.34783],[0.94238,44.3446],[0.93986,44.35051],[0.93714,44.36943],[0.93324,44.37279],[0.92686,44.37506],[0.92313,44.37853],[0.91985,44.38442],[0.90448,44.38171],[0.90463,44.38064],[0.89638,44.38184],[0.89512,44.37903],[0.89499,44.3743],[0.88733,44.36637],[0.8872,44.36462],[0.88916,44.36153],[0.89258,44.35987],[0.89357,44.35804],[0.89369,44.35348],[0.89097,44.35354],[0.89108,44.35192],[0.89286,44.34835],[0.89611,44.34623],[0.89153,44.33888],[0.88846,44.33866],[0.88734,44.33631],[0.88758,44.33357],[0.88924,44.33223],[0.88248,44.33184],[0.88265,44.33049],[0.88135,44.32971],[0.88333,44.32838],[0.87908,44.32721],[0.87327,44.32357],[0.87531,44.31995],[0.87337,44.31538],[0.87124,44.31455],[0.87167,44.31235],[0.86917,44.30989],[0.87204,44.31064],[0.87257,44.3092],[0.87478,44.30833],[0.88472,44.30756],[0.88961,44.29956],[0.89412,44.29693],[0.89689,44.29917],[0.90069,44.29992],[0.90528,44.29922],[0.91643,44.3022],[0.91943,44.29962],[0.91982,44.29666],[0.92344,44.29211],[0.92343,44.28977],[0.92611,44.28809],[0.92582,44.28647],[0.93392,44.28543],[0.93544,44.28284],[0.94038,44.28213],[0.94257,44.27802],[0.94508,44.27757],[0.94213,44.27582],[0.94249,44.27471],[0.94988,44.27614],[0.95079,44.27506],[0.94679,44.26962],[0.94713,44.26805],[0.94029,44.26333],[0.93617,44.26566],[0.92778,44.26741],[0.92736,44.2621],[0.9293,44.2618],[0.93362,44.25686],[0.93178,44.25229],[0.93288,44.25059],[0.93263,44.24834],[0.92668,44.24813],[0.92483,44.24698],[0.91909,44.23827],[0.92431,44.23482],[0.9267,44.23418],[0.92888,44.23502],[0.9278,44.23266],[0.92924,44.23025],[0.92676,44.22927],[0.92404,44.22528],[0.92056,44.21618],[0.91803,44.21471],[0.91409,44.20671],[0.90949,44.20318],[0.90861,44.20015],[0.90518,44.19732],[0.90743,44.19501],[0.90597,44.19012],[0.89475,44.19107],[0.88734,44.19026],[0.87632,44.193],[0.86174,44.19339],[0.85969,44.19274],[0.86043,44.19103],[0.85633,44.18922],[0.85302,44.18391],[0.85332,44.17969],[0.85228,44.17648],[0.85363,44.17478],[0.86504,44.17354],[0.86493,44.17065],[0.87099,44.1679],[0.87471,44.16938],[0.88302,44.17547],[0.88663,44.17203],[0.88918,44.17199],[0.89027,44.17026],[0.88996,44.16742],[0.88872,44.16443],[0.88482,44.16082],[0.8851,44.15916],[0.89004,44.15342],[0.88836,44.15088],[0.88852,44.14684],[0.89422,44.14389],[0.894,44.13789],[0.89207,44.13733],[0.88698,44.13858],[0.88269,44.14207],[0.87798,44.13657],[0.88298,44.13329],[0.88011,44.13211],[0.87973,44.13051],[0.88094,44.12999],[0.87041,44.12846],[0.86905,44.1279],[0.86909,44.12652],[0.86697,44.12635],[0.85999,44.12814],[0.85781,44.12757],[0.85692,44.13048],[0.84902,44.13174],[0.83201,44.13719],[0.8189,44.14385],[0.80494,44.14498],[0.8011,44.14303],[0.7961,44.14562],[0.78857,44.14439],[0.78773,44.14276],[0.79235,44.13837],[0.79757,44.13038],[0.79505,44.12859],[0.79594,44.12546],[0.7954,44.12184],[0.79299,44.11871],[0.79882,44.11316],[0.79889,44.11064],[0.78873,44.11416],[0.78623,44.11191],[0.77864,44.11315],[0.77569,44.11582],[0.77189,44.11383],[0.77206,44.11292],[0.76764,44.1108],[0.76603,44.11112],[0.76385,44.10869],[0.75683,44.1074],[0.75337,44.1047],[0.75283,44.10182],[0.75371,44.09945],[0.74887,44.0978],[0.74743,44.09616],[0.7483,44.08677],[0.74533,44.08538],[0.74377,44.08306],[0.74412,44.08185],[0.73979,44.07814],[0.73836,44.07542],[0.73904,44.07333],[0.73789,44.06982],[0.73971,44.06662],[0.74188,44.0652],[0.73992,44.06405],[0.73868,44.06102],[0.73154,44.06223],[0.71638,44.05737],[0.70792,44.05829],[0.70752,44.05702],[0.70039,44.05287],[0.69673,44.04534],[0.69526,44.04437],[0.69328,44.04624],[0.68567,44.04617],[0.67936,44.03695],[0.67959,44.02935],[0.67709,44.02697],[0.67074,44.02678],[0.66264,44.02411],[0.65234,44.03312],[0.654,44.03365],[0.65559,44.03691],[0.6534,44.03724],[0.65491,44.04167],[0.65408,44.04243],[0.64927,44.04457],[0.6436,44.04389],[0.63773,44.04854],[0.63857,44.04977],[0.63165,44.0495],[0.63069,44.05158],[0.63134,44.05569],[0.62789,44.06063],[0.62031,44.06596],[0.61191,44.06921],[0.60735,44.06955],[0.60743,44.07095],[0.60512,44.07294],[0.59921,44.07487],[0.60122,44.07801],[0.59376,44.07929],[0.5907,44.07686],[0.58591,44.07702],[0.5857,44.07525],[0.5826,44.07641],[0.57588,44.07591],[0.57839,44.07319],[0.57501,44.07139],[0.56692,44.06033],[0.55831,44.05813],[0.55547,44.05475],[0.5515,44.05596],[0.54231,44.05621],[0.53843,44.05295],[0.53055,44.0576],[0.52676,44.05673],[0.52108,44.05718],[0.51214,44.0633],[0.50605,44.05613],[0.50594,44.05185],[0.50369,44.05159],[0.50409,44.05335],[0.50233,44.05751],[0.49565,44.05776],[0.48975,44.05646],[0.48522,44.05791],[0.4856,44.05364],[0.48406,44.05272],[0.4758,44.05515],[0.45952,44.05524],[0.45822,44.05229],[0.45696,44.0526],[0.45344,44.04787],[0.45125,44.04682],[0.45015,44.04361],[0.44504,44.03943],[0.44387,44.0349],[0.44236,44.0336],[0.44365,44.03074],[0.44245,44.02876],[0.43313,44.02928],[0.425,44.02613],[0.41722,44.0295],[0.41454,44.02752],[0.41119,44.02068],[0.40231,44.0228],[0.39687,44.02231],[0.39725,44.0199],[0.39108,44.01982],[0.39117,44.01686],[0.38152,44.00638],[0.37137,44.00816],[0.36794,44.01003],[0.36491,44.01515],[0.3581,44.01701],[0.35335,44.01536],[0.35432,44.01263],[0.35092,44.01356],[0.34433,44.01282],[0.32706,44.00734],[0.32079,44.00821],[0.31653,44.01012],[0.31372,44.00867],[0.31463,44.00783],[0.31421,44.00531],[0.31613,44.00408],[0.31584,44.00313],[0.3195,43.9986],[0.3177,43.99461],[0.31342,43.99575],[0.31353,43.99422],[0.31224,43.9937],[0.30906,43.99549],[0.30374,43.99265],[0.30285,43.99098],[0.28053,43.99853],[0.27347,43.99882],[0.27004,44.00357],[0.26808,44.00286],[0.26311,44.00426],[0.25724,44.00784],[0.25606,44.008],[0.25344,44.0025],[0.24499,44.00641],[0.2427,44.00613],[0.23338,44.00889],[0.22968,44.01112],[0.23506,44.01784],[0.23399,44.0216],[0.23138,44.0228],[0.22471,44.01917],[0.21404,44.02299],[0.21135,44.0196],[0.20587,44.02102],[0.2041,44.01829],[0.2038,44.01594],[0.20489,44.01539],[0.20281,44.01265],[0.19788,44.01606],[0.1946,44.01353],[0.18958,44.01464],[0.1835,44.00836],[0.18035,44.00055],[0.17662,44.00175],[0.16471,43.99499],[0.1664,43.98423],[0.16591,43.98088],[0.16348,43.97593],[0.16098,43.9757],[0.16103,43.97435],[0.15754,43.97284],[0.14312,43.97531],[0.13864,43.97477],[0.13794,43.97688],[0.14166,43.99424],[0.13861,43.99755],[0.12679,44.00191],[0.1264,44.00034],[0.12808,43.99893],[0.12642,43.9965],[0.12004,43.9954],[0.11758,43.99134],[0.11875,43.99009],[0.11682,43.98804],[0.11432,43.98813],[0.10511,43.98457],[0.09457,43.98598],[0.08873,43.9856],[0.07974,43.98118],[0.07628,43.98202],[0.07605,43.98314],[0.07381,43.98242],[0.0725,43.98095],[0.07493,43.97961],[0.06711,43.9736],[0.06595,43.96971],[0.06762,43.96708],[0.06633,43.96472],[0.06102,43.96523],[0.06114,43.96257],[0.05941,43.96137],[0.05555,43.96144],[0.05497,43.95696],[0.05644,43.95466],[0.05567,43.95333],[0.05683,43.94926],[0.05853,43.95006],[0.06064,43.94893],[0.06039,43.94744],[0.06335,43.94357],[0.06236,43.94127],[0.06855,43.93891],[0.07277,43.92819],[0.07255,43.92089],[0.07448,43.91769],[0.07665,43.91647],[0.07657,43.91521],[0.07248,43.91436],[0.07221,43.91013],[0.0698,43.90985],[0.06926,43.90436],[0.06183,43.90164],[0.05955,43.89943],[0.05902,43.89681],[0.04063,43.90378],[0.03749,43.90304],[0.03449,43.89996],[0.03079,43.90056],[0.0225,43.90868],[0.01722,43.91032],[0.01766,43.91169],[0.00401,43.91676],[-0.00606,43.92389],[-0.01472,43.92416],[-0.01813,43.92666],[-0.01863,43.92854],[-0.0239,43.92984],[-0.02026,43.93002],[-0.01536,43.93415],[-0.01123,43.93508],[-0.00968,43.93842],[-0.00773,43.93958],[-0.00314,43.94016],[0.00186,43.94292],[0.00551,43.9435],[0.00673,43.95374],[0.00549,43.95664],[0.00145,43.95989],[-0.01868,43.97069],[-0.03617,43.98374],[-0.04057,43.96947],[-0.0436,43.96571],[-0.04401,43.96283],[-0.04692,43.96082],[-0.05936,43.96094],[-0.06222,43.9584],[-0.06326,43.9554],[-0.06908,43.95104],[-0.07025,43.94494],[-0.07735,43.94461],[-0.08114,43.94258],[-0.08899,43.94899],[-0.09336,43.9485],[-0.09442,43.94528],[-0.0977,43.94261],[-0.09925,43.93622],[-0.09937,43.93485],[-0.09389,43.933],[-0.09524,43.92946],[-0.10256,43.92728],[-0.10818,43.92914],[-0.10859,43.93129],[-0.1077,43.93261],[-0.11547,43.93637],[-0.12031,43.94152],[-0.12468,43.94435],[-0.12736,43.94232],[-0.12661,43.94085],[-0.13468,43.93774],[-0.13582,43.93607],[-0.1464,43.93946],[-0.15347,43.93981],[-0.15392,43.93233],[-0.16066,43.93119],[-0.1598,43.92771],[-0.16562,43.92761],[-0.17209,43.93167],[-0.17225,43.93299],[-0.17597,43.93647],[-0.17911,43.93792],[-0.1809,43.93477],[-0.18107,43.93042],[-0.19203,43.92618],[-0.19205,43.92347],[-0.19781,43.91996],[-0.20009,43.91483],[-0.20557,43.91201],[-0.20967,43.91173],[-0.21774,43.90679],[-0.22026,43.90726],[-0.22148,43.91255],[-0.22458,43.91384],[-0.22539,43.91214],[-0.22834,43.91145],[-0.2298,43.90773],[-0.2311,43.9076],[-0.23115,43.90288],[-0.23337,43.90265],[-0.23337,43.89914],[-0.23934,43.89828],[-0.23906,43.89723],[-0.23465,43.89553],[-0.23856,43.89479],[-0.23848,43.8938],[-0.23394,43.89107],[-0.22668,43.89015],[-0.22246,43.89266],[-0.22231,43.89417],[-0.21886,43.89195],[-0.21891,43.89055],[-0.21131,43.88724],[-0.21128,43.88527],[-0.20123,43.88547],[-0.20128,43.88421],[-0.19554,43.88274],[-0.19519,43.88115],[-0.19049,43.88075],[-0.19197,43.87669],[-0.18932,43.87396],[-0.18852,43.86992],[-0.18629,43.86885],[-0.18572,43.86689],[-0.18676,43.86623],[-0.18556,43.86301],[-0.18726,43.86185],[-0.18941,43.8627],[-0.19216,43.87049],[-0.19641,43.87162],[-0.19847,43.8676],[-0.19601,43.86653],[-0.19572,43.86531],[-0.19856,43.86242],[-0.20891,43.85767],[-0.2073,43.85469],[-0.20178,43.85211],[-0.19965,43.8478],[-0.19597,43.84595],[-0.19102,43.83484],[-0.18813,43.83256],[-0.18948,43.83065],[-0.19726,43.83079],[-0.19812,43.82937],[-0.19639,43.82076],[-0.19202,43.8177],[-0.19365,43.81623],[-0.19177,43.8101],[-0.19458,43.81018],[-0.19449,43.80846],[-0.20082,43.80671],[-0.20246,43.80864],[-0.21263,43.80928],[-0.2138,43.81181],[-0.216,43.81254],[-0.21751,43.80993],[-0.22714,43.80827],[-0.22685,43.80472],[-0.22474,43.80324],[-0.22434,43.80118],[-0.2178,43.79817],[-0.22228,43.78933],[-0.22196,43.78759],[-0.21486,43.78307],[-0.21476,43.7805],[-0.21281,43.77879],[-0.21322,43.7763],[-0.2173,43.77149],[-0.2166,43.77002],[-0.2124,43.7688],[-0.21053,43.76164],[-0.20707,43.76046],[-0.2067,43.75921],[-0.2075,43.75608],[-0.21216,43.75625],[-0.2181,43.75417],[-0.21927,43.75248],[-0.21886,43.75033],[-0.20549,43.74995],[-0.19732,43.74766],[-0.19556,43.74576],[-0.19595,43.74022],[-0.19414,43.73702],[-0.20091,43.7343],[-0.20241,43.73291],[-0.20227,43.72972],[-0.21085,43.72426],[-0.21411,43.72369],[-0.22945,43.7147],[-0.23451,43.71409],[-0.24036,43.7117],[-0.24325,43.71222],[-0.2446,43.71052],[-0.24665,43.71067],[-0.25063,43.70779],[-0.24504,43.70502],[-0.2454,43.70326],[-0.24351,43.70142],[-0.24504,43.69926],[-0.24124,43.69719],[-0.2391,43.69395],[-0.23942,43.69282],[-0.24277,43.69116],[-0.24461,43.68775],[-0.24685,43.68931],[-0.24819,43.68869],[-0.24824,43.68568],[-0.25201,43.68379],[-0.25682,43.68319],[-0.25599,43.6755],[-0.25802,43.67375],[-0.24576,43.67119],[-0.23973,43.67124],[-0.24466,43.66455],[-0.24346,43.65953],[-0.24552,43.65868],[-0.24423,43.6574],[-0.243,43.65783],[-0.24214,43.65506],[-0.24787,43.65547],[-0.25635,43.65231],[-0.26075,43.65366],[-0.26338,43.65278],[-0.26426,43.65163],[-0.26103,43.64901],[-0.26322,43.64652],[-0.26376,43.63592],[-0.27382,43.63917],[-0.28131,43.64295],[-0.28104,43.63046],[-0.27933,43.62886],[-0.28102,43.62687],[-0.2796,43.61818],[-0.27764,43.61589],[-0.26987,43.61674],[-0.26138,43.61671],[-0.25531,43.61546],[-0.2472,43.61595],[-0.24869,43.61006],[-0.24759,43.60693],[-0.25475,43.59929],[-0.25465,43.59708],[-0.24817,43.59666],[-0.24752,43.59019],[-0.24369,43.58883],[-0.24233,43.58342],[-0.23821,43.58266],[-0.23503,43.58335],[-0.23327,43.58448],[-0.23307,43.58863],[-0.22937,43.59007],[-0.21837,43.59089],[-0.21061,43.59324],[-0.20842,43.59135],[-0.20474,43.5836],[-0.19861,43.58652],[-0.19056,43.58783],[-0.18995,43.58983],[-0.18687,43.59015],[-0.18202,43.59279],[-0.17877,43.59637],[-0.17656,43.59683],[-0.17491,43.59424],[-0.17005,43.59081],[-0.1699,43.58887],[-0.16645,43.5862],[-0.16456,43.58274],[-0.16045,43.58057],[-0.15782,43.58145],[-0.15622,43.58449],[-0.1481,43.58579],[-0.13935,43.5828],[-0.13819,43.57989],[-0.13233,43.58192],[-0.12891,43.58122],[-0.12822,43.58313],[-0.12309,43.58481],[-0.12146,43.58422],[-0.12163,43.58678],[-0.11065,43.58346],[-0.10835,43.58176],[-0.09678,43.58241],[-0.09605,43.57792],[-0.09472,43.57695],[-0.09601,43.57522],[-0.09415,43.57211],[-0.09136,43.57041],[-0.09119,43.56811],[-0.09356,43.56371],[-0.09003,43.56072],[-0.08894,43.5572],[-0.09497,43.54814],[-0.09411,43.54393],[-0.08867,43.54205],[-0.08182,43.54464],[-0.08062,43.54688],[-0.06844,43.54708],[-0.06599,43.54813],[-0.06437,43.54627],[-0.06393,43.54295],[-0.06572,43.54134],[-0.06068,43.54212],[-0.05598,43.5329],[-0.0543,43.53297],[-0.05232,43.52973],[-0.04923,43.52975],[-0.04796,43.5259],[-0.04465,43.5253],[-0.04347,43.52033],[-0.04457,43.51864],[-0.04385,43.51577],[-0.04013,43.51261],[-0.04409,43.50658],[-0.04957,43.49192],[-0.04399,43.48961],[-0.03491,43.48854],[-0.03352,43.47993],[-0.03472,43.47494],[-0.029,43.4733],[-0.02639,43.47485],[-0.02634,43.47341],[-0.01782,43.47215],[-0.01891,43.47005],[-0.01909,43.46505],[-0.02603,43.46599],[-0.02633,43.46684],[-0.0304,43.46674],[-0.04243,43.46443],[-0.04532,43.4655],[-0.05839,43.46467],[-0.06131,43.46214],[-0.06303,43.46346],[-0.06575,43.46348],[-0.06638,43.46068],[-0.06148,43.45408],[-0.06167,43.45245],[-0.06682,43.44383],[-0.06618,43.44042],[-0.07074,43.43528],[-0.0696,43.43297],[-0.05815,43.42794],[-0.05658,43.42419],[-0.05358,43.42304],[-0.05078,43.41959],[-0.06231,43.4178],[-0.06727,43.41042],[-0.0647,43.40934],[-0.05708,43.41189],[-0.05288,43.41202],[-0.04649,43.40977],[-0.04298,43.4102],[-0.04288,43.41368],[-0.04165,43.41533],[-0.03936,43.41527],[-0.03849,43.41652],[-0.03933,43.41758],[-0.03772,43.4191],[-0.0388,43.41979],[-0.03586,43.42202],[-0.03593,43.42369],[-0.03307,43.42815],[-0.03459,43.42906],[-0.0337,43.43269],[-0.03218,43.43371],[-0.02481,43.43003],[-0.02223,43.43334],[-0.02204,43.43649],[-0.01727,43.44109],[-0.01653,43.44395],[-0.01285,43.44311],[-0.00248,43.44508],[-0.00075,43.44194],[-0.00084,43.43972],[-0.00479,43.43162],[0.00966,43.4222],[0.00657,43.41709],[0.00666,43.41345],[-0.00119,43.40571],[-0.00187,43.39922],[-0.00381,43.39805],[-0.0004,43.39633],[-0.00443,43.39512],[-0.00429,43.39337],[0.00123,43.39577],[0.00495,43.39378],[-0.0019,43.38729],[0.00088,43.38551],[0.00102,43.3837],[-0.00408,43.37878],[-0.00578,43.37302],[0.00154,43.36894],[0.00494,43.37176],[0.00823,43.36846],[0.0084,43.36702],[0.00564,43.36358],[0.00838,43.3613],[0.01215,43.36008],[0.01476,43.35576],[0.02123,43.34968],[0.02602,43.34865],[0.0295,43.34615],[0.02418,43.33862],[0.01724,43.33334],[0.01032,43.32532],[0.00686,43.32574],[0.007,43.32683],[0.00135,43.33077],[-0.00325,43.33211],[-0.0181,43.33153],[-0.0215,43.32872],[-0.02537,43.32962],[-0.02882,43.32023],[-0.0292,43.31585],[-0.03266,43.3111],[-0.03626,43.30869],[-0.03775,43.30585],[-0.04077,43.30426],[-0.04392,43.30446],[-0.04612,43.30086],[-0.04327,43.2866],[-0.04439,43.28528],[-0.03476,43.28165],[-0.02397,43.28021],[-0.02708,43.27591],[-0.02321,43.27456],[-0.0177,43.27458],[-0.01701,43.27045],[-0.02563,43.26099],[-0.02356,43.25541],[-0.0243,43.25396],[-0.03156,43.24759],[-0.03418,43.24664],[-0.03542,43.24526],[-0.03505,43.24387],[-0.03688,43.24342],[-0.04582,43.23261],[-0.04468,43.22737],[-0.04946,43.21718],[-0.0623,43.22248],[-0.07253,43.22439],[-0.07397,43.22238],[-0.0716,43.21982],[-0.07287,43.20821],[-0.0712,43.20686],[-0.06867,43.19713],[-0.0716,43.19222],[-0.06846,43.18277],[-0.06787,43.17712],[-0.08844,43.17623],[-0.09125,43.17733],[-0.09549,43.17719],[-0.09753,43.16662],[-0.10595,43.16653],[-0.1064,43.17174],[-0.11133,43.17934],[-0.1177,43.18033],[-0.1186,43.17674],[-0.12041,43.17578],[-0.12526,43.16643],[-0.12688,43.1654],[-0.12625,43.15766],[-0.12929,43.15724],[-0.13206,43.15362],[-0.1386,43.14911],[-0.13931,43.14616],[-0.13828,43.14371],[-0.14288,43.1432],[-0.14104,43.13587],[-0.14613,43.12824],[-0.148,43.12887],[-0.15511,43.12515],[-0.15577,43.12325],[-0.1574,43.12253],[-0.16635,43.12188],[-0.17038,43.1186],[-0.17094,43.117],[-0.1691,43.11425],[-0.17394,43.11235],[-0.17501,43.11012],[-0.18341,43.1122],[-0.1847,43.11401],[-0.19384,43.11502],[-0.19098,43.1112],[-0.19161,43.10561],[-0.19511,43.1044],[-0.19795,43.10187],[-0.19768,43.09817],[-0.19508,43.09481],[-0.18672,43.09187],[-0.18807,43.08776],[-0.18644,43.08427],[-0.1891,43.08239],[-0.19264,43.076],[-0.19614,43.07444],[-0.19922,43.06779],[-0.19915,43.06441],[-0.1962,43.05969],[-0.19232,43.05687],[-0.18556,43.05661],[-0.18156,43.05254],[-0.18965,43.05202],[-0.19619,43.04751],[-0.20011,43.0427],[-0.20949,43.04167],[-0.21424,43.03638],[-0.22395,43.03369],[-0.23011,43.03736],[-0.23942,43.03968],[-0.25266,43.03938],[-0.25818,43.03816],[-0.26062,43.03595],[-0.26007,43.03466],[-0.2611,43.03278],[-0.25855,43.03203],[-0.25617,43.0293],[-0.25653,43.0278],[-0.25536,43.02625],[-0.25607,43.02273],[-0.25912,43.0195],[-0.25967,43.01368],[-0.26662,43.00856],[-0.27078,43.00811],[-0.27596,43.00588],[-0.28724,43.00592],[-0.28949,42.99672],[-0.29324,42.99273],[-0.29131,42.9894],[-0.29241,42.98748],[-0.29048,42.98424],[-0.28984,42.97921],[-0.29124,42.97652],[-0.28727,42.96703],[-0.28841,42.96605],[-0.28869,42.96275],[-0.2902,42.96226],[-0.29073,42.9605],[-0.28603,42.95678],[-0.28374,42.95621],[-0.28191,42.95094],[-0.28205,42.94823],[-0.27914,42.93921],[-0.28159,42.93356],[-0.28656,42.92939],[-0.29003,42.92909],[-0.29778,42.93097],[-0.30344,42.92729],[-0.308,42.92646],[-0.31075,42.919],[-0.31508,42.91756],[-0.32075,42.91805],[-0.32717,42.9165],[-0.32406,42.90698],[-0.32529,42.90439],[-0.32032,42.90004],[-0.32064,42.89883],[-0.31625,42.89659],[-0.31544,42.889],[-0.31717,42.88676],[-0.31507,42.88347],[-0.31587,42.88223],[-0.30904,42.87451],[-0.30707,42.86997],[-0.30705,42.86818],[-0.30913,42.86704],[-0.31112,42.86181],[-0.30997,42.85513],[-0.31086,42.85314],[-0.31474,42.84687],[-0.31995,42.84247],[-0.32165,42.83689],[-0.32402,42.83498],[-0.32956,42.83436],[-0.33154,42.83507],[-0.33351,42.83804],[-0.34175,42.83627],[-0.34401,42.83775],[-0.34714,42.83773],[-0.3486,42.83476],[-0.35505,42.83104],[-0.35625,42.82944],[-0.35545,42.82789],[-0.35911,42.82497],[-0.36039,42.82205],[-0.36433,42.81993],[-0.36473,42.8164],[-0.36798,42.81384],[-0.37527,42.81165],[-0.38297,42.80718],[-0.38337,42.801],[-0.39494,42.79892],[-0.39676,42.80113],[-0.40084,42.80211],[-0.40723,42.80551],[-0.40924,42.80775],[-0.41892,42.80567],[-0.4334,42.79857],[-0.43956,42.79692],[-0.44064,42.79545],[-0.44348,42.79592],[-0.45178,42.80359],[-0.46117,42.80421],[-0.46922,42.8078],[-0.47823,42.8095],[-0.47942,42.81262],[-0.48216,42.81508],[-0.48553,42.81653],[-0.49227,42.81681],[-0.49851,42.8208],[-0.49951,42.82648],[-0.5011,42.82784],[-0.51035,42.82526],[-0.51327,42.82217],[-0.51384,42.81891],[-0.51885,42.81748],[-0.51891,42.81603],[-0.52429,42.81216],[-0.52577,42.80862],[-0.52288,42.79905],[-0.52973,42.79153],[-0.54053,42.7935],[-0.54381,42.79316],[-0.5512,42.77752],[-0.55466,42.77941],[-0.56693,42.78053],[-0.5706,42.78291],[-0.56982,42.78474],[-0.57059,42.79048],[-0.56472,42.79802],[-0.56602,42.80379],[-0.56886,42.80682],[-0.57682,42.80815],[-0.58422,42.80445],[-0.58712,42.80492],[-0.59055,42.80266],[-0.60076,42.80631],[-0.59963,42.81309],[-0.59838,42.81398],[-0.5987,42.81658],[-0.60205,42.82023],[-0.60277,42.8249],[-0.60416,42.82581],[-0.60422,42.8281],[-0.60097,42.8294],[-0.60363,42.83262],[-0.60925,42.83496],[-0.61509,42.83565],[-0.61956,42.83801],[-0.63021,42.84696],[-0.63294,42.85135],[-0.63616,42.85324],[-0.64228,42.85336],[-0.65506,42.8581],[-0.66146,42.86378],[-0.66176,42.86855],[-0.66574,42.87344],[-0.6662,42.8755],[-0.67562,42.88006],[-0.6763,42.8826],[-0.67841,42.8844],[-0.67986,42.88301],[-0.68665,42.88278],[-0.69497,42.87905],[-0.69888,42.87876],[-0.70025,42.88157],[-0.7053,42.88453],[-0.70964,42.88432],[-0.71192,42.88579],[-0.71814,42.88638],[-0.7273,42.89325],[-0.72776,42.89626],[-0.73185,42.89605],[-0.73311,42.898],[-0.73046,42.90001],[-0.73231,42.90045],[-0.73169,42.90389],[-0.73461,42.90696],[-0.7335,42.90934],[-0.73644,42.913],[-0.72997,42.91719],[-0.72443,42.91882],[-0.72512,42.92146],[-0.72405,42.92234],[-0.73251,42.92841],[-0.73247,42.9313],[-0.73395,42.93383],[-0.73089,42.93869],[-0.73425,42.93985],[-0.73057,42.94549],[-0.73925,42.94764],[-0.74356,42.9518],[-0.74438,42.95687],[-0.75296,42.96771],[-0.75638,42.96843],[-0.75969,42.9673],[-0.76799,42.96878],[-0.77156,42.96558],[-0.79018,42.96384],[-0.7942,42.96107],[-0.80005,42.95896],[-0.81002,42.95143],[-0.81477,42.95104],[-0.82231,42.9511],[-0.83745,42.95426],[-0.83999,42.95262],[-0.84518,42.95234],[-0.84599,42.95137],[-0.85161,42.95198],[-0.86503,42.95078],[-0.87536,42.95489],[-0.87822,42.95446],[-0.88394,42.95592],[-0.89743,42.95571],[-0.89751,42.95967],[-0.89877,42.96125],[-0.90757,42.96428],[-0.91418,42.96378],[-0.92001,42.9582],[-0.9199,42.95619],[-0.92559,42.9539],[-0.93472,42.95264],[-0.94012,42.95374],[-0.94383,42.95319],[-0.9568,42.95943],[-0.97227,42.96203],[-0.97519,42.96379],[-0.97783,42.96827],[-0.98133,42.97073],[-0.9975,42.97569],[-1.00051,42.97795],[-1.00217,42.98259],[-1.00523,42.98556],[-1.00644,42.98899],[-1.01047,42.99189],[-1.01613,42.99303],[-1.01659,42.99468],[-1.02588,42.99196],[-1.0334,42.99476],[-1.05069,42.99672],[-1.059,42.99597],[-1.07418,42.99861],[-1.08306,43.00168],[-1.08523,43.00341],[-1.0845,43.00535],[-1.08563,43.00663],[-1.08357,43.01088],[-1.09187,43.01128],[-1.10296,43.01539],[-1.11471,43.02386],[-1.12278,43.0157],[-1.12894,43.01392],[-1.13345,43.01037],[-1.13415,43.00856],[-1.13973,43.00984],[-1.14095,43.00763],[-1.14221,43.00798],[-1.14457,43.01317],[-1.1444,43.02353],[-1.15181,43.02717],[-1.15288,43.02893],[-1.16053,43.03154],[-1.1641,43.03486],[-1.17366,43.03758],[-1.17463,43.03457],[-1.18072,43.03253],[-1.20862,43.04764],[-1.21241,43.05126],[-1.23016,43.05538],[-1.24719,43.04242],[-1.26298,43.04339],[-1.27054,43.05472],[-1.27496,43.05571],[-1.2879,43.06367],[-1.29542,43.0642],[-1.2968,43.06649],[-1.30203,43.06745],[-1.30275,43.06842],[-1.30559,43.06756],[-1.30928,43.06865],[-1.30859,43.0726],[-1.30502,43.07861],[-1.30585,43.08003],[-1.30331,43.08471],[-1.30187,43.08547],[-1.30211,43.08717],[-1.29712,43.09531],[-1.29536,43.09559],[-1.29267,43.10014],[-1.29018,43.10126],[-1.28904,43.104],[-1.28659,43.10412],[-1.2825,43.10862],[-1.27057,43.11689],[-1.27019,43.11857],[-1.28038,43.11847],[-1.28932,43.11575],[-1.30704,43.11495],[-1.31071,43.11357],[-1.32061,43.11275],[-1.33225,43.10778],[-1.33437,43.10221],[-1.33847,43.10086],[-1.33964,43.09802],[-1.34511,43.09402],[-1.34607,43.09057],[-1.34489,43.08718],[-1.34026,43.08085],[-1.34195,43.07835],[-1.34173,43.07592],[-1.34413,43.07279],[-1.34365,43.0628],[-1.34536,43.05666],[-1.34289,43.05449],[-1.3537,43.02824],[-1.44122,43.04631],[-1.46893,43.07745],[-1.47174,43.08109],[-1.47321,43.08676],[-1.47087,43.09171],[-1.46423,43.09753],[-1.45362,43.10073],[-1.451,43.10419],[-1.44071,43.10769],[-1.44315,43.11153],[-1.43815,43.11224],[-1.43385,43.11505],[-1.42726,43.11688],[-1.42704,43.12113],[-1.42413,43.12497],[-1.4212,43.12511],[-1.4192,43.12675],[-1.41478,43.12789],[-1.41398,43.12967],[-1.41488,43.13049],[-1.41501,43.13554],[-1.40962,43.14275],[-1.41614,43.14874],[-1.41044,43.15403],[-1.40722,43.15562],[-1.40224,43.15566],[-1.40433,43.16361],[-1.40298,43.16657],[-1.40363,43.17209],[-1.40202,43.17787],[-1.39861,43.18159],[-1.39054,43.1865],[-1.38347,43.18755],[-1.38174,43.18963],[-1.38488,43.19151],[-1.38652,43.19402],[-1.38655,43.19565],[-1.38306,43.19988],[-1.38324,43.20364],[-1.38514,43.20663],[-1.38487,43.20921],[-1.38408,43.2113],[-1.38045,43.2144],[-1.38253,43.2161],[-1.38433,43.22121],[-1.37779,43.23013],[-1.38181,43.24432],[-1.38266,43.25303],[-1.38702,43.25591],[-1.38854,43.25856],[-1.40074,43.2663],[-1.40512,43.27044],[-1.41321,43.27342],[-1.41647,43.27253],[-1.42059,43.26917],[-1.42753,43.26699],[-1.43885,43.26652],[-1.4535,43.27112],[-1.4659,43.27228],[-1.47813,43.27741],[-1.48261,43.28284],[-1.49189,43.28042],[-1.49542,43.28273],[-1.49867,43.28716],[-1.50117,43.28757],[-1.50586,43.29328],[-1.51533,43.2939],[-1.52495,43.29311],[-1.53532,43.29464],[-1.53964,43.29126],[-1.54359,43.29212],[-1.55182,43.29169],[-1.56472,43.28791],[-1.56399,43.28514],[-1.55981,43.2838],[-1.5574,43.27979],[-1.55815,43.27693],[-1.56026,43.27531],[-1.56045,43.27265],[-1.56459,43.26701],[-1.56916,43.25559],[-1.57661,43.24988],[-1.58083,43.25324],[-1.58551,43.25227],[-1.59788,43.25463],[-1.60867,43.25191],[-1.61045,43.25459],[-1.61422,43.25559],[-1.61778,43.25825],[-1.61744,43.25963],[-1.62241,43.26395],[-1.62379,43.27085],[-1.62563,43.27078],[-1.62691,43.27709],[-1.63037,43.28445],[-1.62742,43.29415],[-1.6226,43.30062],[-1.62254,43.30329],[-1.62407,43.30607],[-1.63543,43.30905],[-1.64529,43.30677],[-1.65255,43.31012],[-1.65486,43.31264],[-1.66853,43.31486],[-1.67419,43.31178],[-1.67988,43.31022],[-1.68305,43.31052],[-1.68573,43.30907],[-1.69471,43.31221],[-1.69982,43.30955],[-1.70313,43.3092],[-1.70875,43.30554],[-1.7097,43.30311],[-1.71352,43.30032],[-1.72338,43.30001],[-1.72975,43.29568],[-1.73333,43.30226],[-1.73554,43.31035],[-1.73955,43.3111],[-1.74011,43.31211],[-1.73757,43.31365],[-1.74135,43.31675],[-1.73824,43.32007],[-1.73691,43.32399],[-1.73818,43.32543],[-1.73771,43.3304],[-1.74045,43.33162],[-1.7492,43.33139],[-1.7523,43.33353],[-1.75272,43.33501],[-1.75149,43.33608],[-1.75268,43.34086],[-1.75771,43.34401],[-1.77151,43.34261],[-1.77667,43.3449],[-1.77698,43.34768],[-1.77794,43.34823],[-1.7838,43.349],[-1.78713,43.35137],[-1.78923,43.35462],[-1.78858,43.35679],[-1.78291,43.36204],[-1.7884,43.36436],[-1.79235,43.3706],[-1.78875,43.37838],[-1.78683,43.37805],[-1.78897,43.37406],[-1.77464,43.37299],[-1.76222,43.3757],[-1.75548,43.37915],[-1.75541,43.37994],[-1.75829,43.38003],[-1.75815,43.38113],[-1.7563,43.38309],[-1.75686,43.3841],[-1.75351,43.3848],[-1.75225,43.3871],[-1.74744,43.38719],[-1.74871,43.38323],[-1.74412,43.38379],[-1.73984,43.38089],[-1.72991,43.38282],[-1.72344,43.3859],[-1.71132,43.38854],[-1.70769,43.39073],[-1.68209,43.39755],[-1.6814,43.39672],[-1.68314,43.39207],[-1.68146,43.39004],[-1.67458,43.3899],[-1.66977,43.38804],[-1.66553,43.38932],[-1.66074,43.39341],[-1.66135,43.39694],[-1.66423,43.39662],[-1.66636,43.39988],[-1.66312,43.4012],[-1.66173,43.40383],[-1.65903,43.40383],[-1.65802,43.40544],[-1.65054,43.40719],[-1.64879,43.40513],[-1.64583,43.4052],[-1.63911,43.40836],[-1.63792,43.40998],[-1.63998,43.41009],[-1.63885,43.41283],[-1.63498,43.41405],[-1.63205,43.41275],[-1.62882,43.41351],[-1.62831,43.41519],[-1.63107,43.41658],[-1.62969,43.41821],[-1.62625,43.41751],[-1.62473,43.41892],[-1.62584,43.42262],[-1.62056,43.42317],[-1.62059,43.42469],[-1.61773,43.42723],[-1.60973,43.42674],[-1.60894,43.4297],[-1.60751,43.4307],[-1.60453,43.43039],[-1.597,43.43805],[-1.59806,43.43909],[-1.59545,43.44008],[-1.59659,43.44221],[-1.59489,43.44835],[-1.58953,43.44975],[-1.58762,43.45161],[-1.58241,43.45897],[-1.58347,43.46001],[-1.57902,43.46395],[-1.57749,43.46414],[-1.57691,43.46578],[-1.57827,43.46668],[-1.57723,43.46865],[-1.57422,43.46898],[-1.57007,43.47471],[-1.56791,43.47943],[-1.57128,43.48169],[-1.56941,43.48262],[-1.56921,43.48416],[-1.56104,43.48521],[-1.55436,43.49012],[-1.55351,43.49218],[-1.55548,43.49279],[-1.55576,43.49449],[-1.55132,43.4937],[-1.54807,43.49597],[-1.52994,43.51913],[-1.52487,43.5297],[-1.5204,43.53445],[-1.50703,43.55497],[-1.49192,43.57232],[-1.47562,43.59661],[-1.46002,43.6203],[-1.4482,43.64228],[-1.44544,43.6534],[-1.44648,43.6562],[-1.44183,43.66614],[-1.43941,43.69744],[-1.41998,43.77265],[-1.41553,43.78298],[-1.40683,43.81458],[-1.40355,43.82185],[-1.40378,43.8245],[-1.39465,43.85165],[-1.38891,43.85837],[-1.39138,43.85897],[-1.38983,43.86631],[-1.38172,43.88982],[-1.36293,43.95843],[-1.36005,43.97213],[-1.35773,43.97706],[-1.35264,43.99835],[-1.34901,44.00735],[-1.34785,44.01675],[-1.3392,44.04964],[-1.33262,44.06837],[-1.33286,44.07021],[-1.32717,44.08838],[-1.32587,44.0894],[-1.32707,44.09194],[-1.31598,44.13004],[-1.3104,44.15725],[-1.30648,44.17062],[-1.29946,44.21017],[-1.29797,44.21256],[-1.29798,44.21773],[-1.29405,44.23846],[-1.27738,44.31965],[-1.26628,44.38235],[-1.25483,44.45729],[-1.25359,44.47631],[-1.2514,44.48889],[-1.25068,44.50598],[-1.25192,44.50879],[-1.25173,44.51486],[-1.25664,44.53246],[-1.26028,44.53951],[-1.26019,44.54317],[-1.25861,44.54713],[-1.25265,44.55043],[-1.24099,44.56106],[-1.23769,44.56566],[-1.23168,44.56937],[-1.23108,44.57222],[-1.22252,44.58248],[-1.21214,44.59951],[-1.20489,44.61438],[-1.20351,44.62271],[-1.2048,44.63559],[-1.2042,44.64043],[-1.19826,44.64763],[-1.19524,44.65719],[-1.19154,44.66073],[-1.18035,44.66367],[-1.16353,44.66401],[-1.15343,44.66085],[-1.15347,44.66247],[-1.1524,44.66268],[-1.15171,44.66049],[-1.14939,44.65876],[-1.14517,44.65763],[-1.14412,44.65793],[-1.14446,44.65968],[-1.14229,44.65925],[-1.14402,44.6565],[-1.13959,44.65402],[-1.13998,44.65297],[-1.1469,44.65056],[-1.14791,44.64962],[-1.14713,44.6482],[-1.14948,44.64741],[-1.15189,44.64874],[-1.154,44.64705],[-1.15485,44.64437],[-1.14916,44.64002],[-1.14387,44.64004],[-1.14563,44.64524],[-1.1435,44.6466],[-1.13971,44.64744],[-1.12968,44.64639],[-1.12778,44.64753],[-1.11796,44.6467],[-1.11878,44.64465],[-1.11742,44.64302],[-1.11376,44.64506],[-1.10439,44.64354],[-1.1028,44.64625],[-1.09643,44.64437],[-1.09728,44.64286],[-1.09642,44.64211],[-1.08112,44.64019],[-1.07886,44.64142],[-1.078,44.64415],[-1.07628,44.64383],[-1.07652,44.64149],[-1.07358,44.6419],[-1.07493,44.64554],[-1.07055,44.644],[-1.06582,44.64618],[-1.06556,44.64718],[-1.05949,44.64582],[-1.05941,44.64452],[-1.05744,44.64412],[-1.05076,44.64428],[-1.05151,44.64862],[-1.04522,44.64784],[-1.04255,44.6506],[-1.04086,44.65044],[-1.04183,44.65246],[-1.03926,44.65378],[-1.03591,44.64874],[-1.02879,44.64787],[-1.02776,44.64512],[-1.02581,44.64351],[-1.02232,44.64423],[-1.02218,44.6421],[-1.01969,44.64271],[-1.02079,44.6475],[-1.01983,44.64852],[-1.01456,44.64997],[-1.01245,44.64837],[-1.01169,44.64943],[-1.00586,44.64784],[-1.00362,44.64836],[-1.00547,44.65217],[-1.00519,44.65417],[-1.01107,44.65638],[-1.01061,44.65927],[-1.01334,44.65865],[-1.01892,44.66444],[-1.01912,44.66601],[-1.01792,44.66681],[-1.01872,44.66976],[-1.02442,44.67567],[-1.01939,44.67821],[-1.0282,44.67673],[-1.03128,44.6798],[-1.03566,44.67823],[-1.04385,44.6811],[-1.04048,44.68272],[-1.04042,44.68412],[-1.03831,44.68576],[-1.04029,44.68606],[-1.04325,44.68377],[-1.0479,44.68345],[-1.05002,44.68204],[-1.05899,44.68758],[-1.05814,44.68905],[-1.06928,44.69624],[-1.0636,44.69736],[-1.05792,44.69411],[-1.05053,44.69522],[-1.04907,44.6926],[-1.03742,44.69232],[-1.03636,44.69356],[-1.03979,44.6959],[-1.04392,44.69644],[-1.04569,44.70081],[-1.05112,44.70196],[-1.05361,44.70359],[-1.05128,44.70578],[-1.05378,44.70751],[-1.05573,44.7074],[-1.05616,44.70955],[-1.05997,44.70972],[-1.06779,44.7138],[-1.07696,44.72173],[-1.08587,44.72602],[-1.09304,44.734],[-1.10167,44.74037],[-1.10667,44.74265],[-1.11049,44.74208],[-1.11309,44.74426],[-1.1182,44.74415],[-1.12258,44.75096],[-1.11615,44.75533],[-1.11719,44.75593],[-1.11896,44.75377],[-1.12204,44.75376],[-1.12629,44.75062],[-1.12776,44.7508],[-1.14312,44.76164],[-1.1469,44.76143],[-1.14939,44.76393],[-1.15117,44.7641],[-1.15101,44.76672],[-1.15589,44.76895],[-1.16193,44.7749],[-1.16284,44.7733],[-1.16478,44.77301],[-1.16581,44.77528],[-1.16756,44.77604],[-1.16905,44.77442],[-1.16857,44.77176],[-1.17051,44.77037],[-1.17149,44.76754],[-1.17464,44.76438],[-1.17807,44.7636],[-1.17886,44.76205],[-1.17796,44.75959],[-1.18001,44.7581],[-1.17811,44.75581],[-1.17572,44.75592],[-1.17374,44.75454],[-1.17405,44.75233],[-1.17219,44.75099],[-1.17456,44.74933],[-1.1728,44.7484],[-1.17381,44.74536],[-1.18202,44.74312],[-1.18584,44.73832],[-1.19007,44.73702],[-1.19173,44.73431],[-1.18982,44.73406],[-1.19078,44.73092],[-1.19462,44.72872],[-1.1976,44.72472],[-1.20448,44.72154],[-1.2053,44.7203],[-1.20438,44.71766],[-1.21935,44.71035],[-1.22256,44.71021],[-1.22426,44.70796],[-1.22196,44.70654],[-1.22727,44.70151],[-1.22886,44.69763],[-1.23262,44.69302],[-1.23258,44.68909],[-1.23742,44.68251],[-1.24015,44.66846],[-1.23894,44.65778],[-1.2398,44.65505],[-1.24487,44.6484],[-1.2462,44.64186],[-1.24567,44.63695],[-1.244,44.6366],[-1.24211,44.64138],[-1.24313,44.64251],[-1.24128,44.64334],[-1.2408,44.63998],[-1.24514,44.63128],[-1.24311,44.62883],[-1.24486,44.62544],[-1.24465,44.6231],[-1.24854,44.61875],[-1.25215,44.61773],[-1.25682,44.62114],[-1.26045,44.62567],[-1.26205,44.6322],[-1.26174,44.6477],[-1.25777,44.67778],[-1.22682,44.83979],[-1.20786,44.96224],[-1.19396,45.07025],[-1.19023,45.10761],[-1.16203,45.29969],[-1.15888,45.35759],[-1.16054,45.3861],[-1.16055,45.41069],[-1.15926,45.41762],[-1.15106,45.4416],[-1.15278,45.45964],[-1.15704,45.47037],[-1.15619,45.47611],[-1.15418,45.48176],[-1.1445,45.49588],[-1.13642,45.511],[-1.11882,45.52338],[-1.11371,45.52858],[-1.11236,45.53173],[-1.10928,45.53376],[-1.10608,45.53895],[-1.10138,45.53959],[-1.09649,45.55675],[-1.0912,45.56241],[-1.08766,45.56414],[-1.08604,45.56383],[-1.08588,45.5624],[-1.08266,45.56356],[-1.08358,45.56469],[-1.0789,45.56521],[-1.06195,45.5723],[-0.993,45.57718],[-0.99255,45.57926],[-0.98916,45.58134],[-0.989,45.58526],[-0.99365,45.59759],[-0.99682,45.59998],[-0.99978,45.60111],[-1.00248,45.59918],[-1.00809,45.59969],[-1.00797,45.59766],[-1.01303,45.59963],[-1.01533,45.60262],[-1.00885,45.60682],[-1.00963,45.61143],[-1.0125,45.61518],[-1.02219,45.62263],[-1.02546,45.62371],[-1.02832,45.62321],[-1.02732,45.61852],[-1.03074,45.61657],[-1.03271,45.61736],[-1.0324,45.61877],[-1.03469,45.61933],[-1.03646,45.61783],[-1.04324,45.61754],[-1.04257,45.62026],[-1.04611,45.62033],[-1.04691,45.62193],[-1.04943,45.62019],[-1.05315,45.62228],[-1.05136,45.62346],[-1.05109,45.62644],[-1.05448,45.62726],[-1.05704,45.62504],[-1.06233,45.62749],[-1.06478,45.63076],[-1.06667,45.63016],[-1.07029,45.63262],[-1.06976,45.63457],[-1.07519,45.63413],[-1.07659,45.63498],[-1.07669,45.63647],[-1.07492,45.63801],[-1.0794,45.63891],[-1.08093,45.6367],[-1.08347,45.63705],[-1.08723,45.63872],[-1.0863,45.64046],[-1.08801,45.64198],[-1.09089,45.63991],[-1.09505,45.63973],[-1.09738,45.64097],[-1.09943,45.6442],[-1.10187,45.64525],[-1.10683,45.64446],[-1.11055,45.64637],[-1.11531,45.6465],[-1.12506,45.65341],[-1.16156,45.67429],[-1.16577,45.67483],[-1.1745,45.67861],[-1.18196,45.68292],[-1.1825,45.68421],[-1.18587,45.68482],[-1.19605,45.69122],[-1.20183,45.69207],[-1.2014,45.69343],[-1.20932,45.6967],[-1.21429,45.69696],[-1.2275,45.6943],[-1.23034,45.69322],[-1.23089,45.69134],[-1.2243,45.6801],[-1.22109,45.67714],[-1.21682,45.67763],[-1.21604,45.67649],[-1.21868,45.67452],[-1.21291,45.67267],[-1.19912,45.67489],[-1.19597,45.67363],[-1.20781,45.67112],[-1.213,45.67105],[-1.22829,45.67506],[-1.23005,45.67707],[-1.23458,45.69361],[-1.23806,45.71191],[-1.24144,45.75816],[-1.24364,45.77011],[-1.24257,45.78157],[-1.23104,45.78893],[-1.22102,45.78963],[-1.20896,45.79575],[-1.20957,45.79409],[-1.19907,45.79448],[-1.19849,45.79246],[-1.20446,45.79271],[-1.19665,45.78972],[-1.192,45.78937],[-1.17495,45.79356],[-1.16441,45.79987],[-1.15905,45.80166],[-1.15543,45.80231],[-1.14909,45.79792],[-1.14504,45.79696],[-1.14037,45.79845],[-1.1337,45.80276],[-1.13209,45.80493],[-1.13289,45.80742],[-1.13427,45.80783],[-1.13554,45.81567],[-1.13965,45.82374],[-1.14197,45.82578],[-1.1435,45.82555],[-1.14686,45.82757],[-1.15238,45.8324],[-1.1494,45.83613],[-1.15269,45.8372],[-1.1533,45.83988],[-1.1552,45.84127],[-1.15467,45.84417],[-1.15543,45.84495],[-1.15817,45.84546],[-1.16022,45.84336],[-1.16436,45.84346],[-1.16807,45.84515],[-1.16731,45.84634],[-1.16817,45.8487],[-1.16373,45.85091],[-1.16488,45.85272],[-1.17069,45.85479],[-1.17024,45.85593],[-1.15732,45.85453],[-1.15277,45.85161],[-1.15118,45.85211],[-1.14976,45.85395],[-1.15182,45.857],[-1.15547,45.85873],[-1.15583,45.86147],[-1.15319,45.86236],[-1.14957,45.86121],[-1.13794,45.86076],[-1.13653,45.85878],[-1.13197,45.8591],[-1.12142,45.85641],[-1.11639,45.85935],[-1.11361,45.8593],[-1.11437,45.86099],[-1.11066,45.86254],[-1.10873,45.86756],[-1.10643,45.867],[-1.10088,45.87203],[-1.10127,45.87319],[-1.098,45.87951],[-1.09879,45.88182],[-1.07924,45.90124],[-1.07561,45.90725],[-1.07379,45.91423],[-1.07443,45.92565],[-1.07686,45.9367],[-1.09597,45.94201],[-1.09961,45.94438],[-1.09582,45.94891],[-1.06432,45.94991],[-1.06508,45.95588],[-1.07473,45.95838],[-1.08078,45.96324],[-1.08249,45.96589],[-1.08414,45.97993],[-1.08586,45.98149],[-1.09108,45.98148],[-1.09169,45.98394],[-1.09355,45.98464],[-1.09615,45.98389],[-1.09935,45.99068],[-1.10144,45.99093],[-1.10415,45.99395],[-1.10598,45.99444],[-1.10896,45.99867],[-1.11432,46.00157],[-1.11896,46.00151],[-1.12145,46.00297],[-1.11937,46.00389],[-1.11721,46.00242],[-1.11144,46.00202],[-1.10488,45.9965],[-1.09812,45.99594],[-1.09656,45.99243],[-1.09316,45.99182],[-1.08105,45.99655],[-1.06308,45.99443],[-1.05564,45.99934],[-1.05317,46.00338],[-1.05269,46.01118],[-1.05756,46.01676],[-1.06113,46.0253],[-1.06115,46.02885],[-1.05639,46.03034],[-1.05612,46.03422],[-1.06152,46.04527],[-1.06487,46.04905],[-1.07658,46.05323],[-1.08884,46.05395],[-1.0899,46.05945],[-1.09318,46.06224],[-1.09385,46.07708],[-1.09699,46.08283],[-1.10073,46.0938],[-1.11505,46.10232],[-1.12179,46.10252],[-1.12244,46.1015],[-1.12553,46.10132],[-1.13152,46.1019],[-1.13378,46.10472],[-1.13636,46.10572],[-1.13832,46.10588],[-1.13957,46.10404],[-1.14111,46.10409],[-1.14307,46.10632],[-1.14334,46.10852],[-1.13977,46.11034],[-1.13222,46.10878],[-1.12414,46.11204],[-1.12476,46.12071],[-1.12823,46.12655],[-1.14575,46.12705],[-1.14886,46.13005],[-1.14834,46.132],[-1.15352,46.13698],[-1.17328,46.13803],[-1.1738,46.13909],[-1.17133,46.14012],[-1.17294,46.14498],[-1.17122,46.14652],[-1.16092,46.14859],[-1.15927,46.15414],[-1.16072,46.15549],[-1.17512,46.15265],[-1.18708,46.15341],[-1.18729,46.15156],[-1.19919,46.14718],[-1.20773,46.14597],[-1.21078,46.14807],[-1.21421,46.14711],[-1.22419,46.15098],[-1.22845,46.14972],[-1.23085,46.15091],[-1.23342,46.15448],[-1.24204,46.15745],[-1.24149,46.16274],[-1.23709,46.16602],[-1.22388,46.16595],[-1.22195,46.16723],[-1.22052,46.17028],[-1.21911,46.17047],[-1.21981,46.17639],[-1.21844,46.18012],[-1.21399,46.18337],[-1.20661,46.18468],[-1.20249,46.18895],[-1.19933,46.19432],[-1.19937,46.19896],[-1.20234,46.2018],[-1.20568,46.20219],[-1.20654,46.20436],[-1.199,46.21325],[-1.1901,46.21613],[-1.18332,46.22161],[-1.17498,46.22215],[-1.17135,46.22406],[-1.16857,46.22734],[-1.16148,46.23094],[-1.15745,46.23593],[-1.14845,46.23841],[-1.14284,46.24398],[-1.1407,46.2531],[-1.13933,46.25405],[-1.12912,46.25381],[-1.1183,46.26112],[-1.1124,46.26027],[-1.11116,46.26134],[-1.11497,46.27429],[-1.12101,46.28873],[-1.11476,46.29158],[-1.1216,46.28967],[-1.12335,46.29371],[-1.11962,46.29521],[-1.12309,46.30196],[-1.12609,46.30209],[-1.12683,46.30756],[-1.1294,46.31028],[-1.12788,46.31288],[-1.123,46.31578],[-1.12364,46.32179],[-1.12057,46.3236],[-1.11776,46.32337],[-1.1161,46.32171],[-1.11614,46.31725],[-1.10494,46.31459],[-1.10173,46.31634],[-1.09928,46.31558],[-1.09781,46.31218],[-1.09573,46.31207],[-1.09297,46.31642],[-1.09097,46.3173],[-1.07547,46.3175],[-1.07467,46.31824],[-1.07517,46.31989],[-1.08073,46.32143],[-1.0813,46.32335],[-1.07334,46.32688],[-1.07404,46.32875],[-1.07005,46.33058],[-1.06452,46.33551],[-1.05338,46.349],[-1.05253,46.34254],[-1.02986,46.35141],[-1.02907,46.34886],[-1.01381,46.35562],[-1.0123,46.35423],[-1.01367,46.35238],[-1.01301,46.34903],[-0.99977,46.35468],[-0.99489,46.35137],[-0.99521,46.35032],[-0.9749,46.35105],[-0.97069,46.35455],[-0.97002,46.35844],[-0.96451,46.3654],[-0.95128,46.36038],[-0.942,46.36822],[-0.93675,46.36639],[-0.93393,46.36752],[-0.92963,46.37152],[-0.92739,46.37075],[-0.93184,46.3658],[-0.93597,46.35443],[-0.93874,46.35191],[-0.93888,46.34565],[-0.94347,46.3366],[-0.95368,46.32962],[-0.95678,46.32575],[-0.9631,46.32262],[-0.94761,46.31781],[-0.94348,46.31828],[-0.94009,46.31505],[-0.93547,46.31473],[-0.93314,46.31083],[-0.93102,46.31004],[-0.9286,46.31084],[-0.92881,46.31434],[-0.92635,46.31554],[-0.92116,46.31249],[-0.91896,46.31264],[-0.91699,46.31549],[-0.91532,46.3159],[-0.91308,46.31322],[-0.91105,46.31278],[-0.90893,46.31424],[-0.90332,46.31408],[-0.90136,46.31589],[-0.89447,46.3169],[-0.89259,46.31948],[-0.89376,46.32142],[-0.89307,46.32307],[-0.8892,46.32358],[-0.88717,46.32665],[-0.88323,46.32379],[-0.87884,46.32419],[-0.87034,46.32217],[-0.86846,46.32344],[-0.86805,46.32638],[-0.86461,46.32747],[-0.86045,46.32529],[-0.86329,46.32057],[-0.86302,46.31914],[-0.85992,46.31752],[-0.85249,46.31714],[-0.84948,46.31777],[-0.84487,46.32456],[-0.84478,46.32618],[-0.84833,46.32915],[-0.84866,46.33251],[-0.83988,46.34037],[-0.83458,46.34191],[-0.83052,46.34153],[-0.82772,46.33797],[-0.82265,46.33576],[-0.80909,46.33844],[-0.80375,46.34264],[-0.80021,46.34238],[-0.79672,46.33914],[-0.79933,46.33718],[-0.80452,46.33586],[-0.80716,46.33313],[-0.80724,46.33111],[-0.80281,46.32529],[-0.80075,46.32448],[-0.79362,46.32491],[-0.78464,46.31894],[-0.77512,46.31835],[-0.7686,46.31239],[-0.76155,46.31266],[-0.75795,46.31125],[-0.75048,46.30426],[-0.7472,46.30282],[-0.74121,46.30478],[-0.73383,46.30502],[-0.73048,46.3034],[-0.72777,46.30383],[-0.72191,46.30237],[-0.71647,46.30612],[-0.71642,46.30748],[-0.7231,46.30956],[-0.72015,46.31489],[-0.71558,46.317],[-0.70757,46.31771],[-0.69777,46.32486],[-0.67227,46.31622],[-0.66166,46.31704],[-0.65687,46.31491],[-0.65356,46.31725],[-0.64841,46.3169],[-0.63747,46.32362],[-0.63638,46.32527],[-0.63605,46.32803],[-0.63945,46.32896],[-0.6366,46.33759],[-0.63425,46.33856],[-0.62821,46.33628],[-0.62706,46.33775],[-0.62244,46.33779],[-0.61868,46.3391],[-0.6186,46.34014],[-0.61605,46.34083],[-0.60677,46.34724],[-0.60495,46.34715],[-0.60332,46.35431],[-0.60681,46.35516],[-0.60325,46.36147],[-0.57731,46.35543],[-0.5729,46.35807],[-0.56181,46.35974],[-0.55851,46.36154],[-0.557,46.36487],[-0.55053,46.37034],[-0.5378,46.38647],[-0.55052,46.39334],[-0.56606,46.39308],[-0.57154,46.39582],[-0.57238,46.40071],[-0.58189,46.40217],[-0.58866,46.4056],[-0.59417,46.41019],[-0.60187,46.41287],[-0.61018,46.41374],[-0.61354,46.40977],[-0.61445,46.40246],[-0.62088,46.39046],[-0.62901,46.39402],[-0.64064,46.39696],[-0.63782,46.40027],[-0.63305,46.40126],[-0.62911,46.40406],[-0.63943,46.41045],[-0.63895,46.41618],[-0.64078,46.41636],[-0.63465,46.42912],[-0.63684,46.43231],[-0.61878,46.43886],[-0.61654,46.44472],[-0.61773,46.44496],[-0.61686,46.44697],[-0.61984,46.45247],[-0.61921,46.45523],[-0.6145,46.45152],[-0.61479,46.44954],[-0.61386,46.44911],[-0.61052,46.45001],[-0.60986,46.45349],[-0.60766,46.45486],[-0.61627,46.46224],[-0.61691,46.47172],[-0.61909,46.4758],[-0.63116,46.47859],[-0.62974,46.48115],[-0.62457,46.48538],[-0.62503,46.49748],[-0.63435,46.50228],[-0.63435,46.50476],[-0.63667,46.50636],[-0.6452,46.50857],[-0.64632,46.51138],[-0.64277,46.51305],[-0.64047,46.51266],[-0.63967,46.51353],[-0.6404,46.51509],[-0.63749,46.51904],[-0.6381,46.52199],[-0.64403,46.52184],[-0.64223,46.52476],[-0.63204,46.52661],[-0.6271,46.52953],[-0.62589,46.52883],[-0.62211,46.53006],[-0.62015,46.52872],[-0.62001,46.52733],[-0.61589,46.52613],[-0.61238,46.52996],[-0.60904,46.52608],[-0.60828,46.52637],[-0.60422,46.53214],[-0.60213,46.53328],[-0.60301,46.53871],[-0.60241,46.54205],[-0.60411,46.54327],[-0.60472,46.54613],[-0.60222,46.54804],[-0.60838,46.55095],[-0.60568,46.55655],[-0.60732,46.56043],[-0.60659,46.56373],[-0.61085,46.56416],[-0.61516,46.56059],[-0.61755,46.5625],[-0.6166,46.56293],[-0.6176,46.56462],[-0.61999,46.56518],[-0.61841,46.57238],[-0.6245,46.57498],[-0.62466,46.57785],[-0.62029,46.57908],[-0.61822,46.5818],[-0.61541,46.58191],[-0.61607,46.58311],[-0.6119,46.58831],[-0.62091,46.59298],[-0.61445,46.59527],[-0.61399,46.59897],[-0.61808,46.59845],[-0.6197,46.60188],[-0.62276,46.60414],[-0.62422,46.60348],[-0.62569,46.60505],[-0.62294,46.60742],[-0.62304,46.61156],[-0.62158,46.61228],[-0.61732,46.61923],[-0.61397,46.62012],[-0.61405,46.62161],[-0.6246,46.63047],[-0.62327,46.63253],[-0.62979,46.63461],[-0.63419,46.63739],[-0.64357,46.63812],[-0.65643,46.63554],[-0.65888,46.63592],[-0.65942,46.63983],[-0.64913,46.64532],[-0.64828,46.64768],[-0.64833,46.65209],[-0.64934,46.65378],[-0.64857,46.65636],[-0.63699,46.66333],[-0.64188,46.66419],[-0.64686,46.67036],[-0.6512,46.67336],[-0.68073,46.68694],[-0.65619,46.70077],[-0.65906,46.70403],[-0.66361,46.70589],[-0.66178,46.70711],[-0.6627,46.70965],[-0.66562,46.71143],[-0.66888,46.71723],[-0.67804,46.7242],[-0.67812,46.72573],[-0.68188,46.72599],[-0.68549,46.72981],[-0.68802,46.72569],[-0.68845,46.72874],[-0.68696,46.73017],[-0.69027,46.73102],[-0.68917,46.73219],[-0.69208,46.73282],[-0.69316,46.72996],[-0.69634,46.72951],[-0.69632,46.73497],[-0.69391,46.7353],[-0.6961,46.73677],[-0.69999,46.73392],[-0.70261,46.73494],[-0.70076,46.73818],[-0.69858,46.73792],[-0.69606,46.74023],[-0.69582,46.74247],[-0.69404,46.74385],[-0.69513,46.7476],[-0.69763,46.7488],[-0.6983,46.75176],[-0.6999,46.75192],[-0.70182,46.74997],[-0.70418,46.74945],[-0.71097,46.74993],[-0.7156,46.75183],[-0.71975,46.75573],[-0.7194,46.75866],[-0.72099,46.76132],[-0.72008,46.76373],[-0.72231,46.76493],[-0.72519,46.76481],[-0.72705,46.76642],[-0.72674,46.77359],[-0.72442,46.77676],[-0.7271,46.78231],[-0.72353,46.78425],[-0.72044,46.78979],[-0.7173,46.79234],[-0.71914,46.79801],[-0.71784,46.80052],[-0.71378,46.80297],[-0.71305,46.80511],[-0.71016,46.80496],[-0.69897,46.8089],[-0.69875,46.81088],[-0.70774,46.81592],[-0.70667,46.81878],[-0.71004,46.82157],[-0.71276,46.82083],[-0.72358,46.82314],[-0.72571,46.82138],[-0.73286,46.8215],[-0.7372,46.82513],[-0.73688,46.82752],[-0.73787,46.82893],[-0.74263,46.82934],[-0.7462,46.831],[-0.75052,46.82989],[-0.75924,46.83218],[-0.76313,46.83464],[-0.76673,46.83446],[-0.77317,46.84036],[-0.77638,46.84014],[-0.7767,46.84116],[-0.78165,46.84283],[-0.78336,46.84422],[-0.78257,46.84528],[-0.7844,46.84626],[-0.78437,46.84793],[-0.7829,46.84847],[-0.78792,46.85274],[-0.78711,46.85335],[-0.79025,46.85543],[-0.7917,46.85786],[-0.79346,46.85772],[-0.79466,46.85904],[-0.79449,46.86076],[-0.80094,46.86337],[-0.80046,46.86505],[-0.80847,46.86856],[-0.80812,46.87029],[-0.81233,46.87278],[-0.81157,46.87451],[-0.81418,46.87642],[-0.81633,46.88064],[-0.82519,46.88377],[-0.82675,46.88247],[-0.83085,46.88515],[-0.83021,46.88764],[-0.82853,46.88723],[-0.82608,46.89005],[-0.82541,46.89435],[-0.82078,46.8983],[-0.81704,46.90398],[-0.81854,46.90826],[-0.82136,46.90931],[-0.82054,46.911],[-0.8161,46.91256],[-0.8074,46.91983],[-0.81235,46.92032],[-0.82137,46.91827],[-0.82736,46.92522],[-0.8282,46.92722],[-0.8274,46.92828],[-0.82863,46.92996],[-0.82724,46.93126],[-0.829,46.93193],[-0.82914,46.93336],[-0.83137,46.93407],[-0.83728,46.93197],[-0.84084,46.92881],[-0.84614,46.93173],[-0.8407,46.93304],[-0.84068,46.93611],[-0.84801,46.94099],[-0.85793,46.93432],[-0.85984,46.93665],[-0.85417,46.93758],[-0.85325,46.93873],[-0.85385,46.93983],[-0.85213,46.94173],[-0.84773,46.94419],[-0.84948,46.94599],[-0.85408,46.94704],[-0.8561,46.94563],[-0.85828,46.94678],[-0.86206,46.94519],[-0.87128,46.94542],[-0.87373,46.94365],[-0.87714,46.94567],[-0.87894,46.94503],[-0.881,46.94646],[-0.88377,46.95106],[-0.87688,46.95238],[-0.87512,46.9537],[-0.86726,46.95085],[-0.8677,46.94954],[-0.86657,46.94803],[-0.86058,46.9491],[-0.86615,46.95219],[-0.86425,46.95224],[-0.86457,46.95538],[-0.86339,46.95663],[-0.86598,46.95733],[-0.86697,46.9559],[-0.86908,46.95724],[-0.86811,46.95857],[-0.86671,46.95825],[-0.86379,46.96225],[-0.8673,46.96274],[-0.87178,46.95937],[-0.87194,46.95779],[-0.87609,46.95565],[-0.87854,46.95599],[-0.8833,46.95954],[-0.88252,46.96109],[-0.88344,46.96197],[-0.88309,46.96378],[-0.87712,46.96854],[-0.88044,46.96998],[-0.88358,46.96922],[-0.88628,46.97063],[-0.89197,46.97046],[-0.89313,46.96919],[-0.88943,46.96738],[-0.89249,46.96597],[-0.89413,46.96915],[-0.89801,46.96691],[-0.90196,46.96708],[-0.90281,46.96813],[-0.90068,46.96878],[-0.90239,46.97075],[-0.89783,46.97066],[-0.89594,46.9753],[-0.88799,46.97544],[-0.88501,46.9771],[-0.87972,46.97581],[-0.87918,46.97434],[-0.8727,46.97371],[-0.86969,46.97181],[-0.8685,46.97283],[-0.86321,46.97239],[-0.86076,46.96868],[-0.85259,46.97071],[-0.84916,46.97378],[-0.85709,46.97774],[-0.85682,46.97878],[-0.848,46.98218],[-0.84772,46.98615],[-0.84428,46.98931],[-0.84241,46.98877],[-0.83938,46.98539],[-0.83625,46.98579],[-0.82801,46.9919],[-0.81871,46.99403],[-0.81728,46.99321],[-0.8115,46.99435],[-0.81137,46.99134],[-0.81251,46.99041],[-0.80845,46.98758],[-0.80509,46.98967],[-0.80757,46.99135],[-0.80909,46.99046],[-0.81085,46.99135],[-0.80948,46.99274],[-0.80694,46.99425],[-0.80043,46.99443],[-0.79625,46.99598],[-0.79179,46.99944],[-0.78972,47.0035],[-0.78758,47.00514],[-0.78427,47.00379],[-0.78421,47.00253],[-0.78173,47.00205],[-0.7784,47.00424],[-0.77615,47.00315],[-0.77347,47.00439],[-0.76934,47.00293],[-0.76811,47.00071],[-0.76869,46.9962],[-0.76195,46.99214],[-0.75351,46.99296],[-0.7475,46.99137],[-0.74286,46.9919],[-0.74337,47.0007],[-0.7397,46.99882],[-0.73239,46.99744],[-0.7279,46.99499],[-0.72345,46.99206],[-0.71588,46.98388],[-0.70374,46.99113],[-0.704,46.99225],[-0.70156,46.99223],[-0.69847,46.99456],[-0.69637,46.9947],[-0.69396,46.99288],[-0.68948,46.99268],[-0.68948,46.9903],[-0.68658,46.98794],[-0.68019,46.98766],[-0.67768,46.98997],[-0.67853,46.99212],[-0.68037,46.99324],[-0.67541,46.99652],[-0.67469,46.99892],[-0.67683,47.0003],[-0.67619,47.00188],[-0.67058,47.0029],[-0.66994,47.0008],[-0.66207,46.99782],[-0.66114,46.99878],[-0.65675,46.99912],[-0.64786,46.99652],[-0.64995,46.99511],[-0.64638,46.99385],[-0.64696,46.99231],[-0.6455,46.99212],[-0.64053,46.99612],[-0.63512,46.99599],[-0.63303,46.99749],[-0.62728,46.99687],[-0.62793,46.9956],[-0.62499,46.99454],[-0.62494,46.99274],[-0.62152,46.99391],[-0.61881,46.99236],[-0.60265,46.99764],[-0.59549,46.99795],[-0.59395,46.99876],[-0.59715,47.00071],[-0.59503,47.00269],[-0.58775,47.00544],[-0.58696,47.00673],[-0.58762,47.00792],[-0.58396,47.01211],[-0.57487,47.01788],[-0.56547,47.01943],[-0.56226,47.03066],[-0.55496,47.03072],[-0.55203,47.02908],[-0.54566,47.02924],[-0.54483,47.0311],[-0.54253,47.03234],[-0.54222,47.03513],[-0.54425,47.03746],[-0.54849,47.04043],[-0.55573,47.04258],[-0.55816,47.05612],[-0.55415,47.05752],[-0.55972,47.0617],[-0.5573,47.06437],[-0.5464,47.06636],[-0.54492,47.06806],[-0.53246,47.073],[-0.52507,47.07405],[-0.51513,47.07794],[-0.50934,47.07817],[-0.49445,47.08309],[-0.49109,47.08312],[-0.48769,47.08105],[-0.47528,47.08306],[-0.47343,47.08176],[-0.4682,47.08386],[-0.46335,47.08186],[-0.45956,47.08241],[-0.45891,47.08013],[-0.46397,47.07608],[-0.4643,47.07435],[-0.47746,47.07189],[-0.48161,47.0694],[-0.48554,47.06521],[-0.48038,47.05363],[-0.47634,47.05436],[-0.47191,47.05785],[-0.47031,47.0613],[-0.46426,47.06758],[-0.45799,47.06877],[-0.45317,47.06731],[-0.44082,47.06783],[-0.43582,47.0707],[-0.42585,47.07273],[-0.423,47.06984],[-0.4179,47.07189],[-0.41568,47.0696],[-0.40932,47.06629],[-0.40685,47.06702],[-0.40078,47.07077],[-0.39639,47.08424],[-0.39592,47.09159],[-0.38693,47.09235],[-0.38614,47.08737],[-0.38085,47.08942],[-0.37719,47.08884],[-0.35347,47.09533],[-0.3501,47.09276],[-0.35012,47.09157],[-0.34088,47.09202],[-0.34146,47.08733],[-0.31425,47.09134],[-0.31012,47.09319],[-0.30475,47.09764],[-0.28274,47.10326],[-0.2815,47.09947],[-0.26859,47.10116],[-0.26738,47.10177],[-0.26732,47.10353],[-0.26522,47.10339],[-0.2655,47.10523],[-0.26288,47.10548],[-0.2627,47.09913],[-0.2504,47.10238],[-0.24988,47.10379],[-0.2458,47.10554],[-0.24074,47.1057],[-0.23458,47.10363],[-0.22824,47.09941],[-0.22274,47.10007],[-0.2185,47.09828],[-0.21595,47.09869],[-0.21477,47.09728],[-0.20735,47.09523],[-0.20627,47.09319],[-0.19929,47.09735],[-0.19652,47.09745],[-0.18707,47.10113],[-0.18644,47.10326],[-0.18765,47.1049],[-0.18698,47.10644],[-0.18475,47.10667],[-0.18524,47.10842],[-0.17955,47.108],[-0.17202,47.10488],[-0.15212,47.10085],[-0.14126,47.10374],[-0.14055,47.09705],[-0.14556,47.09136],[-0.163,47.08379],[-0.17902,47.07017],[-0.17314,47.06673],[-0.16598,47.0646],[-0.15752,47.07],[-0.15599,47.06918],[-0.15475,47.07069],[-0.15219,47.06949],[-0.14998,47.07035],[-0.14732,47.06968],[-0.14714,47.06838],[-0.13911,47.06622],[-0.13665,47.06384],[-0.13853,47.06047],[-0.13556,47.05891],[-0.13717,47.05658],[-0.1289,47.05424],[-0.12297,47.05571],[-0.11823,47.06023],[-0.10212,47.0648],[-0.10516,47.07112],[-0.10199,47.07218],[-0.10333,47.07702],[-0.09997,47.07852],[-0.09976,47.08105],[-0.10151,47.08327],[-0.10065,47.08459],[-0.10141,47.08551],[-0.09537,47.0946],[-0.0859,47.10101],[-0.08291,47.099],[-0.06738,47.09941],[-0.06924,47.0938],[-0.06724,47.09343],[-0.06066,47.09515],[-0.04155,47.09365],[-0.04013,47.08973],[-0.04094,47.08727],[-0.03562,47.08626],[-0.034,47.08985],[-0.02924,47.09526],[-0.0266,47.10588],[-0.03941,47.10787],[-0.03966,47.1121],[-0.04098,47.11355],[-0.035,47.11976],[-0.03596,47.12509],[-0.01218,47.15595],[-0.00441,47.16219],[0.0105,47.16965],[0.01901,47.17576],[0.03664,47.16035],[0.04025,47.1639],[0.04642,47.16605],[0.0492,47.16889],[0.05252,47.16683],[0.05383,47.16373],[0.05358,47.16056],[0.05502,47.16051],[0.05857,47.15647],[0.06155,47.15492],[0.0629,47.14779],[0.06554,47.14775],[0.0656,47.14306],[0.07839,47.14633],[0.07956,47.13907],[0.08198,47.13646],[0.08132,47.13181],[0.07903,47.12966],[0.07637,47.12393],[0.07963,47.12314],[0.07962,47.12017],[0.08135,47.11854],[0.08417,47.11867],[0.09009,47.12218],[0.09714,47.12055],[0.10472,47.1208],[0.10462,47.1248],[0.10771,47.12508],[0.10709,47.12871],[0.11118,47.13028],[0.11106,47.12857],[0.11782,47.12937],[0.11924,47.12846],[0.12292,47.12866],[0.12716,47.11997],[0.13502,47.12129],[0.14039,47.12387],[0.13694,47.118],[0.13343,47.115],[0.13472,47.10787],[0.13908,47.10602],[0.14645,47.10616],[0.14591,47.10489],[0.15298,47.10444],[0.16256,47.10071],[0.16353,47.10424],[0.16598,47.10716],[0.17369,47.11213],[0.18316,47.11438],[0.1857,47.10925],[0.18453,47.10481],[0.18653,47.10417],[0.18711,47.10126],[0.19385,47.09774],[0.19486,47.09564],[0.20095,47.09139],[0.19447,47.08678],[0.19276,47.08368],[0.18709,47.08223],[0.18429,47.07939],[0.18214,47.07898],[0.17422,47.07128],[0.17401,47.06682],[0.17686,47.06471],[0.17577,47.06064],[0.17997,47.05919],[0.18932,47.06081],[0.19224,47.0654],[0.19739,47.0628],[0.19882,47.06049],[0.20069,47.05971],[0.2006,47.05867],[0.20693,47.05501],[0.208,47.05323],[0.21381,47.05424],[0.215,47.05601],[0.22627,47.06073],[0.22773,47.06044],[0.22979,47.06317],[0.23324,47.06405],[0.23282,47.06656],[0.23516,47.06916],[0.23916,47.06767],[0.24115,47.0708],[0.24554,47.07129],[0.25999,47.06895],[0.26106,47.07022],[0.26762,47.0675],[0.26794,47.06612],[0.26453,47.06223],[0.26556,47.06117],[0.25999,47.05558],[0.26187,47.05431],[0.26515,47.05473],[0.26677,47.04868],[0.26429,47.04635],[0.26724,47.04496],[0.26817,47.04282],[0.27185,47.04639],[0.27951,47.04594],[0.28608,47.0479],[0.29306,47.05293],[0.29555,47.05167],[0.29823,47.05392],[0.30538,47.0527],[0.30933,47.04413],[0.30573,47.03837],[0.30958,47.03064],[0.31029,47.02574],[0.30659,47.02424],[0.30544,47.02166],[0.30225,47.02259],[0.29867,47.0196],[0.3026,47.01499],[0.30467,47.01413],[0.30559,47.01086],[0.30703,47.01097],[0.30535,47.00658],[0.304,47.00566],[0.30497,47.00261],[0.30884,46.99944],[0.31297,46.99803],[0.3116,46.99625],[0.305,46.99492],[0.30405,46.99058],[0.29187,46.98924],[0.29806,46.98359],[0.30553,46.98616],[0.30572,46.98481],[0.30293,46.98188],[0.30655,46.97992],[0.30804,46.97738],[0.30074,46.97383],[0.29821,46.97126],[0.30067,46.9705],[0.3009,46.96794],[0.30787,46.9628],[0.3013,46.95575],[0.30564,46.95357],[0.30534,46.9511],[0.30767,46.94844],[0.30738,46.94596],[0.31123,46.93784],[0.32383,46.93145],[0.34116,46.93679],[0.34929,46.93724],[0.35177,46.93967],[0.35252,46.9422],[0.36052,46.9481],[0.3622,46.94705],[0.36652,46.94956],[0.38701,46.94217],[0.38815,46.94363],[0.40536,46.93613],[0.41898,46.93748],[0.42435,46.93433],[0.42928,46.93243],[0.43388,46.93238],[0.43871,46.92958],[0.44296,46.93559],[0.4448,46.94115],[0.45109,46.94179],[0.45784,46.94596],[0.47662,46.94986],[0.48686,46.95426],[0.50065,46.95633],[0.50519,46.9599],[0.51343,46.95559],[0.52155,46.95841],[0.52775,46.95577],[0.53929,46.96022],[0.54336,46.96042],[0.56442,46.95553],[0.58755,46.95719],[0.59389,46.95638],[0.60011,46.95742],[0.6017,46.95889],[0.60118,46.97309],[0.59354,46.97762],[0.57834,46.97981],[0.57404,46.98285],[0.57264,46.98737],[0.57445,46.99289],[0.57369,46.99553],[0.56735,47.00012],[0.56774,47.00629],[0.57635,47.00453],[0.59056,47.00672],[0.60116,47.00608],[0.61333,47.00801],[0.61887,47.00746],[0.62385,47.00394],[0.6217,46.99923],[0.62202,46.99555],[0.6268,46.99201],[0.62772,46.98996],[0.63341,46.98672],[0.63687,46.98529],[0.64532,46.98838],[0.64769,46.98827],[0.65646,46.98543],[0.65858,46.9798],[0.66163,46.97809],[0.67893,46.97753],[0.69257,46.97431],[0.6955,46.96864],[0.6946,46.96367],[0.69618,46.95681],[0.70166,46.94996],[0.70438,46.94433],[0.70621,46.93621],[0.70303,46.92627],[0.70779,46.92116],[0.70893,46.91812],[0.70816,46.91523],[0.70458,46.91203],[0.7036,46.90765],[0.70432,46.90329],[0.72674,46.88674],[0.73062,46.88212],[0.73368,46.87604],[0.74733,46.86939],[0.75211,46.86087],[0.75405,46.85963],[0.75686,46.85999],[0.76503,46.8654],[0.77002,46.86511],[0.77247,46.86232],[0.77199,46.86064],[0.7664,46.85629],[0.76747,46.85145],[0.78237,46.8512],[0.79033,46.85239],[0.79384,46.85122],[0.79646,46.84896],[0.79645,46.84681],[0.78709,46.84425],[0.7868,46.84046],[0.7908,46.83557],[0.79509,46.83252],[0.80522,46.83131],[0.80932,46.82786],[0.81006,46.80856],[0.81646,46.80487],[0.81709,46.80348],[0.8121,46.79901],[0.81166,46.79639],[0.81502,46.78851],[0.82804,46.7868],[0.82966,46.78489],[0.82743,46.77825],[0.82798,46.77682],[0.83382,46.77437],[0.83702,46.76992],[0.8418,46.76773],[0.84327,46.76383],[0.84788,46.7607],[0.85902,46.76039],[0.85869,46.75827],[0.86034,46.75523],[0.86495,46.75201],[0.86997,46.74537],[0.87744,46.74263],[0.87865,46.73864],[0.88506,46.7394],[0.88778,46.7379],[0.8954,46.73696],[0.89662,46.73509],[0.90182,46.73623],[0.90308,46.73063],[0.90893,46.72715],[0.91095,46.72767],[0.91323,46.72571],[0.90805,46.71876],[0.91414,46.71583],[0.9132,46.71416],[0.91357,46.71047],[0.91682,46.70866],[0.92495,46.69999],[0.92796,46.69539],[0.92789,46.69265],[0.92377,46.69282],[0.91891,46.69119],[0.90953,46.68226],[0.90755,46.68304],[0.90266,46.68001],[0.90205,46.67852],[0.90324,46.67808],[0.91071,46.67718],[0.91207,46.6727],[0.90671,46.66557],[0.91324,46.65796],[0.91775,46.65059],[0.90643,46.6486],[0.90812,46.64418],[0.90374,46.6416],[0.89891,46.63663],[0.8939,46.62861],[0.8943,46.62574],[0.8958,46.6258],[0.89929,46.62211],[0.90643,46.61914],[0.90453,46.61434],[0.90845,46.61408],[0.90935,46.60964],[0.90732,46.60754],[0.90851,46.60463],[0.91129,46.60327],[0.91055,46.60179],[0.91602,46.5993],[0.91587,46.59663],[0.92235,46.59459],[0.93776,46.59442],[0.93665,46.58914],[0.93473,46.58772],[0.93529,46.58634],[0.93785,46.58587],[0.94137,46.58088],[0.94635,46.58013],[0.94873,46.57849],[0.95388,46.57896],[0.95749,46.57806],[0.95874,46.5751],[0.96367,46.57107],[0.97363,46.57461],[0.98201,46.57327],[0.98581,46.56985],[0.98358,46.56689],[0.98635,46.56693],[0.98724,46.56556],[1.01476,46.56776],[1.01936,46.56381],[1.01998,46.55733],[1.02494,46.54948],[1.01998,46.54109],[1.02041,46.53714],[1.02291,46.53591],[1.03789,46.53675],[1.03839,46.53757],[1.05069,46.53582],[1.05306,46.53779],[1.05411,46.53717],[1.06572,46.53986],[1.06654,46.53812],[1.06821,46.53881],[1.06981,46.53748],[1.07575,46.53709],[1.07828,46.53514],[1.08759,46.53817],[1.09133,46.53767],[1.10829,46.53151],[1.11116,46.52858],[1.12527,46.52125],[1.14594,46.5064],[1.14914,46.5022],[1.14131,46.49749],[1.13341,46.49763],[1.1416,46.48435],[1.15736,46.46945],[1.13551,46.47089],[1.15182,46.4487],[1.15667,46.44695],[1.15736,46.44772],[1.16892,46.44631],[1.17517,46.44322],[1.176,46.44404],[1.18602,46.44109],[1.18685,46.43986],[1.18596,46.43501],[1.1834,46.42923],[1.18649,46.42813],[1.19589,46.42926],[1.19849,46.43149],[1.20063,46.43101],[1.20386,46.4346],[1.20993,46.43385],[1.21269,46.43222],[1.20685,46.42514],[1.2064,46.42195],[1.20458,46.42188],[1.19986,46.4172],[1.19652,46.41176],[1.19319,46.4098],[1.19211,46.40547],[1.19682,46.40129],[1.17728,46.38395],[1.17914,46.38253],[1.18219,46.37608],[1.18599,46.37797],[1.18855,46.37659],[1.19154,46.37676],[1.19281,46.37825],[1.19166,46.38005],[1.19774,46.382],[1.20554,46.38815],[1.20973,46.38976],[1.21466,46.38706],[1.21612,46.38263],[1.21158,46.37894],[1.21644,46.36743],[1.21964,46.36598],[1.22128,46.3686],[1.22368,46.36907],[1.22495,46.36674],[1.22907,46.36629],[1.23066,46.36779],[1.23348,46.36625],[1.23737,46.36713],[1.23816,46.3662],[1.24087,46.36758],[1.24511,46.37324],[1.25095,46.37703],[1.2604,46.37878],[1.26897,46.37635],[1.27955,46.37649],[1.28367,46.37234],[1.29181,46.37481],[1.30206,46.37251],[1.30306,46.37099],[1.31516,46.37385],[1.31126,46.37755],[1.30752,46.37886],[1.31114,46.38353],[1.32048,46.38163],[1.32281,46.38548],[1.32214,46.38979],[1.31945,46.39094],[1.31877,46.39268],[1.3126,46.39272],[1.31391,46.39538],[1.32546,46.39644],[1.32671,46.39568],[1.33805,46.39816],[1.34429,46.40155],[1.34825,46.3988],[1.35135,46.40022],[1.35602,46.40012],[1.36074,46.39739],[1.37752,46.38281],[1.38353,46.37476],[1.39157,46.371],[1.39657,46.3719],[1.39469,46.36761],[1.40055,46.36748],[1.40255,46.36452],[1.40561,46.36396],[1.40903,46.36134],[1.40905,46.35657],[1.41037,46.35523],[1.41079,46.34992],[1.41519,46.34722]],[[-0.10333,43.35858],[-0.09368,43.35779],[-0.09023,43.35935],[-0.09002,43.35454],[-0.09161,43.35109],[-0.08773,43.35089],[-0.08865,43.34661],[-0.08705,43.34519],[-0.08779,43.34059],[-0.08657,43.33616],[-0.08727,43.33384],[-0.09353,43.33312],[-0.10053,43.33657],[-0.10928,43.33792],[-0.11088,43.33477],[-0.11552,43.33238],[-0.11618,43.32868],[-0.11459,43.32479],[-0.11564,43.32288],[-0.1115,43.31814],[-0.11196,43.31653],[-0.1102,43.31218],[-0.10453,43.31218],[-0.09757,43.31386],[-0.09281,43.31045],[-0.07504,43.30714],[-0.0686,43.3125],[-0.07031,43.3166],[-0.06799,43.32477],[-0.0687,43.32813],[-0.06444,43.33358],[-0.06534,43.33594],[-0.06385,43.33898],[-0.06526,43.34161],[-0.06416,43.34199],[-0.0625,43.34671],[-0.06493,43.355],[-0.06926,43.35521],[-0.072,43.36132],[-0.07616,43.36303],[-0.07642,43.36457],[-0.08291,43.36636],[-0.08056,43.36907],[-0.08317,43.37135],[-0.0931,43.37388],[-0.10104,43.37358],[-0.10728,43.37073],[-0.10611,43.36172],[-0.10434,43.36134],[-0.10421,43.35892],[-0.10333,43.35858]],[[-0.10308,43.24282],[-0.10413,43.24465],[-0.10383,43.2496],[-0.09432,43.25472],[-0.09211,43.25206],[-0.08397,43.25782],[-0.07967,43.26264],[-0.07929,43.27166],[-0.08467,43.27681],[-0.08628,43.27983],[-0.09179,43.28093],[-0.09618,43.28548],[-0.08934,43.30084],[-0.09203,43.30047],[-0.09912,43.30324],[-0.11149,43.3104],[-0.11998,43.30625],[-0.12126,43.30254],[-0.12636,43.29873],[-0.12514,43.29443],[-0.13059,43.28873],[-0.13735,43.28574],[-0.13475,43.28392],[-0.13849,43.28036],[-0.1383,43.2742],[-0.14062,43.27194],[-0.13585,43.2611],[-0.12615,43.25281],[-0.12134,43.2409],[-0.10308,43.24282]]],[[[-1.11427,45.95173],[-1.1163,45.9522],[-1.1192,45.95707],[-1.12028,45.95996],[-1.11947,45.96143],[-1.11107,45.96123],[-1.10533,45.95439],[-1.11048,45.95409],[-1.11105,45.95285],[-1.11427,45.95173]]],[[[-1.4809,46.21003],[-1.48297,46.21221],[-1.47928,46.215],[-1.47372,46.21406],[-1.4671,46.21681],[-1.46547,46.21946],[-1.46629,46.21993],[-1.46549,46.22338],[-1.45697,46.22412],[-1.4563,46.22558],[-1.45919,46.22699],[-1.4582,46.22867],[-1.41294,46.23014],[-1.41024,46.2286],[-1.41052,46.22711],[-1.41471,46.22755],[-1.41849,46.22599],[-1.41937,46.22367],[-1.41724,46.2209],[-1.41906,46.21921],[-1.43429,46.21623],[-1.4374,46.21707],[-1.43967,46.21407],[-1.43736,46.21266],[-1.43919,46.21017],[-1.43141,46.21015],[-1.4309,46.20733],[-1.42594,46.20511],[-1.41274,46.20465],[-1.4042,46.20313],[-1.36945,46.20617],[-1.36511,46.20811],[-1.36293,46.20665],[-1.35472,46.20611],[-1.35332,46.20458],[-1.34159,46.19996],[-1.3317,46.19267],[-1.32135,46.18719],[-1.31705,46.18684],[-1.30601,46.19057],[-1.29276,46.18735],[-1.28693,46.18061],[-1.28903,46.1781],[-1.28217,46.17337],[-1.28152,46.17029],[-1.2832,46.16839],[-1.2818,46.16474],[-1.27424,46.16016],[-1.26812,46.15973],[-1.25815,46.16392],[-1.25559,46.1644],[-1.25495,46.16352],[-1.25679,46.16099],[-1.26714,46.1558],[-1.27351,46.15113],[-1.27754,46.14466],[-1.27956,46.14369],[-1.2854,46.14576],[-1.30477,46.14288],[-1.32163,46.14504],[-1.32877,46.14908],[-1.34298,46.15132],[-1.34886,46.15388],[-1.35337,46.15454],[-1.3709,46.16739],[-1.39153,46.17716],[-1.40112,46.1799],[-1.42013,46.1876],[-1.43127,46.1903],[-1.44006,46.1946],[-1.4616,46.20212],[-1.47185,46.20317],[-1.48698,46.20032],[-1.49046,46.1993],[-1.49465,46.19619],[-1.50402,46.19366],[-1.51719,46.1992],[-1.53394,46.20232],[-1.54176,46.21377],[-1.54381,46.21978],[-1.55439,46.23072],[-1.55633,46.23065],[-1.56096,46.2363],[-1.56293,46.24384],[-1.56147,46.24543],[-1.55009,46.24311],[-1.54109,46.24361],[-1.52778,46.24897],[-1.5187,46.25545],[-1.51278,46.25813],[-1.50583,46.25729],[-1.50058,46.25818],[-1.49465,46.25618],[-1.49001,46.25376],[-1.48832,46.25018],[-1.48202,46.24719],[-1.48219,46.24236],[-1.4809,46.23962],[-1.47578,46.23592],[-1.47455,46.23326],[-1.48202,46.22863],[-1.4881,46.22852],[-1.49295,46.23007],[-1.49522,46.23288],[-1.49496,46.23464],[-1.49858,46.23496],[-1.50169,46.23406],[-1.50033,46.2316],[-1.50628,46.22654],[-1.50862,46.2267],[-1.51268,46.23197],[-1.51399,46.2321],[-1.5148,46.22699],[-1.51319,46.22258],[-1.50926,46.21873],[-1.50649,46.21837],[-1.50591,46.21585],[-1.50671,46.21457],[-1.49954,46.21665],[-1.4935,46.21288],[-1.49493,46.21214],[-1.49387,46.21077],[-1.49608,46.2081],[-1.49413,46.20706],[-1.49446,46.20536],[-1.49231,46.20518],[-1.49355,46.20716],[-1.48864,46.20762],[-1.4877,46.2069],[-1.4878,46.20372],[-1.48612,46.20222],[-1.4836,46.20224],[-1.48367,46.20415],[-1.48519,46.20443],[-1.48523,46.20798],[-1.4809,46.21003]]],[[[-1.17559,46.008],[-1.17842,46.00972],[-1.17711,46.01057],[-1.17892,46.01263],[-1.17728,46.01416],[-1.17624,46.02114],[-1.17456,46.0242],[-1.17119,46.02399],[-1.16826,46.02562],[-1.16216,46.02418],[-1.15771,46.02243],[-1.15428,46.01929],[-1.1546,46.01821],[-1.16334,46.01843],[-1.1675,46.01987],[-1.17143,46.01858],[-1.17156,46.01552],[-1.16988,46.01472],[-1.1698,46.01332],[-1.17559,46.008]]],[[[-1.25027,45.84597],[-1.25366,45.85688],[-1.25922,45.8683],[-1.26615,45.87817],[-1.27005,45.88181],[-1.28062,45.88792],[-1.29335,45.89993],[-1.30023,45.89975],[-1.3047,45.90087],[-1.31844,45.91065],[-1.32489,45.91359],[-1.32671,45.91277],[-1.34138,45.91887],[-1.34712,45.92372],[-1.3534,45.92671],[-1.35831,45.93186],[-1.37262,45.94193],[-1.38002,45.95015],[-1.38598,45.95239],[-1.38886,45.9577],[-1.38704,45.95938],[-1.38626,45.96314],[-1.39017,45.96919],[-1.39221,45.9747],[-1.39578,45.97683],[-1.39387,45.98185],[-1.38875,45.98927],[-1.38726,45.99387],[-1.38787,46.00002],[-1.39355,46.00947],[-1.40053,46.01613],[-1.4113,46.04131],[-1.4118,46.04552],[-1.4134,46.0465],[-1.4124,46.04789],[-1.40706,46.04811],[-1.39034,46.04204],[-1.37023,46.03924],[-1.37208,46.03215],[-1.36951,46.02954],[-1.36593,46.02727],[-1.35833,46.02495],[-1.35451,46.0208],[-1.34911,46.01755],[-1.33611,46.01352],[-1.33463,46.01068],[-1.32855,46.00782],[-1.32721,46.00502],[-1.32379,46.00342],[-1.32181,46.00074],[-1.32174,45.99769],[-1.31515,45.99389],[-1.30086,45.9899],[-1.28577,45.98826],[-1.26818,45.99004],[-1.24675,45.99023],[-1.23755,45.98391],[-1.23591,45.97954],[-1.23761,45.97498],[-1.23683,45.97299],[-1.23297,45.97131],[-1.23391,45.96876],[-1.23266,45.9674],[-1.23325,45.96553],[-1.23491,45.96539],[-1.23426,45.96721],[-1.23625,45.96809],[-1.23665,45.96511],[-1.24033,45.9622],[-1.24208,45.95746],[-1.24168,45.95531],[-1.23897,45.95125],[-1.22631,45.9413],[-1.22833,45.94051],[-1.2296,45.93818],[-1.2281,45.93318],[-1.23139,45.93213],[-1.23356,45.92968],[-1.23377,45.92706],[-1.23121,45.9234],[-1.22889,45.92244],[-1.22921,45.92036],[-1.22009,45.91006],[-1.2109,45.90356],[-1.20181,45.90073],[-1.20224,45.89739],[-1.20109,45.89562],[-1.19658,45.89162],[-1.18741,45.8866],[-1.18839,45.8826],[-1.19154,45.88246],[-1.19365,45.88032],[-1.19323,45.87363],[-1.19883,45.86868],[-1.19997,45.86617],[-1.19608,45.86395],[-1.19651,45.86258],[-1.20044,45.86255],[-1.20362,45.85889],[-1.20305,45.85409],[-1.20771,45.85034],[-1.20621,45.84616],[-1.2033,45.84589],[-1.20199,45.83832],[-1.19545,45.82939],[-1.20521,45.82457],[-1.21621,45.81376],[-1.22365,45.81134],[-1.22902,45.80637],[-1.22902,45.80412],[-1.22642,45.80468],[-1.22626,45.80369],[-1.23185,45.80177],[-1.23642,45.80454],[-1.23939,45.80787],[-1.24566,45.82136],[-1.25027,45.84597]]],[[[-1.23902,44.59278],[-1.23583,44.59414],[-1.23347,44.59359],[-1.23185,44.59003],[-1.22951,44.58872],[-1.23049,44.58814],[-1.23466,44.59139],[-1.23788,44.59169],[-1.24357,44.58886],[-1.24362,44.58444],[-1.23516,44.58524],[-1.23442,44.58436],[-1.24679,44.58259],[-1.24954,44.58029],[-1.24734,44.5782],[-1.24855,44.57555],[-1.24647,44.57417],[-1.24422,44.5746],[-1.2438,44.57299],[-1.24631,44.57179],[-1.25075,44.57647],[-1.25158,44.57956],[-1.24787,44.58688],[-1.24292,44.59136],[-1.23902,44.59278]]],[[[-1.02997,44.6492],[-1.03261,44.6513],[-1.02872,44.6561],[-1.0292,44.66125],[-1.02626,44.66247],[-1.01378,44.6518],[-1.01417,44.65089],[-1.02061,44.64993],[-1.02101,44.65145],[-1.02456,44.65288],[-1.02997,44.6492]]],[[[-1.02374,44.64416],[-1.02602,44.64415],[-1.02756,44.64698],[-1.02681,44.6502],[-1.02531,44.65038],[-1.02059,44.64624],[-1.02374,44.64416]]],[[[-1.17789,44.69736],[-1.1826,44.69901],[-1.18516,44.69722],[-1.188,44.69962],[-1.18765,44.70219],[-1.18537,44.70315],[-1.18254,44.7023],[-1.17943,44.70398],[-1.17772,44.70191],[-1.17922,44.70069],[-1.17789,44.69736]]],[[[-1.18001,44.69279],[-1.18471,44.69512],[-1.18473,44.6966],[-1.18183,44.69683],[-1.18001,44.69279]]]]}}]}