{"type":"FeatureCollection","features":[{"type":"Feature","properties":{"reg_name":"francia-corsica","source":"IGN Admin Express via france-geojson, Licence Ouverte 2.0"},"geometry":{"type":"MultiPolygon","coordinates":[[[[8.5864,41.87389],[8.58667,41.87601],[8.59789,41.88207],[8.59855,41.88068],[8.59333,41.87555],[8.59421,41.87416],[8.5864,41.87389]]],[[[9.37422,41.5585],[9.37082,41.56044],[9.37098,41.56292],[9.37264,41.56326],[9.37449,41.56152],[9.37518,41.55963],[9.37422,41.5585]]],[[[8.54194,42.3704],[8.54166,42.36619],[8.53514,42.37075],[8.5376,42.37276],[8.54194,42.3704]]],[[[9.26095,41.3387],[9.26076,41.33587],[9.25896,41.33363],[9.25709,41.3346],[9.25776,41.3374],[9.25624,41.33836],[9.25383,41.3371],[9.25307,41.3385],[9.25387,41.33918],[9.24912,41.34015],[9.24887,41.34111],[9.24975,41.34331],[9.25385,41.3441],[9.2536,41.34561],[9.25692,41.34572],[9.25688,41.34767],[9.2592,41.34743],[9.25641,41.34114],[9.25876,41.34118],[9.25794,41.3392],[9.26168,41.33987],[9.26095,41.3387]]],[[[9.3591,41.54833],[9.35836,41.54924],[9.35919,41.5509],[9.36185,41.55372],[9.36486,41.55263],[9.36321,41.54966],[9.3591,41.54833]]],[[[9.27103,41.36496],[9.26859,41.36678],[9.26747,41.36631],[9.26656,41.36239],[9.26182,41.36457],[9.26236,41.36571],[9.25985,41.36685],[9.2588,41.36602],[9.25568,41.36653],[9.25503,41.36829],[9.25101,41.36776],[9.25038,41.36856],[9.25721,41.37181],[9.25848,41.37418],[9.26059,41.37318],[9.26027,41.37185],[9.2615,41.37096],[9.26372,41.37164],[9.26358,41.37313],[9.2683,41.37294],[9.269,41.37167],[9.26586,41.36862],[9.2676,41.36801],[9.27428,41.36936],[9.27466,41.36852],[9.27282,41.3653],[9.27103,41.36496]]],[[[9.22633,41.37072],[9.22795,41.3741],[9.23027,41.37224],[9.22633,41.37072]]],[[[9.35516,41.53819],[9.35196,41.54033],[9.35231,41.54126],[9.35497,41.54042],[9.35516,41.53819]]],[[[9.39202,41.66812],[9.38954,41.6685],[9.38975,41.67043],[9.39411,41.67273],[9.39651,41.66997],[9.39202,41.66812]]],[[[9.36261,41.63237],[9.36091,41.63323],[9.36134,41.63448],[9.36316,41.63409],[9.36261,41.63237]]],[[[9.40227,41.8587],[9.40038,41.84933],[9.40398,41.84152],[9.4023,41.84049],[9.40353,41.83906],[9.40338,41.83596],[9.4049,41.83238],[9.40455,41.82757],[9.40583,41.8266],[9.40444,41.82383],[9.40649,41.82325],[9.40506,41.81851],[9.40595,41.81782],[9.39989,41.81115],[9.40081,41.81063],[9.39862,41.80671],[9.39849,41.8012],[9.39454,41.79991],[9.39408,41.79791],[9.39664,41.79431],[9.39644,41.79089],[9.39985,41.78947],[9.39996,41.7872],[9.3964,41.7835],[9.3988,41.78213],[9.39815,41.77846],[9.39519,41.77625],[9.39595,41.77444],[9.40037,41.77186],[9.40247,41.7739],[9.40395,41.77372],[9.40815,41.76636],[9.40757,41.76329],[9.40512,41.7601],[9.40592,41.75927],[9.40485,41.75726],[9.40593,41.7557],[9.40589,41.75142],[9.40356,41.75057],[9.40312,41.74875],[9.40402,41.7476],[9.40595,41.74772],[9.40709,41.74263],[9.40599,41.74088],[9.40644,41.73955],[9.40355,41.73521],[9.40419,41.73333],[9.40198,41.73038],[9.40354,41.72965],[9.40333,41.72773],[9.40581,41.724],[9.40555,41.72171],[9.40138,41.71774],[9.40176,41.71634],[9.40647,41.7137],[9.40273,41.71199],[9.40459,41.7103],[9.40444,41.70891],[9.40158,41.70651],[9.39991,41.70016],[9.40086,41.69413],[9.40019,41.69296],[9.39158,41.68911],[9.38744,41.69054],[9.38263,41.68885],[9.37797,41.6854],[9.3769,41.68284],[9.37231,41.67883],[9.37574,41.67062],[9.37879,41.66931],[9.38189,41.67079],[9.3881,41.67026],[9.38131,41.66436],[9.38182,41.6613],[9.3868,41.66013],[9.38737,41.65594],[9.38615,41.6558],[9.38505,41.65238],[9.38134,41.65099],[9.38287,41.64691],[9.38546,41.64626],[9.38396,41.64522],[9.38166,41.64627],[9.38108,41.64798],[9.37712,41.64813],[9.37752,41.64684],[9.37574,41.64339],[9.3726,41.64331],[9.37239,41.64025],[9.37053,41.63865],[9.37042,41.63662],[9.36442,41.63618],[9.36199,41.63999],[9.3579,41.64097],[9.35226,41.64005],[9.34943,41.63846],[9.3467,41.63435],[9.34639,41.63002],[9.35333,41.62742],[9.35218,41.62515],[9.35404,41.62395],[9.35347,41.62149],[9.35553,41.62002],[9.35578,41.61738],[9.35461,41.6166],[9.35194,41.61857],[9.34736,41.61736],[9.33535,41.62154],[9.32883,41.61696],[9.32008,41.61511],[9.31629,41.61724],[9.32585,41.61828],[9.31844,41.62154],[9.31293,41.62571],[9.31282,41.62789],[9.30761,41.6283],[9.30489,41.62585],[9.30405,41.62255],[9.30662,41.61644],[9.30619,41.6152],[9.297,41.61093],[9.28784,41.60915],[9.2854,41.60342],[9.28744,41.59883],[9.28391,41.59904],[9.28094,41.59719],[9.28511,41.59567],[9.28398,41.5942],[9.28509,41.5912],[9.28361,41.59129],[9.28321,41.58987],[9.29602,41.5847],[9.29906,41.58565],[9.3016,41.58965],[9.30495,41.59007],[9.31308,41.60113],[9.31806,41.60486],[9.32687,41.60408],[9.32885,41.60224],[9.33117,41.60251],[9.33122,41.60354],[9.33401,41.60319],[9.33429,41.60191],[9.33719,41.60092],[9.34054,41.59419],[9.34578,41.59537],[9.34806,41.5941],[9.35381,41.59434],[9.35561,41.59607],[9.36499,41.59598],[9.36586,41.59742],[9.36863,41.59739],[9.36796,41.59124],[9.36625,41.58982],[9.36458,41.59118],[9.36129,41.59079],[9.36172,41.58815],[9.35589,41.58436],[9.35482,41.58012],[9.35284,41.57736],[9.34761,41.5752],[9.34994,41.57239],[9.34911,41.57135],[9.35035,41.57006],[9.35017,41.56619],[9.34715,41.56231],[9.34513,41.56194],[9.34281,41.55937],[9.34129,41.55874],[9.33991,41.55987],[9.3375,41.55876],[9.33195,41.56009],[9.32399,41.55724],[9.31891,41.55371],[9.31889,41.55182],[9.31727,41.55082],[9.31436,41.55164],[9.30844,41.54871],[9.30787,41.54734],[9.30947,41.54589],[9.30896,41.54502],[9.30264,41.54562],[9.29524,41.53894],[9.29426,41.53666],[9.29259,41.53608],[9.2912,41.5344],[9.29229,41.53339],[9.28763,41.53038],[9.2837,41.529],[9.27957,41.53137],[9.27539,41.53167],[9.2725,41.52883],[9.27211,41.52523],[9.27368,41.52252],[9.27965,41.52279],[9.28138,41.52096],[9.28392,41.52045],[9.28453,41.51734],[9.27792,41.50677],[9.26821,41.50081],[9.26987,41.4985],[9.27405,41.49928],[9.27609,41.49591],[9.27846,41.49612],[9.28041,41.4992],[9.2825,41.49913],[9.28311,41.50025],[9.28581,41.49924],[9.28663,41.49517],[9.28791,41.49463],[9.28352,41.48912],[9.28775,41.48385],[9.28577,41.48447],[9.28424,41.48253],[9.284,41.47757],[9.28098,41.47573],[9.27907,41.47684],[9.27625,41.47416],[9.27694,41.47223],[9.27566,41.47082],[9.27193,41.47032],[9.27253,41.47196],[9.27008,41.47256],[9.26705,41.47071],[9.26749,41.46756],[9.2692,41.46674],[9.27122,41.46761],[9.2735,41.46594],[9.27757,41.46541],[9.27794,41.46422],[9.27401,41.46179],[9.27115,41.46206],[9.26865,41.4655],[9.26644,41.46614],[9.25882,41.46115],[9.25924,41.4562],[9.2572,41.45569],[9.25726,41.45459],[9.25341,41.4551],[9.25063,41.45157],[9.24604,41.44968],[9.24381,41.4468],[9.22395,41.44249],[9.22278,41.43986],[9.22338,41.43481],[9.22689,41.42727],[9.22887,41.42612],[9.22543,41.42326],[9.22591,41.42155],[9.22478,41.42058],[9.22604,41.4182],[9.22392,41.41467],[9.21543,41.41442],[9.21532,41.4133],[9.21921,41.41225],[9.21598,41.40951],[9.21734,41.40717],[9.21971,41.40522],[9.22369,41.40475],[9.22615,41.40654],[9.2265,41.4086],[9.23545,41.41375],[9.23628,41.41581],[9.23838,41.41587],[9.24547,41.42207],[9.24702,41.42194],[9.25213,41.42488],[9.25477,41.42489],[9.25815,41.4283],[9.2651,41.42829],[9.26273,41.42242],[9.26081,41.42186],[9.2612,41.41989],[9.25862,41.41878],[9.26042,41.41715],[9.25838,41.41438],[9.25974,41.41366],[9.25491,41.41178],[9.25368,41.41028],[9.25077,41.40992],[9.25022,41.4071],[9.24597,41.40276],[9.24613,41.40144],[9.24034,41.39836],[9.23894,41.39542],[9.23628,41.39463],[9.23566,41.39056],[9.23067,41.38328],[9.22446,41.37959],[9.22065,41.37531],[9.22062,41.37395],[9.22265,41.37212],[9.22004,41.36739],[9.21257,41.3682],[9.21031,41.36658],[9.20548,41.36697],[9.20398,41.36584],[9.20137,41.36659],[9.20039,41.36484],[9.19841,41.36527],[9.19921,41.36712],[9.19843,41.3678],[9.19456,41.36573],[9.19231,41.36597],[9.1922,41.36714],[9.18035,41.3662],[9.1784,41.36771],[9.17922,41.3686],[9.17772,41.37371],[9.17653,41.37532],[9.17455,41.37544],[9.17367,41.37839],[9.17438,41.37937],[9.16724,41.38559],[9.16132,41.38681],[9.14897,41.3852],[9.14847,41.38618],[9.14998,41.38857],[9.15899,41.38862],[9.15896,41.38947],[9.15216,41.39097],[9.14564,41.38779],[9.14277,41.38788],[9.14264,41.38874],[9.13867,41.38997],[9.13767,41.39171],[9.13576,41.39182],[9.13509,41.39453],[9.1295,41.39288],[9.12672,41.39431],[9.1282,41.39634],[9.13355,41.39874],[9.13294,41.39976],[9.12739,41.39937],[9.12107,41.39641],[9.11088,41.39639],[9.10788,41.39477],[9.10498,41.39511],[9.09846,41.39135],[9.0965,41.39206],[9.09634,41.39342],[9.09358,41.39386],[9.09326,41.39487],[9.09584,41.39874],[9.09462,41.39984],[9.09125,41.39914],[9.09118,41.40181],[9.09403,41.40503],[9.09408,41.40841],[9.09678,41.41059],[9.09503,41.41179],[9.10104,41.41635],[9.10409,41.41567],[9.10893,41.41994],[9.10844,41.42223],[9.10474,41.42186],[9.10435,41.42551],[9.10686,41.42942],[9.10941,41.42904],[9.11603,41.43442],[9.11819,41.43393],[9.12032,41.43592],[9.11922,41.44078],[9.1219,41.44048],[9.12237,41.44149],[9.12126,41.44301],[9.11202,41.44084],[9.10803,41.441],[9.10888,41.4451],[9.10654,41.44569],[9.10572,41.44312],[9.09904,41.4428],[9.09727,41.44377],[9.09791,41.4453],[9.09508,41.44737],[9.09537,41.44961],[9.09384,41.44984],[9.09013,41.44541],[9.08581,41.44489],[9.0826,41.44175],[9.07406,41.44221],[9.07394,41.4438],[9.07012,41.44461],[9.07043,41.44654],[9.06909,41.44743],[9.06906,41.44938],[9.06694,41.44977],[9.06622,41.45099],[9.06601,41.45528],[9.06926,41.46106],[9.06725,41.46312],[9.06745,41.46554],[9.07058,41.46562],[9.0714,41.46996],[9.07398,41.4699],[9.07547,41.47207],[9.07699,41.47234],[9.07994,41.47749],[9.07731,41.47652],[9.07417,41.47752],[9.07212,41.47683],[9.07201,41.47526],[9.06872,41.4754],[9.06804,41.47287],[9.06252,41.47062],[9.0615,41.46725],[9.05901,41.46641],[9.05875,41.46439],[9.05649,41.46398],[9.05494,41.46136],[9.05154,41.45921],[9.0476,41.46122],[9.0418,41.45681],[9.03859,41.45818],[9.03891,41.46236],[9.04084,41.46487],[9.03978,41.46569],[9.03968,41.46863],[9.0374,41.47035],[9.03466,41.47061],[9.03307,41.46862],[9.02893,41.46751],[9.02776,41.46315],[9.02604,41.46168],[9.02254,41.46256],[9.02547,41.46591],[9.01801,41.46757],[9.01884,41.46919],[9.01658,41.46932],[9.01522,41.47247],[9.01665,41.47352],[9.01609,41.47454],[9.01819,41.47781],[9.01539,41.4787],[9.01125,41.4747],[9.00911,41.47424],[9.003,41.47505],[8.99961,41.47827],[8.99767,41.47857],[8.99779,41.48145],[8.99589,41.48531],[8.99263,41.48514],[8.99201,41.48255],[8.99038,41.48238],[8.98355,41.4738],[8.98102,41.47448],[8.98051,41.47587],[8.98234,41.47788],[8.97978,41.4798],[8.97537,41.48069],[8.97696,41.48263],[8.97277,41.48517],[8.96578,41.48274],[8.96732,41.48527],[8.96643,41.48898],[8.95991,41.49193],[8.95285,41.49239],[8.94855,41.48967],[8.94084,41.48943],[8.93697,41.49156],[8.93671,41.49541],[8.93286,41.49586],[8.92719,41.48982],[8.92003,41.48911],[8.91965,41.49012],[8.92197,41.49333],[8.92085,41.4981],[8.91821,41.50352],[8.91475,41.50721],[8.91058,41.50813],[8.9092,41.50644],[8.89995,41.50888],[8.89596,41.5074],[8.89091,41.50795],[8.88648,41.50519],[8.8833,41.50524],[8.88374,41.50653],[8.88169,41.50826],[8.88771,41.51428],[8.89062,41.51502],[8.89046,41.51638],[8.88415,41.51874],[8.87781,41.52379],[8.87412,41.52464],[8.8656,41.51998],[8.86228,41.51986],[8.8596,41.52132],[8.85552,41.5179],[8.85067,41.51863],[8.84447,41.5179],[8.84088,41.51969],[8.84141,41.52377],[8.8431,41.52629],[8.85075,41.53294],[8.85557,41.53433],[8.85473,41.53663],[8.85111,41.53883],[8.85255,41.54533],[8.85391,41.54634],[8.85328,41.54711],[8.84662,41.54089],[8.84488,41.54081],[8.84332,41.54266],[8.84466,41.54453],[8.84291,41.54689],[8.8364,41.54554],[8.83304,41.54745],[8.82765,41.5451],[8.82437,41.54601],[8.82181,41.54435],[8.81985,41.54654],[8.8131,41.54868],[8.81542,41.55081],[8.81468,41.55229],[8.8084,41.55621],[8.80594,41.55564],[8.80433,41.55645],[8.80239,41.55512],[8.79855,41.55683],[8.79455,41.55547],[8.7917,41.55753],[8.78884,41.55725],[8.78897,41.55859],[8.78755,41.55985],[8.78784,41.56226],[8.78219,41.56633],[8.78424,41.56695],[8.78541,41.56485],[8.78816,41.56419],[8.79003,41.56656],[8.79231,41.56666],[8.79424,41.56903],[8.79554,41.56878],[8.79916,41.57191],[8.80259,41.57317],[8.80178,41.57452],[8.80262,41.57574],[8.79846,41.57508],[8.79468,41.57867],[8.7915,41.57926],[8.79161,41.58706],[8.78865,41.58741],[8.78606,41.58567],[8.78314,41.58533],[8.78116,41.58708],[8.78229,41.58823],[8.78208,41.59027],[8.7773,41.58999],[8.77415,41.59226],[8.77836,41.59269],[8.77964,41.59365],[8.77933,41.59463],[8.78706,41.59731],[8.78729,41.59845],[8.78538,41.59984],[8.78591,41.60269],[8.78793,41.60303],[8.78893,41.60528],[8.79161,41.6072],[8.79089,41.60958],[8.79168,41.61094],[8.7905,41.61169],[8.79129,41.6143],[8.79046,41.61666],[8.78793,41.61671],[8.78568,41.61837],[8.78999,41.62102],[8.79201,41.62014],[8.792,41.62253],[8.79472,41.62377],[8.7943,41.62615],[8.79124,41.62754],[8.79566,41.63072],[8.79435,41.63269],[8.80297,41.63337],[8.80466,41.6382],[8.80333,41.64107],[8.80581,41.64174],[8.81041,41.639],[8.81012,41.6345],[8.81205,41.63091],[8.82047,41.62967],[8.82353,41.63197],[8.82411,41.63465],[8.8296,41.63668],[8.82959,41.63827],[8.84087,41.63983],[8.84168,41.64303],[8.84724,41.64258],[8.85073,41.6455],[8.85122,41.64791],[8.85637,41.64643],[8.86235,41.64844],[8.8654,41.64827],[8.8695,41.64609],[8.87244,41.64718],[8.87727,41.65245],[8.88125,41.67024],[8.88303,41.67168],[8.88965,41.67174],[8.89351,41.67595],[8.89539,41.67535],[8.89758,41.67797],[8.89883,41.67609],[8.90117,41.67596],[8.90869,41.67706],[8.91061,41.67929],[8.91337,41.67977],[8.91688,41.68344],[8.91602,41.68738],[8.9135,41.691],[8.88624,41.68951],[8.8833,41.69378],[8.87829,41.69597],[8.87475,41.69383],[8.86978,41.69637],[8.86041,41.69559],[8.85782,41.69732],[8.85131,41.69603],[8.84344,41.69684],[8.836,41.70011],[8.83029,41.70626],[8.82542,41.70938],[8.81272,41.71413],[8.80913,41.71379],[8.80668,41.70987],[8.80216,41.71098],[8.79521,41.70962],[8.79395,41.70725],[8.79548,41.70698],[8.79225,41.70121],[8.79058,41.70013],[8.78778,41.70056],[8.78283,41.69921],[8.78169,41.69982],[8.78264,41.7022],[8.78604,41.70287],[8.78781,41.70488],[8.78669,41.70648],[8.78787,41.70854],[8.7849,41.70956],[8.77755,41.70944],[8.77726,41.71082],[8.77206,41.71197],[8.77115,41.7136],[8.77304,41.71512],[8.7733,41.71934],[8.776,41.72163],[8.77797,41.72148],[8.78096,41.72432],[8.77991,41.72697],[8.7846,41.73225],[8.78436,41.73461],[8.78147,41.73825],[8.77498,41.74142],[8.76723,41.7404],[8.75537,41.73702],[8.74891,41.73395],[8.74132,41.73212],[8.73685,41.72903],[8.73536,41.7298],[8.72681,41.72819],[8.72301,41.72439],[8.71667,41.7225],[8.7072,41.7218],[8.70691,41.72318],[8.70471,41.72343],[8.70303,41.72601],[8.70771,41.73605],[8.70456,41.73938],[8.69551,41.74173],[8.68961,41.73995],[8.68588,41.74195],[8.68517,41.74074],[8.68201,41.73992],[8.67836,41.7421],[8.67559,41.74204],[8.67177,41.74369],[8.66593,41.74311],[8.66171,41.73942],[8.65872,41.74026],[8.6595,41.74333],[8.65876,41.74387],[8.66039,41.74681],[8.65976,41.74946],[8.6676,41.75272],[8.67331,41.75254],[8.68452,41.747],[8.68782,41.74929],[8.69597,41.75191],[8.69739,41.75404],[8.70346,41.75804],[8.70804,41.75742],[8.71314,41.76083],[8.71908,41.76768],[8.72125,41.76828],[8.72127,41.76964],[8.72801,41.7739],[8.73275,41.7796],[8.72792,41.78123],[8.72598,41.78423],[8.7272,41.78736],[8.72419,41.78978],[8.72002,41.78916],[8.71754,41.79084],[8.7171,41.7919],[8.71831,41.79309],[8.71753,41.79495],[8.71062,41.79466],[8.70815,41.79781],[8.71083,41.80101],[8.71775,41.80392],[8.72071,41.8015],[8.71978,41.79879],[8.72125,41.79781],[8.73343,41.79898],[8.73534,41.79692],[8.73931,41.79738],[8.74094,41.79869],[8.73963,41.8012],[8.74096,41.80501],[8.74403,41.80591],[8.74895,41.81115],[8.75129,41.81088],[8.75517,41.81234],[8.75755,41.80895],[8.75909,41.80882],[8.77129,41.81124],[8.77373,41.81512],[8.77254,41.81646],[8.77402,41.81917],[8.77324,41.82038],[8.77488,41.82526],[8.78144,41.82742],[8.78452,41.83112],[8.78254,41.83349],[8.77222,41.83485],[8.77174,41.83717],[8.76928,41.83745],[8.76614,41.84092],[8.76602,41.84274],[8.76384,41.84386],[8.75654,41.84088],[8.75089,41.84232],[8.75093,41.84516],[8.75674,41.84588],[8.76031,41.84839],[8.76174,41.84704],[8.77151,41.84568],[8.7786,41.84767],[8.78304,41.84751],[8.78823,41.85046],[8.79062,41.85552],[8.79028,41.86642],[8.78853,41.86828],[8.78657,41.86861],[8.78531,41.87221],[8.78068,41.87368],[8.78554,41.87694],[8.78526,41.87894],[8.78017,41.88117],[8.77927,41.88361],[8.78652,41.88487],[8.78733,41.88384],[8.78929,41.88417],[8.8025,41.89037],[8.80331,41.89314],[8.80263,41.89646],[8.79176,41.91388],[8.78033,41.92455],[8.77265,41.92738],[8.76817,41.9269],[8.76452,41.92296],[8.76285,41.9227],[8.76224,41.9243],[8.75821,41.9257],[8.75821,41.92761],[8.75586,41.92953],[8.75536,41.93227],[8.75238,41.93339],[8.74511,41.93317],[8.74039,41.93131],[8.74098,41.92757],[8.73949,41.92666],[8.74131,41.91582],[8.73572,41.91672],[8.73104,41.9159],[8.73002,41.91297],[8.72854,41.91202],[8.7234,41.91208],[8.71944,41.90815],[8.70837,41.90805],[8.70568,41.90703],[8.70146,41.90835],[8.68762,41.90898],[8.68536,41.90761],[8.67689,41.90629],[8.67719,41.905],[8.67572,41.90422],[8.66431,41.90739],[8.64148,41.90991],[8.6297,41.90623],[8.62455,41.90199],[8.61663,41.90054],[8.60823,41.89392],[8.60661,41.89517],[8.60908,41.8963],[8.61162,41.90064],[8.61575,41.90276],[8.61369,41.90386],[8.61243,41.90641],[8.60924,41.90717],[8.61014,41.90889],[8.60911,41.90957],[8.61125,41.91518],[8.613,41.91518],[8.61525,41.91781],[8.61583,41.91941],[8.61458,41.9221],[8.61558,41.92372],[8.62252,41.92608],[8.62243,41.92753],[8.61944,41.93036],[8.62243,41.93177],[8.6234,41.93484],[8.62077,41.93954],[8.61214,41.94028],[8.60934,41.93948],[8.60638,41.94254],[8.60733,41.94655],[8.60468,41.94737],[8.60682,41.9519],[8.59731,41.95292],[8.59935,41.95656],[8.59778,41.96008],[8.59118,41.96188],[8.59208,41.9644],[8.60122,41.96748],[8.61079,41.96816],[8.6105,41.97022],[8.61432,41.97154],[8.62543,41.97075],[8.62989,41.96941],[8.63137,41.96775],[8.64052,41.96738],[8.6482,41.96841],[8.65029,41.97073],[8.66291,41.97654],[8.66575,41.97832],[8.66508,41.97889],[8.66887,41.98243],[8.66971,41.98771],[8.66708,41.9935],[8.66519,41.99391],[8.65895,41.99151],[8.65766,41.99312],[8.6576,41.99551],[8.65446,41.99925],[8.65448,42.00196],[8.65656,42.00402],[8.65526,42.00499],[8.65648,42.00808],[8.65999,42.01231],[8.67209,42.02012],[8.67727,42.02051],[8.68319,42.0228],[8.68332,42.02474],[8.68507,42.02639],[8.69218,42.0279],[8.70008,42.02569],[8.71448,42.02987],[8.71651,42.02962],[8.71696,42.03112],[8.72518,42.03451],[8.72533,42.03666],[8.72367,42.0381],[8.72272,42.04137],[8.72342,42.04227],[8.72733,42.04318],[8.73631,42.03988],[8.74133,42.04091],[8.74534,42.04515],[8.7469,42.04877],[8.74652,42.0511],[8.74452,42.05211],[8.7434,42.05429],[8.7443,42.05478],[8.7434,42.05723],[8.74485,42.05832],[8.74433,42.05921],[8.7387,42.06232],[8.73931,42.0636],[8.73784,42.06521],[8.73513,42.06586],[8.73105,42.06396],[8.7254,42.06329],[8.71886,42.06379],[8.72032,42.0657],[8.72034,42.06944],[8.71477,42.08154],[8.71128,42.08548],[8.70875,42.08692],[8.70563,42.08652],[8.70494,42.08754],[8.70787,42.09316],[8.71016,42.09484],[8.70574,42.10321],[8.70298,42.10359],[8.70025,42.10605],[8.70127,42.10829],[8.70034,42.11231],[8.69603,42.11418],[8.68915,42.1151],[8.68593,42.10887],[8.68464,42.10939],[8.68036,42.10534],[8.67824,42.10479],[8.67152,42.10733],[8.66562,42.10647],[8.66388,42.10612],[8.66244,42.10258],[8.65893,42.10129],[8.65788,42.10907],[8.65617,42.10953],[8.6564,42.11072],[8.65108,42.115],[8.65002,42.11844],[8.64701,42.12114],[8.64437,42.12151],[8.63636,42.11942],[8.63656,42.12216],[8.63406,42.12383],[8.62387,42.12263],[8.62371,42.12396],[8.61776,42.12685],[8.61727,42.12873],[8.61831,42.13016],[8.61627,42.13159],[8.61633,42.13275],[8.61209,42.1346],[8.60309,42.1319],[8.59976,42.13272],[8.59655,42.13199],[8.59445,42.12975],[8.57986,42.12942],[8.58383,42.13277],[8.58397,42.13493],[8.5899,42.13894],[8.59371,42.14441],[8.58975,42.14915],[8.58668,42.14954],[8.58546,42.15173],[8.58083,42.15098],[8.57332,42.15231],[8.56907,42.14919],[8.56019,42.14585],[8.55879,42.14632],[8.56089,42.15113],[8.56777,42.15446],[8.5698,42.1542],[8.57006,42.15564],[8.5718,42.15663],[8.57292,42.15562],[8.57685,42.15545],[8.5771,42.15679],[8.58241,42.15889],[8.58351,42.16209],[8.58844,42.16227],[8.59124,42.16419],[8.5934,42.16831],[8.58849,42.17142],[8.57139,42.16911],[8.56114,42.1716],[8.56202,42.17373],[8.56513,42.1745],[8.56437,42.17608],[8.56593,42.17767],[8.57005,42.17708],[8.58511,42.17901],[8.58647,42.18173],[8.58094,42.18407],[8.58142,42.18536],[8.57983,42.18576],[8.57792,42.18866],[8.58003,42.19034],[8.57812,42.1919],[8.57706,42.19524],[8.58123,42.19633],[8.58139,42.20594],[8.57827,42.2075],[8.56772,42.20452],[8.5707,42.2108],[8.56886,42.21189],[8.57002,42.21314],[8.5739,42.21244],[8.57712,42.21434],[8.57621,42.21629],[8.57219,42.21669],[8.57153,42.21862],[8.56942,42.21811],[8.56713,42.21958],[8.56904,42.22228],[8.572,42.22287],[8.57385,42.22548],[8.57385,42.22797],[8.56981,42.23081],[8.56277,42.23015],[8.56184,42.23182],[8.55723,42.2295],[8.55772,42.2283],[8.55164,42.22746],[8.54766,42.22907],[8.5478,42.23169],[8.54254,42.23386],[8.54386,42.23506],[8.5401,42.23499],[8.53971,42.23713],[8.54599,42.23995],[8.54663,42.2391],[8.5515,42.23911],[8.55651,42.23573],[8.55914,42.2359],[8.56274,42.2385],[8.56444,42.23795],[8.56854,42.23945],[8.57301,42.23857],[8.57406,42.24005],[8.5759,42.24013],[8.57633,42.24336],[8.57832,42.24312],[8.58034,42.24513],[8.58329,42.24375],[8.5924,42.24496],[8.59411,42.24682],[8.60842,42.25077],[8.60998,42.25186],[8.60917,42.25294],[8.61636,42.25191],[8.61741,42.25316],[8.61572,42.25394],[8.61672,42.25546],[8.6209,42.25488],[8.626,42.25156],[8.62938,42.25274],[8.63938,42.253],[8.64184,42.25692],[8.64391,42.25759],[8.65888,42.25969],[8.66559,42.25932],[8.67394,42.26325],[8.67685,42.262],[8.68738,42.26272],[8.69153,42.26647],[8.69083,42.26849],[8.6928,42.26829],[8.6912,42.2705],[8.68887,42.27148],[8.69137,42.27704],[8.68719,42.28201],[8.68528,42.28297],[8.67873,42.28071],[8.67653,42.28359],[8.67431,42.2838],[8.67345,42.28502],[8.67689,42.28596],[8.67763,42.28903],[8.67623,42.29037],[8.67311,42.29069],[8.67437,42.29422],[8.67013,42.29622],[8.66689,42.29482],[8.66605,42.29671],[8.66175,42.29813],[8.66168,42.2993],[8.65963,42.30007],[8.66102,42.30115],[8.66047,42.30235],[8.6552,42.30192],[8.65316,42.30046],[8.65172,42.30234],[8.64843,42.30293],[8.64662,42.30243],[8.64532,42.30043],[8.64128,42.29952],[8.63952,42.30008],[8.64008,42.30212],[8.6378,42.30247],[8.63701,42.30436],[8.62896,42.30458],[8.63092,42.30605],[8.62975,42.3076],[8.63053,42.31063],[8.62799,42.31208],[8.60907,42.30833],[8.60726,42.30653],[8.60524,42.30637],[8.60165,42.30896],[8.60423,42.31153],[8.60192,42.31337],[8.60157,42.31542],[8.59744,42.31605],[8.59782,42.31874],[8.60351,42.32214],[8.6163,42.32663],[8.61915,42.32642],[8.61963,42.32761],[8.62156,42.32751],[8.62822,42.33201],[8.62618,42.33474],[8.62756,42.33828],[8.62893,42.33911],[8.6277,42.34035],[8.6235,42.33959],[8.61772,42.34139],[8.61795,42.34328],[8.61658,42.34425],[8.61781,42.34618],[8.61743,42.34773],[8.61487,42.34959],[8.61311,42.3491],[8.61394,42.34756],[8.61266,42.34627],[8.61151,42.34823],[8.60784,42.34853],[8.60818,42.34963],[8.60409,42.34949],[8.60025,42.353],[8.59038,42.35236],[8.58775,42.3497],[8.58177,42.34846],[8.58089,42.34489],[8.57797,42.34375],[8.57732,42.34084],[8.57324,42.33781],[8.56808,42.33778],[8.56794,42.33648],[8.56436,42.33392],[8.56462,42.333],[8.56256,42.33257],[8.55981,42.33412],[8.55779,42.33224],[8.55717,42.33391],[8.55413,42.33335],[8.55555,42.33607],[8.55488,42.33786],[8.55885,42.33986],[8.55826,42.34314],[8.55932,42.34466],[8.55572,42.34517],[8.5537,42.34316],[8.55262,42.34394],[8.55409,42.34539],[8.55127,42.34636],[8.55291,42.34817],[8.55182,42.34949],[8.55649,42.35294],[8.55372,42.35453],[8.55335,42.35641],[8.55638,42.358],[8.55773,42.36005],[8.5547,42.36144],[8.5559,42.3643],[8.55514,42.3652],[8.55134,42.36437],[8.54767,42.36601],[8.54851,42.36705],[8.54659,42.36796],[8.54471,42.36685],[8.54322,42.36729],[8.5434,42.36904],[8.5458,42.37053],[8.54462,42.37524],[8.54649,42.37632],[8.54581,42.37739],[8.54729,42.37889],[8.55029,42.37905],[8.55257,42.37562],[8.55095,42.37328],[8.55313,42.37262],[8.55363,42.37102],[8.55571,42.37166],[8.55732,42.37072],[8.55979,42.37171],[8.56265,42.36922],[8.56416,42.37093],[8.56918,42.36941],[8.57392,42.37298],[8.5732,42.37433],[8.57766,42.37395],[8.57834,42.37527],[8.57596,42.37951],[8.57341,42.38141],[8.57683,42.38338],[8.58062,42.38169],[8.58367,42.38166],[8.58602,42.38515],[8.58756,42.38357],[8.58925,42.3846],[8.59456,42.3817],[8.60087,42.38402],[8.60073,42.38494],[8.6033,42.38641],[8.60791,42.38612],[8.60958,42.38996],[8.60786,42.39362],[8.60355,42.39498],[8.60344,42.39683],[8.60196,42.39736],[8.6022,42.39974],[8.60552,42.40195],[8.60803,42.40151],[8.61169,42.4032],[8.61129,42.40489],[8.60722,42.40683],[8.6033,42.40714],[8.60174,42.40866],[8.60183,42.4096],[8.60859,42.41131],[8.60759,42.41299],[8.60518,42.4138],[8.60611,42.41645],[8.6105,42.4159],[8.62052,42.41739],[8.62202,42.42154],[8.64099,42.41812],[8.64488,42.4161],[8.64392,42.41443],[8.6458,42.41315],[8.65142,42.41397],[8.65192,42.41531],[8.65506,42.41509],[8.65504,42.41613],[8.65682,42.4168],[8.65656,42.41956],[8.65808,42.41943],[8.66222,42.42629],[8.6611,42.42838],[8.66275,42.43041],[8.66052,42.43122],[8.66372,42.43447],[8.66068,42.43463],[8.65688,42.43751],[8.65427,42.43689],[8.6541,42.43825],[8.64822,42.44228],[8.65031,42.44301],[8.65067,42.44426],[8.65982,42.44552],[8.66023,42.44464],[8.66834,42.44478],[8.66887,42.4476],[8.66797,42.449],[8.66993,42.45038],[8.66714,42.45401],[8.66463,42.45391],[8.66467,42.45685],[8.66735,42.45734],[8.67267,42.463],[8.67423,42.46342],[8.67515,42.46648],[8.67873,42.46628],[8.67983,42.46812],[8.67724,42.47399],[8.6748,42.47625],[8.6632,42.47494],[8.65552,42.47555],[8.65118,42.47357],[8.64924,42.47431],[8.65018,42.47886],[8.65216,42.48096],[8.65398,42.48091],[8.65447,42.48395],[8.66077,42.48844],[8.6617,42.49033],[8.6636,42.49045],[8.66334,42.492],[8.66588,42.4956],[8.66639,42.50239],[8.66437,42.50304],[8.66429,42.50413],[8.66589,42.50541],[8.6655,42.51363],[8.6692,42.51717],[8.67442,42.5187],[8.67662,42.51753],[8.68125,42.51742],[8.68257,42.51482],[8.68816,42.51817],[8.69536,42.52065],[8.69692,42.52278],[8.69466,42.52458],[8.69519,42.52554],[8.69788,42.52562],[8.69934,42.5268],[8.70227,42.52551],[8.70358,42.52634],[8.70672,42.52319],[8.7202,42.52542],[8.71957,42.52776],[8.71441,42.53093],[8.71712,42.53354],[8.71212,42.5343],[8.71026,42.53573],[8.71299,42.53864],[8.71881,42.54003],[8.71729,42.54372],[8.71915,42.54517],[8.72268,42.54515],[8.7166,42.54904],[8.71665,42.55063],[8.72216,42.55379],[8.72282,42.55678],[8.71688,42.56022],[8.71854,42.56257],[8.71547,42.56378],[8.71473,42.56608],[8.71837,42.57057],[8.71178,42.56954],[8.70663,42.57041],[8.71172,42.57252],[8.71279,42.57404],[8.71251,42.57541],[8.70963,42.57529],[8.70916,42.57672],[8.7151,42.57825],[8.72527,42.58445],[8.72681,42.58405],[8.72423,42.58013],[8.72379,42.57654],[8.72385,42.57402],[8.72512,42.57331],[8.72847,42.57457],[8.72907,42.57382],[8.7259,42.57268],[8.72763,42.56626],[8.72704,42.56161],[8.73564,42.56402],[8.73778,42.5652],[8.73767,42.56711],[8.73997,42.56855],[8.74463,42.56695],[8.75306,42.56951],[8.75576,42.57139],[8.75812,42.56881],[8.76231,42.56967],[8.76203,42.56715],[8.75901,42.56677],[8.7562,42.56373],[8.75705,42.56129],[8.76044,42.55857],[8.76864,42.55581],[8.78105,42.55652],[8.79207,42.56033],[8.79687,42.56548],[8.80481,42.57089],[8.80525,42.57462],[8.80419,42.57807],[8.8027,42.57891],[8.80235,42.58132],[8.79795,42.5831],[8.80127,42.58396],[8.8014,42.58513],[8.80498,42.58561],[8.80555,42.58643],[8.80169,42.58696],[8.80258,42.5884],[8.81081,42.59002],[8.8111,42.59167],[8.80964,42.59708],[8.80734,42.59965],[8.80455,42.59927],[8.80397,42.60083],[8.80186,42.60108],[8.80263,42.60257],[8.81109,42.60463],[8.81937,42.60435],[8.82353,42.60618],[8.82767,42.60613],[8.82755,42.60345],[8.8289,42.60196],[8.8324,42.60149],[8.83811,42.60477],[8.8411,42.6047],[8.84076,42.60621],[8.84321,42.60855],[8.85046,42.61063],[8.85058,42.61184],[8.85304,42.61084],[8.85414,42.60848],[8.86172,42.60973],[8.86456,42.60812],[8.86739,42.6084],[8.87504,42.61317],[8.87563,42.6147],[8.87401,42.61796],[8.87954,42.62004],[8.88051,42.62179],[8.87823,42.62201],[8.87808,42.62293],[8.88332,42.6252],[8.88314,42.62638],[8.87952,42.62623],[8.87916,42.62873],[8.88256,42.62957],[8.88454,42.62811],[8.88796,42.6304],[8.89001,42.6278],[8.89196,42.62782],[8.89275,42.63008],[8.89472,42.62785],[8.90075,42.62813],[8.90302,42.6271],[8.91147,42.62896],[8.91356,42.63021],[8.91345,42.63211],[8.91554,42.63339],[8.91488,42.63424],[8.92247,42.63941],[8.92935,42.63743],[8.93434,42.63899],[8.9346,42.64142],[8.93648,42.64249],[8.93094,42.64383],[8.93066,42.64531],[8.93627,42.64449],[8.93827,42.64206],[8.93507,42.64018],[8.93547,42.63803],[8.93845,42.63726],[8.93886,42.63544],[8.94669,42.63364],[8.95185,42.63456],[8.95476,42.63377],[8.95498,42.63514],[8.95849,42.63544],[8.96253,42.63426],[8.965,42.63507],[8.96566,42.63684],[8.97224,42.63954],[8.97518,42.64005],[8.97603,42.63873],[8.98286,42.63924],[8.98542,42.64139],[8.99564,42.63972],[9.00064,42.64191],[9.00277,42.64414],[9.00719,42.64203],[9.00743,42.64089],[9.01038,42.64035],[9.01495,42.64136],[9.02069,42.64427],[9.0285,42.65271],[9.03504,42.65496],[9.037,42.65494],[9.04009,42.6529],[9.04565,42.65457],[9.05343,42.65877],[9.05932,42.66007],[9.06184,42.66464],[9.05848,42.66818],[9.05531,42.66945],[9.05859,42.67029],[9.0589,42.67208],[9.05535,42.67383],[9.05403,42.67629],[9.05547,42.67833],[9.0536,42.68098],[9.05413,42.68238],[9.06006,42.68286],[9.05743,42.68697],[9.05824,42.68946],[9.05726,42.69348],[9.05899,42.69406],[9.0571,42.69548],[9.05894,42.69655],[9.06118,42.69402],[9.06816,42.69181],[9.07024,42.69223],[9.07334,42.69548],[9.07577,42.69593],[9.07689,42.69835],[9.07593,42.69966],[9.08074,42.70115],[9.0823,42.70432],[9.08427,42.70555],[9.08178,42.70904],[9.08582,42.71489],[9.09193,42.71471],[9.09239,42.71614],[9.09679,42.71493],[9.10042,42.71562],[9.09991,42.71718],[9.10682,42.72451],[9.10995,42.72337],[9.11217,42.72699],[9.11442,42.7269],[9.11804,42.72452],[9.11792,42.72805],[9.12456,42.73164],[9.13512,42.72853],[9.13791,42.72941],[9.14316,42.73379],[9.14859,42.73135],[9.15099,42.73193],[9.15328,42.73454],[9.15783,42.73459],[9.1629,42.73668],[9.16935,42.73586],[9.16953,42.73405],[9.17713,42.73183],[9.17765,42.72991],[9.18269,42.73005],[9.18843,42.72709],[9.19806,42.72498],[9.20802,42.72815],[9.21377,42.73363],[9.21761,42.73344],[9.2211,42.73567],[9.22424,42.73359],[9.22401,42.73256],[9.22683,42.72874],[9.22845,42.72833],[9.23078,42.72399],[9.23255,42.72433],[9.23333,42.72321],[9.2318,42.72144],[9.23308,42.72033],[9.24249,42.71904],[9.24582,42.71934],[9.24594,42.72092],[9.249,42.71875],[9.25779,42.7179],[9.25623,42.71651],[9.25732,42.71527],[9.25573,42.71414],[9.25511,42.71017],[9.25631,42.70783],[9.254,42.70621],[9.25892,42.7037],[9.2584,42.70175],[9.26032,42.70018],[9.26898,42.70156],[9.27027,42.69827],[9.26932,42.6963],[9.27176,42.69416],[9.27493,42.69398],[9.27735,42.69148],[9.27658,42.689],[9.27886,42.68959],[9.28006,42.6888],[9.27918,42.68361],[9.28333,42.68069],[9.28442,42.67634],[9.28746,42.67449],[9.29332,42.67432],[9.29595,42.67533],[9.2991,42.67726],[9.29956,42.67864],[9.30099,42.67827],[9.3012,42.68012],[9.29924,42.68118],[9.30026,42.68333],[9.30425,42.68399],[9.31418,42.689],[9.31702,42.69262],[9.32283,42.69701],[9.32126,42.71092],[9.32279,42.71702],[9.32635,42.7181],[9.32651,42.71901],[9.32963,42.71895],[9.33463,42.72257],[9.33549,42.7238],[9.33372,42.7248],[9.33379,42.72602],[9.34028,42.72933],[9.34344,42.73292],[9.34512,42.73639],[9.3436,42.73933],[9.34563,42.74327],[9.34236,42.74844],[9.34179,42.75281],[9.33945,42.75642],[9.33996,42.7611],[9.33751,42.76382],[9.34175,42.77006],[9.33902,42.77406],[9.34133,42.77885],[9.34003,42.78155],[9.34031,42.78509],[9.34214,42.78562],[9.34278,42.7891],[9.34158,42.79757],[9.33957,42.80203],[9.3335,42.80763],[9.33236,42.81051],[9.32558,42.8125],[9.32009,42.82479],[9.31872,42.82641],[9.31565,42.82687],[9.31462,42.8291],[9.31086,42.83127],[9.30955,42.83378],[9.31507,42.83657],[9.31598,42.84297],[9.32129,42.84599],[9.32319,42.84936],[9.329,42.85311],[9.32924,42.85526],[9.33432,42.8606],[9.33323,42.86352],[9.3403,42.86567],[9.33788,42.86829],[9.33191,42.87027],[9.32905,42.87379],[9.32712,42.87753],[9.32792,42.87855],[9.32637,42.88276],[9.32882,42.88559],[9.32797,42.88988],[9.32099,42.89356],[9.32137,42.89688],[9.32204,42.90014],[9.32509,42.90049],[9.33044,42.90446],[9.34129,42.91031],[9.34393,42.91074],[9.34442,42.91247],[9.34749,42.91242],[9.35037,42.91563],[9.35419,42.91621],[9.35653,42.92343],[9.3598,42.92351],[9.36147,42.92476],[9.35246,42.92891],[9.34969,42.92882],[9.35015,42.93344],[9.35749,42.94022],[9.35905,42.9454],[9.35519,42.94934],[9.35104,42.95014],[9.3471,42.95277],[9.34562,42.95774],[9.34765,42.95883],[9.34788,42.96036],[9.3499,42.96086],[9.34889,42.96273],[9.34566,42.96351],[9.35028,42.96685],[9.35054,42.96827],[9.34902,42.97333],[9.34582,42.97547],[9.34639,42.97719],[9.34295,42.97781],[9.34152,42.98047],[9.34394,42.98232],[9.34333,42.98452],[9.34549,42.98614],[9.34105,42.98841],[9.34286,42.9896],[9.34016,42.99306],[9.34314,42.99595],[9.34332,42.99878],[9.35412,43.00332],[9.35769,43.00727],[9.3661,43.00477],[9.36943,43.00605],[9.37286,43.00477],[9.37561,43.00505],[9.38318,43.01019],[9.39019,43.00674],[9.39312,43.00823],[9.39597,43.00621],[9.40085,43.00857],[9.40298,43.0061],[9.40839,43.00554],[9.41367,43.00653],[9.41766,43.01076],[9.4199,43.01161],[9.42842,43.0091],[9.42978,43.00641],[9.4296,43.00367],[9.43084,43.00272],[9.43613,43.00064],[9.44099,43.00111],[9.44469,42.99632],[9.44333,42.99518],[9.44375,42.9934],[9.44687,42.99334],[9.44887,42.99137],[9.45047,42.99195],[9.4512,42.98983],[9.45409,42.98816],[9.46115,42.988],[9.46355,42.9864],[9.46135,42.98384],[9.46112,42.97852],[9.45955,42.97666],[9.45535,42.97598],[9.4541,42.97308],[9.45547,42.97213],[9.4577,42.96577],[9.45311,42.96595],[9.45159,42.96176],[9.45663,42.95417],[9.45627,42.95059],[9.46197,42.94545],[9.46266,42.94355],[9.46507,42.943],[9.46935,42.93633],[9.46777,42.93444],[9.46548,42.93421],[9.46506,42.93216],[9.46722,42.92964],[9.46727,42.92728],[9.47246,42.92371],[9.46969,42.92203],[9.47207,42.91986],[9.47071,42.91651],[9.47228,42.91027],[9.46912,42.90797],[9.46904,42.90509],[9.47257,42.90306],[9.47449,42.9001],[9.47289,42.89568],[9.47448,42.89292],[9.47406,42.88974],[9.47551,42.88856],[9.47352,42.88625],[9.47815,42.88046],[9.47637,42.87772],[9.47369,42.87797],[9.47286,42.87437],[9.47871,42.87184],[9.4784,42.8696],[9.48145,42.86743],[9.48227,42.86377],[9.48076,42.86038],[9.48565,42.85087],[9.48376,42.85003],[9.4829,42.84782],[9.48357,42.84516],[9.48272,42.84413],[9.48402,42.8426],[9.48321,42.84085],[9.48048,42.84048],[9.48015,42.83715],[9.48312,42.83616],[9.48591,42.83323],[9.48502,42.83089],[9.48614,42.83037],[9.48712,42.8267],[9.48671,42.82098],[9.49047,42.81407],[9.49006,42.80836],[9.49264,42.80733],[9.49279,42.80588],[9.49122,42.79649],[9.49016,42.79526],[9.49128,42.79432],[9.48881,42.79258],[9.48665,42.78761],[9.48491,42.78686],[9.48373,42.78246],[9.47971,42.78046],[9.47692,42.77322],[9.47542,42.77344],[9.47204,42.77076],[9.46671,42.76061],[9.4657,42.75706],[9.46767,42.756],[9.46856,42.75305],[9.46387,42.74909],[9.46389,42.74598],[9.46154,42.74088],[9.46203,42.73285],[9.45611,42.72053],[9.45651,42.71599],[9.4542,42.70696],[9.45611,42.70382],[9.45435,42.70348],[9.45253,42.696],[9.45005,42.69574],[9.45337,42.6926],[9.45217,42.69069],[9.45021,42.69117],[9.44771,42.68965],[9.44639,42.68612],[9.44746,42.67883],[9.44619,42.67358],[9.45009,42.66007],[9.4622,42.64012],[9.47879,42.62044],[9.49903,42.60003],[9.50469,42.59561],[9.51911,42.57895],[9.5273,42.56611],[9.53269,42.54802],[9.53385,42.54212],[9.53325,42.53032],[9.53474,42.52301],[9.52996,42.50369],[9.52962,42.48944],[9.53666,42.46781],[9.54112,42.46039],[9.54201,42.44945],[9.54083,42.44081],[9.54163,42.43213],[9.54349,42.4293],[9.54198,42.4214],[9.53984,42.41774],[9.53715,42.40856],[9.53534,42.39426],[9.53247,42.38463],[9.53224,42.37191],[9.53501,42.36139],[9.53766,42.3436],[9.54005,42.34151],[9.53936,42.33871],[9.54047,42.33769],[9.54416,42.32414],[9.54823,42.31882],[9.55046,42.31321],[9.55263,42.30228],[9.55996,42.28231],[9.55949,42.27239],[9.55593,42.26087],[9.55251,42.23312],[9.55287,42.22126],[9.55441,42.2162],[9.55615,42.21495],[9.55615,42.20163],[9.55912,42.1967],[9.55567,42.17983],[9.55437,42.16085],[9.55464,42.14734],[9.5566,42.14215],[9.55483,42.12338],[9.5529,42.11866],[9.54998,42.10416],[9.52948,42.08553],[9.46924,42.01522],[9.45891,42.00575],[9.45629,42.0008],[9.44338,41.99149],[9.43235,41.98061],[9.42426,41.97153],[9.41705,41.96123],[9.41378,41.9557],[9.41173,41.9472],[9.41205,41.93973],[9.41584,41.93294],[9.41613,41.92841],[9.41227,41.91875],[9.41258,41.91566],[9.41368,41.91509],[9.40206,41.89716],[9.40088,41.88756],[9.40157,41.88663],[9.3991,41.88249],[9.39702,41.87462],[9.39732,41.87126],[9.39946,41.8671],[9.39793,41.86313],[9.40227,41.8587]]],[[[9.40875,43.02232],[9.40392,43.02591],[9.40434,43.02737],[9.4064,43.02766],[9.40875,43.02232]]],[[[9.34112,42.96307],[9.34015,42.96533],[9.34135,42.96567],[9.34291,42.96376],[9.34112,42.96307]]]]}}]}