{"type":"FeatureCollection","features":[{"type":"Feature","properties":{"reg_name":"francia-centro","source":"IGN Admin Express via france-geojson, Licence Ouverte 2.0"},"geometry":{"type":"Polygon","coordinates":[[[2.87463,47.52042],[2.88845,47.50943],[2.89669,47.49051],[2.89852,47.4816],[2.90723,47.47664],[2.91406,47.4709],[2.92047,47.45638],[2.93195,47.43946],[2.93141,47.43262],[2.92892,47.42944],[2.92231,47.42503],[2.91989,47.42117],[2.91976,47.40917],[2.91845,47.40553],[2.90633,47.39321],[2.90081,47.3852],[2.89276,47.36859],[2.88592,47.36003],[2.88025,47.35642],[2.87896,47.35314],[2.87162,47.34576],[2.86954,47.3399],[2.86995,47.33825],[2.87454,47.33472],[2.87234,47.33234],[2.87655,47.32193],[2.8862,47.31582],[2.90777,47.31099],[2.91231,47.30886],[2.92851,47.2973],[2.93223,47.29251],[2.93917,47.28658],[2.94496,47.28472],[2.96374,47.27382],[2.97394,47.26981],[2.98309,47.26081],[2.98022,47.24786],[2.98063,47.2435],[2.97795,47.23555],[2.97888,47.22957],[2.98168,47.222],[2.98726,47.21333],[2.99469,47.20569],[3.00967,47.17905],[3.00957,47.17614],[3.01357,47.16973],[3.01594,47.15909],[3.01902,47.15656],[3.02063,47.15322],[3.01671,47.14591],[3.01664,47.14087],[3.02257,47.13522],[3.02496,47.13111],[3.02809,47.12907],[3.03138,47.09248],[3.02118,47.07823],[3.01871,47.07078],[3.01934,47.06817],[3.02322,47.06262],[3.02955,47.05839],[3.049,47.05139],[3.05469,47.04767],[3.06275,47.04528],[3.06382,47.04608],[3.0688,47.04006],[3.07516,47.02932],[3.07441,47.02694],[3.07581,47.02342],[3.07575,47.01914],[3.0732,47.01125],[3.06807,47.00616],[3.0663,47.00225],[3.06281,46.98712],[3.06258,46.9792],[3.0717,46.96434],[3.07934,46.96024],[3.07933,46.95512],[3.07403,46.94724],[3.06904,46.94303],[3.06449,46.93627],[3.06431,46.93258],[3.06222,46.92774],[3.0536,46.91695],[3.05029,46.91063],[3.04999,46.90771],[3.05141,46.90496],[3.06096,46.89815],[3.06359,46.88868],[3.06697,46.88178],[3.06674,46.87931],[3.06809,46.87768],[3.06785,46.87444],[3.06578,46.87082],[3.06535,46.86357],[3.06953,46.85307],[3.06891,46.85073],[3.06485,46.84603],[3.05792,46.84315],[3.05458,46.83877],[3.05901,46.83068],[3.05887,46.82628],[3.04134,46.81302],[3.03747,46.80779],[3.03657,46.80433],[3.0326,46.80021],[3.03207,46.79491],[3.02765,46.79336],[3.02465,46.79401],[3.02479,46.79505],[3.02234,46.79735],[3.01752,46.7999],[2.99259,46.79708],[2.98825,46.80052],[2.98238,46.80294],[2.9628,46.80399],[2.9605,46.80369],[2.9585,46.80051],[2.95875,46.79898],[2.95355,46.79716],[2.95323,46.79113],[2.94706,46.79058],[2.94154,46.79515],[2.93989,46.79318],[2.93782,46.79572],[2.93564,46.79492],[2.93152,46.79575],[2.92261,46.79421],[2.91327,46.79103],[2.90792,46.78768],[2.90874,46.78403],[2.91146,46.78128],[2.91039,46.77939],[2.90093,46.77575],[2.89581,46.77528],[2.89304,46.77277],[2.88038,46.77032],[2.87617,46.76845],[2.87702,46.76147],[2.86951,46.75692],[2.86228,46.75488],[2.84542,46.74286],[2.84382,46.7389],[2.84677,46.72706],[2.83521,46.72801],[2.82749,46.73533],[2.81493,46.73534],[2.80574,46.73304],[2.79509,46.73434],[2.79123,46.73345],[2.79075,46.73126],[2.78554,46.7271],[2.7859,46.7225],[2.77667,46.72087],[2.77371,46.71823],[2.7711,46.72076],[2.7719,46.7231],[2.77035,46.72328],[2.76843,46.72149],[2.76503,46.72096],[2.75852,46.71775],[2.75527,46.71911],[2.75675,46.72477],[2.75008,46.72584],[2.74421,46.72887],[2.74164,46.73441],[2.73649,46.73807],[2.73992,46.74116],[2.73459,46.74519],[2.73453,46.74622],[2.72886,46.74849],[2.72635,46.74535],[2.7186,46.74168],[2.71698,46.74457],[2.7145,46.74449],[2.70498,46.73939],[2.70477,46.73814],[2.7062,46.73768],[2.70522,46.7362],[2.70552,46.73282],[2.70309,46.73184],[2.70077,46.72802],[2.7069,46.72539],[2.70256,46.7215],[2.7051,46.72059],[2.70228,46.71817],[2.69966,46.71948],[2.70092,46.72096],[2.69612,46.72347],[2.6921,46.72252],[2.69169,46.7196],[2.68816,46.72091],[2.68752,46.72253],[2.68556,46.72262],[2.6845,46.72168],[2.68596,46.71435],[2.67993,46.71288],[2.6716,46.70886],[2.67637,46.70673],[2.6778,46.70461],[2.67511,46.70345],[2.67438,46.70193],[2.66522,46.70061],[2.65473,46.69654],[2.653,46.69276],[2.64513,46.68725],[2.64463,46.6904],[2.64025,46.69028],[2.6396,46.69154],[2.62337,46.68964],[2.62344,46.68776],[2.62054,46.68448],[2.62216,46.68272],[2.62005,46.67972],[2.62389,46.67637],[2.62499,46.67314],[2.63369,46.67527],[2.63129,46.66602],[2.62834,46.66359],[2.62864,46.65954],[2.62391,46.65663],[2.61923,46.65866],[2.61741,46.66083],[2.60715,46.6605],[2.60726,46.66963],[2.60543,46.67121],[2.59777,46.66465],[2.59431,46.66668],[2.59261,46.66543],[2.58449,46.66423],[2.58148,46.66186],[2.57455,46.6612],[2.57055,46.65927],[2.56975,46.655],[2.56713,46.65374],[2.56674,46.65293],[2.56928,46.65091],[2.58959,46.64803],[2.5931,46.64658],[2.59316,46.64433],[2.59511,46.6423],[2.59665,46.63722],[2.59158,46.62967],[2.58603,46.62757],[2.58425,46.62582],[2.58639,46.6228],[2.5858,46.62001],[2.58832,46.61596],[2.58688,46.61466],[2.58132,46.61409],[2.5757,46.61126],[2.56838,46.60938],[2.5738,46.60735],[2.57778,46.60788],[2.57821,46.60127],[2.58156,46.59316],[2.58966,46.59441],[2.59233,46.59372],[2.59418,46.59719],[2.60011,46.59524],[2.5975,46.59497],[2.59716,46.5929],[2.60029,46.5919],[2.6032,46.58785],[2.60199,46.58124],[2.60615,46.57935],[2.6068,46.57764],[2.60529,46.57715],[2.60562,46.57539],[2.60938,46.57133],[2.60845,46.56679],[2.60347,46.56523],[2.60328,46.56428],[2.60464,46.56229],[2.60953,46.56314],[2.61102,46.56111],[2.60919,46.55941],[2.60957,46.55689],[2.61478,46.55589],[2.61496,46.55328],[2.60986,46.55014],[2.59778,46.54774],[2.5835,46.54274],[2.57537,46.53816],[2.57249,46.53385],[2.55324,46.52939],[2.54555,46.52621],[2.53665,46.5197],[2.53008,46.52214],[2.52937,46.52327],[2.53076,46.52943],[2.52861,46.52948],[2.52737,46.52823],[2.52053,46.53089],[2.51225,46.52806],[2.51355,46.52595],[2.5123,46.52533],[2.51243,46.52389],[2.50708,46.52164],[2.50551,46.52146],[2.50519,46.52281],[2.50264,46.52142],[2.49718,46.52152],[2.49581,46.52674],[2.49695,46.53367],[2.48293,46.5327],[2.47001,46.52601],[2.45776,46.52517],[2.45723,46.52413],[2.44973,46.52171],[2.44986,46.52068],[2.44549,46.52005],[2.44282,46.52114],[2.44171,46.52496],[2.43006,46.52654],[2.42203,46.52574],[2.418,46.52358],[2.41695,46.52057],[2.38847,46.51825],[2.3683,46.51843],[2.35985,46.51588],[2.35157,46.51214],[2.34461,46.50552],[2.33887,46.50355],[2.33653,46.50094],[2.33464,46.50103],[2.33308,46.49694],[2.32889,46.49549],[2.32929,46.49275],[2.32377,46.49011],[2.32396,46.48834],[2.32533,46.48817],[2.325,46.48645],[2.32891,46.48434],[2.32983,46.47854],[2.32747,46.47606],[2.32787,46.47377],[2.32553,46.47296],[2.32299,46.46968],[2.32071,46.46851],[2.31667,46.46855],[2.30547,46.47543],[2.30079,46.47237],[2.29818,46.4685],[2.29683,46.46319],[2.28837,46.45622],[2.28335,46.44928],[2.28457,46.43986],[2.28045,46.42985],[2.27694,46.42513],[2.2815,46.42166],[2.28105,46.42041],[2.26946,46.42296],[2.25483,46.42299],[2.25456,46.4256],[2.24987,46.42636],[2.24441,46.42578],[2.2333,46.42239],[2.22835,46.42504],[2.22367,46.42266],[2.22035,46.42328],[2.21839,46.42504],[2.21424,46.42319],[2.19757,46.4283],[2.19419,46.42599],[2.18516,46.42328],[2.17254,46.42228],[2.16779,46.42407],[2.15803,46.42235],[2.14587,46.42435],[2.14203,46.42142],[2.12701,46.4191],[2.12552,46.42058],[2.12037,46.42205],[2.11855,46.42223],[2.117,46.42097],[2.1155,46.42195],[2.11205,46.42038],[2.1098,46.41439],[2.10421,46.41195],[2.10332,46.40947],[2.08894,46.4089],[2.08875,46.41034],[2.07936,46.41247],[2.0742,46.41984],[2.06404,46.42139],[2.04518,46.42095],[2.03768,46.42394],[2.02941,46.42459],[2.02595,46.42764],[2.02034,46.42943],[2.00473,46.42916],[1.99308,46.43092],[1.99078,46.43523],[1.9883,46.4345],[1.97875,46.44152],[1.97811,46.43977],[1.96544,46.43951],[1.96076,46.4381],[1.95224,46.43763],[1.94387,46.43399],[1.93484,46.43207],[1.92424,46.43195],[1.92481,46.43375],[1.92169,46.43406],[1.92148,46.43613],[1.92269,46.43793],[1.92087,46.43828],[1.92053,46.44008],[1.91669,46.44038],[1.91413,46.44321],[1.90918,46.4435],[1.90246,46.43781],[1.89983,46.43856],[1.89751,46.43788],[1.89027,46.44118],[1.88493,46.44093],[1.88312,46.43967],[1.88511,46.43732],[1.88421,46.43575],[1.88667,46.43558],[1.8868,46.43415],[1.88456,46.4343],[1.88344,46.43255],[1.87537,46.43221],[1.85458,46.43392],[1.84571,46.43146],[1.8462,46.4284],[1.83978,46.42572],[1.83734,46.42831],[1.83481,46.42808],[1.83357,46.42925],[1.83018,46.42954],[1.82746,46.42818],[1.8195,46.43004],[1.81693,46.4321],[1.81919,46.43534],[1.81629,46.4392],[1.81733,46.43985],[1.80314,46.44692],[1.79838,46.45482],[1.7898,46.45302],[1.78652,46.45525],[1.77977,46.45365],[1.77599,46.45408],[1.77133,46.45243],[1.75434,46.45212],[1.74759,46.45002],[1.7543,46.44308],[1.75882,46.44026],[1.75476,46.43809],[1.75812,46.43352],[1.76027,46.42714],[1.75434,46.42135],[1.75333,46.41851],[1.74865,46.413],[1.75055,46.40558],[1.73922,46.40125],[1.73504,46.39601],[1.72922,46.3936],[1.72704,46.39021],[1.71957,46.39026],[1.7109,46.39206],[1.70616,46.39719],[1.70375,46.39667],[1.70186,46.39803],[1.70282,46.39926],[1.70215,46.40029],[1.69772,46.40157],[1.70088,46.40347],[1.69957,46.40455],[1.70021,46.40541],[1.69217,46.40882],[1.69248,46.4108],[1.6836,46.41818],[1.67784,46.41558],[1.67024,46.40968],[1.66262,46.40569],[1.65502,46.39493],[1.64501,46.38916],[1.64485,46.38682],[1.6424,46.38514],[1.63633,46.38632],[1.63273,46.38908],[1.62675,46.38851],[1.62503,46.3911],[1.62622,46.39403],[1.62166,46.39477],[1.62157,46.39738],[1.61992,46.39877],[1.61537,46.39842],[1.61425,46.39953],[1.61475,46.40678],[1.62217,46.41583],[1.62266,46.41826],[1.62001,46.42166],[1.61641,46.42272],[1.61201,46.42112],[1.60925,46.42312],[1.59864,46.41914],[1.59844,46.41523],[1.5954,46.40864],[1.58755,46.40706],[1.5876,46.40814],[1.58188,46.40778],[1.57862,46.41048],[1.57515,46.40653],[1.57144,46.40623],[1.56002,46.40012],[1.55985,46.39791],[1.55379,46.39433],[1.5462,46.39346],[1.54503,46.39786],[1.54685,46.40615],[1.5436,46.41103],[1.54409,46.4191],[1.54024,46.42062],[1.53592,46.42065],[1.53328,46.42284],[1.53654,46.42475],[1.53401,46.42635],[1.53325,46.42514],[1.52671,46.42686],[1.52191,46.4264],[1.52148,46.42437],[1.51974,46.42323],[1.51123,46.42063],[1.50943,46.41268],[1.50048,46.40641],[1.50008,46.3988],[1.49839,46.39856],[1.49793,46.395],[1.49695,46.39464],[1.49293,46.39834],[1.47766,46.39391],[1.47256,46.38343],[1.46892,46.3839],[1.46635,46.38136],[1.4682,46.37935],[1.46535,46.37478],[1.46214,46.37608],[1.45305,46.37626],[1.44925,46.37399],[1.44643,46.375],[1.44558,46.37157],[1.44254,46.37052],[1.44153,46.36902],[1.44295,46.36516],[1.4349,46.36467],[1.43588,46.36038],[1.44036,46.35637],[1.43092,46.35436],[1.42996,46.35328],[1.42819,46.35416],[1.41768,46.34958],[1.41675,46.34719],[1.41079,46.34992],[1.41037,46.35523],[1.40905,46.35657],[1.40903,46.36134],[1.40561,46.36396],[1.40255,46.36452],[1.40055,46.36748],[1.39469,46.36761],[1.39657,46.3719],[1.39157,46.371],[1.38353,46.37476],[1.37752,46.38281],[1.36074,46.39739],[1.35602,46.40012],[1.35135,46.40022],[1.34825,46.3988],[1.34429,46.40155],[1.33805,46.39816],[1.32671,46.39568],[1.32546,46.39644],[1.31391,46.39538],[1.3126,46.39272],[1.31877,46.39268],[1.31945,46.39094],[1.32214,46.38979],[1.32281,46.38548],[1.32048,46.38163],[1.31114,46.38353],[1.30752,46.37886],[1.31126,46.37755],[1.31516,46.37385],[1.30306,46.37099],[1.30206,46.37251],[1.29181,46.37481],[1.28367,46.37234],[1.27955,46.37649],[1.26897,46.37635],[1.2604,46.37878],[1.25095,46.37703],[1.24511,46.37324],[1.24087,46.36758],[1.23816,46.3662],[1.23737,46.36713],[1.23348,46.36625],[1.23066,46.36779],[1.22907,46.36629],[1.22495,46.36674],[1.22368,46.36907],[1.22128,46.3686],[1.21964,46.36598],[1.21644,46.36743],[1.21158,46.37894],[1.21612,46.38263],[1.21466,46.38706],[1.20973,46.38976],[1.20554,46.38815],[1.19774,46.382],[1.19166,46.38005],[1.19281,46.37825],[1.19154,46.37676],[1.18855,46.37659],[1.18599,46.37797],[1.18219,46.37608],[1.17914,46.38253],[1.17728,46.38395],[1.19682,46.40129],[1.19211,46.40547],[1.19319,46.4098],[1.19652,46.41176],[1.19986,46.4172],[1.20458,46.42188],[1.2064,46.42195],[1.20685,46.42514],[1.21269,46.43222],[1.20993,46.43385],[1.20386,46.4346],[1.20063,46.43101],[1.19849,46.43149],[1.19589,46.42926],[1.18649,46.42813],[1.1834,46.42923],[1.18596,46.43501],[1.18685,46.43986],[1.18602,46.44109],[1.176,46.44404],[1.17517,46.44322],[1.16892,46.44631],[1.15736,46.44772],[1.15667,46.44695],[1.15182,46.4487],[1.13551,46.47089],[1.15736,46.46945],[1.1416,46.48435],[1.13341,46.49763],[1.14131,46.49749],[1.14914,46.5022],[1.14594,46.5064],[1.12527,46.52125],[1.11116,46.52858],[1.10829,46.53151],[1.09133,46.53767],[1.08759,46.53817],[1.07828,46.53514],[1.07575,46.53709],[1.06981,46.53748],[1.06821,46.53881],[1.06654,46.53812],[1.06572,46.53986],[1.05411,46.53717],[1.05306,46.53779],[1.05069,46.53582],[1.03839,46.53757],[1.03789,46.53675],[1.02291,46.53591],[1.02041,46.53714],[1.01998,46.54109],[1.02494,46.54948],[1.01998,46.55733],[1.01936,46.56381],[1.01476,46.56776],[0.98724,46.56556],[0.98635,46.56693],[0.98358,46.56689],[0.98581,46.56985],[0.98201,46.57327],[0.97363,46.57461],[0.96367,46.57107],[0.95874,46.5751],[0.95749,46.57806],[0.95388,46.57896],[0.94873,46.57849],[0.94635,46.58013],[0.94137,46.58088],[0.93785,46.58587],[0.93529,46.58634],[0.93473,46.58772],[0.93665,46.58914],[0.93776,46.59442],[0.92235,46.59459],[0.91587,46.59663],[0.91602,46.5993],[0.91055,46.60179],[0.91129,46.60327],[0.90851,46.60463],[0.90732,46.60754],[0.90935,46.60964],[0.90845,46.61408],[0.90453,46.61434],[0.90643,46.61914],[0.89929,46.62211],[0.8958,46.6258],[0.8943,46.62574],[0.8939,46.62861],[0.89891,46.63663],[0.90374,46.6416],[0.90812,46.64418],[0.90643,46.6486],[0.91775,46.65059],[0.91324,46.65796],[0.90671,46.66557],[0.91207,46.6727],[0.91071,46.67718],[0.90324,46.67808],[0.90205,46.67852],[0.90266,46.68001],[0.90755,46.68304],[0.90953,46.68226],[0.91891,46.69119],[0.92377,46.69282],[0.92789,46.69265],[0.92796,46.69539],[0.92495,46.69999],[0.91682,46.70866],[0.91357,46.71047],[0.9132,46.71416],[0.91414,46.71583],[0.90805,46.71876],[0.91323,46.72571],[0.91095,46.72767],[0.90893,46.72715],[0.90308,46.73063],[0.90182,46.73623],[0.89662,46.73509],[0.8954,46.73696],[0.88778,46.7379],[0.88506,46.7394],[0.87865,46.73864],[0.87744,46.74263],[0.86997,46.74537],[0.86495,46.75201],[0.86034,46.75523],[0.85869,46.75827],[0.85902,46.76039],[0.84788,46.7607],[0.84327,46.76383],[0.8418,46.76773],[0.83702,46.76992],[0.83382,46.77437],[0.82798,46.77682],[0.82743,46.77825],[0.82966,46.78489],[0.82804,46.7868],[0.81502,46.78851],[0.81166,46.79639],[0.8121,46.79901],[0.81709,46.80348],[0.81646,46.80487],[0.81006,46.80856],[0.80932,46.82786],[0.80522,46.83131],[0.79509,46.83252],[0.7908,46.83557],[0.7868,46.84046],[0.78709,46.84425],[0.79645,46.84681],[0.79646,46.84896],[0.79384,46.85122],[0.79033,46.85239],[0.78237,46.8512],[0.76747,46.85145],[0.7664,46.85629],[0.77199,46.86064],[0.77247,46.86232],[0.77002,46.86511],[0.76503,46.8654],[0.75686,46.85999],[0.75405,46.85963],[0.75211,46.86087],[0.74733,46.86939],[0.73368,46.87604],[0.73062,46.88212],[0.72674,46.88674],[0.70432,46.90329],[0.7036,46.90765],[0.70458,46.91203],[0.70816,46.91523],[0.70893,46.91812],[0.70779,46.92116],[0.70303,46.92627],[0.70621,46.93621],[0.70438,46.94433],[0.70166,46.94996],[0.69618,46.95681],[0.6946,46.96367],[0.6955,46.96864],[0.69257,46.97431],[0.67893,46.97753],[0.66163,46.97809],[0.65858,46.9798],[0.65646,46.98543],[0.64769,46.98827],[0.64532,46.98838],[0.63687,46.98529],[0.63341,46.98672],[0.62772,46.98996],[0.6268,46.99201],[0.62202,46.99555],[0.6217,46.99923],[0.62385,47.00394],[0.61887,47.00746],[0.61333,47.00801],[0.60116,47.00608],[0.59056,47.00672],[0.57635,47.00453],[0.56774,47.00629],[0.56735,47.00012],[0.57369,46.99553],[0.57445,46.99289],[0.57264,46.98737],[0.57404,46.98285],[0.57834,46.97981],[0.59354,46.97762],[0.60118,46.97309],[0.6017,46.95889],[0.60011,46.95742],[0.59389,46.95638],[0.58755,46.95719],[0.56442,46.95553],[0.54336,46.96042],[0.53929,46.96022],[0.52775,46.95577],[0.52155,46.95841],[0.51343,46.95559],[0.50519,46.9599],[0.50065,46.95633],[0.48686,46.95426],[0.47662,46.94986],[0.45784,46.94596],[0.45109,46.94179],[0.4448,46.94115],[0.44296,46.93559],[0.43871,46.92958],[0.43388,46.93238],[0.42928,46.93243],[0.42435,46.93433],[0.41898,46.93748],[0.40536,46.93613],[0.38815,46.94363],[0.38701,46.94217],[0.36652,46.94956],[0.3622,46.94705],[0.36052,46.9481],[0.35252,46.9422],[0.35177,46.93967],[0.34929,46.93724],[0.34116,46.93679],[0.32383,46.93145],[0.31123,46.93784],[0.30738,46.94596],[0.30767,46.94844],[0.30534,46.9511],[0.30564,46.95357],[0.3013,46.95575],[0.30787,46.9628],[0.3009,46.96794],[0.30067,46.9705],[0.29821,46.97126],[0.30074,46.97383],[0.30804,46.97738],[0.30655,46.97992],[0.30293,46.98188],[0.30572,46.98481],[0.30553,46.98616],[0.29806,46.98359],[0.29187,46.98924],[0.30405,46.99058],[0.305,46.99492],[0.3116,46.99625],[0.31297,46.99803],[0.30884,46.99944],[0.30497,47.00261],[0.304,47.00566],[0.30535,47.00658],[0.30703,47.01097],[0.30559,47.01086],[0.30467,47.01413],[0.3026,47.01499],[0.29867,47.0196],[0.30225,47.02259],[0.30544,47.02166],[0.30659,47.02424],[0.31029,47.02574],[0.30958,47.03064],[0.30573,47.03837],[0.30933,47.04413],[0.30538,47.0527],[0.29823,47.05392],[0.29555,47.05167],[0.29306,47.05293],[0.28608,47.0479],[0.27951,47.04594],[0.27185,47.04639],[0.26817,47.04282],[0.26724,47.04496],[0.26429,47.04635],[0.26677,47.04868],[0.26515,47.05473],[0.26187,47.05431],[0.25999,47.05558],[0.26556,47.06117],[0.26453,47.06223],[0.26794,47.06612],[0.26762,47.0675],[0.26106,47.07022],[0.25999,47.06895],[0.24554,47.07129],[0.24115,47.0708],[0.23916,47.06767],[0.23516,47.06916],[0.23282,47.06656],[0.23324,47.06405],[0.22979,47.06317],[0.22773,47.06044],[0.22627,47.06073],[0.215,47.05601],[0.21381,47.05424],[0.208,47.05323],[0.20693,47.05501],[0.2006,47.05867],[0.20069,47.05971],[0.19882,47.06049],[0.19739,47.0628],[0.19224,47.0654],[0.18932,47.06081],[0.17997,47.05919],[0.17577,47.06064],[0.17686,47.06471],[0.17401,47.06682],[0.17422,47.07128],[0.18214,47.07898],[0.18429,47.07939],[0.18709,47.08223],[0.19276,47.08368],[0.19447,47.08678],[0.20095,47.09139],[0.19486,47.09564],[0.19385,47.09774],[0.18711,47.10126],[0.18653,47.10417],[0.18453,47.10481],[0.1857,47.10925],[0.18316,47.11438],[0.17369,47.11213],[0.16598,47.10716],[0.16353,47.10424],[0.16256,47.10071],[0.15298,47.10444],[0.14591,47.10489],[0.14645,47.10616],[0.13908,47.10602],[0.13472,47.10787],[0.13343,47.115],[0.13694,47.118],[0.14039,47.12387],[0.13502,47.12129],[0.12716,47.11997],[0.12292,47.12866],[0.11924,47.12846],[0.11782,47.12937],[0.11106,47.12857],[0.11118,47.13028],[0.10709,47.12871],[0.10771,47.12508],[0.10462,47.1248],[0.10472,47.1208],[0.09714,47.12055],[0.09009,47.12218],[0.08417,47.11867],[0.08135,47.11854],[0.07962,47.12017],[0.07963,47.12314],[0.07637,47.12393],[0.07903,47.12966],[0.08132,47.13181],[0.08198,47.13646],[0.07956,47.13907],[0.07839,47.14633],[0.0656,47.14306],[0.06554,47.14775],[0.0629,47.14779],[0.06155,47.15492],[0.05857,47.15647],[0.05502,47.16051],[0.05358,47.16056],[0.055,47.1659],[0.06348,47.17619],[0.06659,47.18979],[0.06194,47.19051],[0.06041,47.19247],[0.05297,47.19677],[0.06072,47.20849],[0.06241,47.20767],[0.06594,47.21007],[0.067,47.21142],[0.06571,47.21334],[0.06819,47.21578],[0.07452,47.21444],[0.07631,47.21617],[0.07932,47.21677],[0.0768,47.22014],[0.07245,47.21988],[0.07152,47.22314],[0.07315,47.22385],[0.0729,47.22637],[0.07444,47.22761],[0.07385,47.23687],[0.06984,47.24102],[0.06793,47.24733],[0.07483,47.24805],[0.07495,47.24999],[0.07751,47.25355],[0.07477,47.26213],[0.08052,47.26513],[0.0794,47.26676],[0.08145,47.26973],[0.08011,47.27168],[0.08387,47.275],[0.08864,47.27539],[0.09,47.28164],[0.08976,47.2829],[0.07951,47.28278],[0.0786,47.28394],[0.08575,47.28993],[0.08699,47.29338],[0.09401,47.30278],[0.096,47.30404],[0.09909,47.3031],[0.09824,47.30601],[0.09901,47.30814],[0.10925,47.31342],[0.11303,47.3179],[0.11831,47.32624],[0.11746,47.33234],[0.12697,47.33279],[0.13801,47.33616],[0.1426,47.3423],[0.1473,47.34538],[0.14797,47.34845],[0.14593,47.35467],[0.14041,47.3618],[0.1494,47.36226],[0.15359,47.36359],[0.16208,47.36761],[0.16371,47.36989],[0.18339,47.38123],[0.18252,47.38302],[0.17948,47.38441],[0.16751,47.38562],[0.1695,47.39564],[0.15776,47.39889],[0.15386,47.39873],[0.1604,47.40416],[0.1663,47.404],[0.16974,47.40735],[0.17448,47.41486],[0.17668,47.41432],[0.17916,47.41697],[0.18085,47.41615],[0.18528,47.42473],[0.18299,47.43374],[0.18094,47.45341],[0.1905,47.46128],[0.19493,47.47495],[0.19885,47.47641],[0.199,47.48114],[0.20092,47.48279],[0.19977,47.48341],[0.20186,47.48592],[0.20359,47.4859],[0.2098,47.49465],[0.22011,47.50195],[0.21911,47.50945],[0.22216,47.51805],[0.22028,47.51982],[0.2236,47.52186],[0.22606,47.52659],[0.21752,47.52922],[0.21561,47.52396],[0.21409,47.5238],[0.20953,47.52646],[0.20662,47.52641],[0.20316,47.52792],[0.20671,47.53235],[0.20555,47.53466],[0.19421,47.53751],[0.19334,47.53911],[0.19951,47.54121],[0.19994,47.54527],[0.20408,47.54814],[0.20491,47.5522],[0.20908,47.55772],[0.20655,47.56105],[0.21511,47.56997],[0.21512,47.57299],[0.22399,47.57383],[0.2304,47.5766],[0.23152,47.57832],[0.23434,47.57793],[0.23439,47.58009],[0.22954,47.58464],[0.23145,47.58512],[0.23393,47.58989],[0.23373,47.59294],[0.23195,47.59629],[0.23243,47.60579],[0.23,47.6084],[0.2321,47.61082],[0.23613,47.6117],[0.23989,47.61052],[0.24595,47.61062],[0.25316,47.61331],[0.25515,47.61169],[0.25925,47.61225],[0.26245,47.60885],[0.26784,47.60867],[0.26993,47.60471],[0.26795,47.60265],[0.27218,47.60129],[0.27562,47.59838],[0.28922,47.59789],[0.31001,47.5948],[0.3221,47.59523],[0.32483,47.59168],[0.32964,47.59091],[0.33223,47.58952],[0.33332,47.5871],[0.33844,47.58503],[0.33979,47.5829],[0.33972,47.57938],[0.34854,47.57652],[0.35405,47.57694],[0.35804,47.57502],[0.36262,47.57505],[0.36786,47.57209],[0.37183,47.57048],[0.37576,47.57042],[0.37848,47.56853],[0.38449,47.57078],[0.38437,47.57227],[0.39135,47.57652],[0.40238,47.57842],[0.39878,47.58272],[0.39807,47.5855],[0.39588,47.58677],[0.39696,47.59399],[0.39443,47.5944],[0.39042,47.59851],[0.38638,47.60353],[0.38346,47.61019],[0.37421,47.6125],[0.36426,47.62051],[0.36421,47.62529],[0.38108,47.63907],[0.38279,47.64309],[0.38685,47.64132],[0.39625,47.64085],[0.39768,47.63827],[0.40328,47.63445],[0.40772,47.63294],[0.40934,47.63054],[0.40949,47.62641],[0.41369,47.62616],[0.41823,47.62385],[0.41974,47.62091],[0.42391,47.61783],[0.44167,47.61991],[0.44993,47.61933],[0.45693,47.6284],[0.45355,47.63163],[0.45307,47.63378],[0.45663,47.63883],[0.46269,47.64261],[0.46174,47.64424],[0.46401,47.64561],[0.46614,47.64426],[0.47244,47.64718],[0.47536,47.64735],[0.47679,47.64482],[0.47976,47.64329],[0.48995,47.64517],[0.49297,47.64449],[0.49562,47.64507],[0.49682,47.64662],[0.49842,47.64476],[0.51326,47.65286],[0.51612,47.65664],[0.52296,47.6531],[0.53702,47.65665],[0.54375,47.65631],[0.55171,47.65917],[0.55601,47.66437],[0.5596,47.66617],[0.55879,47.6708],[0.57105,47.66851],[0.57794,47.66947],[0.57912,47.66782],[0.58649,47.66892],[0.59688,47.67285],[0.60009,47.67734],[0.60451,47.67817],[0.60487,47.68072],[0.60787,47.68108],[0.60783,47.68238],[0.61481,47.68275],[0.61586,47.6874],[0.61719,47.6871],[0.61907,47.69091],[0.61885,47.69348],[0.61443,47.69421],[0.60419,47.68561],[0.59557,47.68832],[0.5916,47.69771],[0.59444,47.70031],[0.5933,47.70088],[0.59297,47.70359],[0.58032,47.71238],[0.58114,47.71356],[0.59409,47.72311],[0.60154,47.72578],[0.60902,47.7253],[0.61234,47.72995],[0.61067,47.73204],[0.62052,47.73888],[0.61875,47.74169],[0.61943,47.74557],[0.62121,47.74829],[0.62333,47.7485],[0.62427,47.75049],[0.62756,47.75194],[0.63612,47.75139],[0.64535,47.75283],[0.65127,47.75525],[0.65371,47.75812],[0.65716,47.75853],[0.6647,47.76265],[0.67182,47.76792],[0.67697,47.76953],[0.68168,47.76797],[0.68295,47.76601],[0.6893,47.76538],[0.69143,47.76383],[0.69735,47.76419],[0.6981,47.76586],[0.70254,47.76682],[0.70357,47.76778],[0.70344,47.76994],[0.69997,47.77448],[0.68932,47.78],[0.69122,47.78339],[0.69838,47.78925],[0.70102,47.79006],[0.71213,47.78715],[0.71453,47.79376],[0.71949,47.79275],[0.72343,47.79928],[0.72644,47.79918],[0.73219,47.80767],[0.73584,47.80817],[0.74021,47.8116],[0.73947,47.81407],[0.7403,47.81543],[0.73841,47.8159],[0.74624,47.82464],[0.7454,47.82566],[0.74587,47.82756],[0.75792,47.83146],[0.75886,47.83354],[0.76345,47.83405],[0.76841,47.8311],[0.77471,47.83937],[0.7736,47.84178],[0.77485,47.84381],[0.77193,47.84554],[0.77435,47.84697],[0.77289,47.84929],[0.77387,47.85033],[0.76834,47.85381],[0.76553,47.85423],[0.75916,47.85922],[0.7636,47.86297],[0.76264,47.86354],[0.76469,47.86658],[0.76157,47.8727],[0.76,47.88293],[0.75763,47.88381],[0.75709,47.88578],[0.75733,47.89117],[0.76018,47.89886],[0.77091,47.90252],[0.77574,47.90874],[0.7767,47.90821],[0.78051,47.91038],[0.78605,47.91063],[0.78569,47.9117],[0.79002,47.91221],[0.79502,47.90593],[0.79384,47.90263],[0.79507,47.89991],[0.80254,47.89578],[0.81211,47.88853],[0.81767,47.89297],[0.81467,47.8949],[0.81715,47.8971],[0.81385,47.89799],[0.81291,47.90042],[0.81522,47.90386],[0.80754,47.9079],[0.80914,47.91066],[0.81609,47.91292],[0.80842,47.91659],[0.81222,47.91961],[0.81344,47.92592],[0.8121,47.92618],[0.81175,47.92883],[0.81406,47.93232],[0.81866,47.93499],[0.83821,47.93766],[0.8487,47.94258],[0.84952,47.9472],[0.84542,47.94756],[0.84429,47.95195],[0.84546,47.95345],[0.8441,47.95618],[0.84188,47.95669],[0.8422,47.95944],[0.83745,47.96459],[0.83765,47.96869],[0.83234,47.97203],[0.82811,47.9723],[0.8246,47.97806],[0.82548,47.98018],[0.8229,47.98347],[0.81898,47.98604],[0.81866,47.98925],[0.82146,47.9893],[0.82622,47.99147],[0.82626,47.99247],[0.83237,47.99659],[0.83149,47.99932],[0.83341,48.00272],[0.8317,48.00611],[0.83308,48.00911],[0.83677,48.00881],[0.83613,48.01067],[0.83795,48.01163],[0.83732,48.01586],[0.83987,48.01593],[0.83968,48.0176],[0.84199,48.01925],[0.83878,48.02357],[0.84173,48.02585],[0.84188,48.03018],[0.83815,48.03418],[0.83498,48.03444],[0.83126,48.0335],[0.82955,48.03244],[0.82986,48.03069],[0.82673,48.02975],[0.82255,48.03101],[0.81833,48.03032],[0.81057,48.03251],[0.80837,48.03167],[0.80721,48.03247],[0.80821,48.03518],[0.80598,48.03834],[0.80381,48.03885],[0.80135,48.03828],[0.80098,48.0372],[0.79755,48.03724],[0.798,48.04261],[0.79407,48.04857],[0.79673,48.05171],[0.7959,48.05458],[0.79808,48.05609],[0.79725,48.05708],[0.7978,48.0658],[0.79398,48.06971],[0.8028,48.07163],[0.83223,48.06994],[0.84302,48.07264],[0.84492,48.08368],[0.84618,48.08456],[0.84454,48.08786],[0.84867,48.08899],[0.84817,48.0946],[0.83872,48.09417],[0.83864,48.09223],[0.84099,48.08974],[0.83793,48.08876],[0.83605,48.09099],[0.83099,48.09227],[0.82864,48.08986],[0.82793,48.09115],[0.82425,48.09083],[0.82467,48.09237],[0.82338,48.09303],[0.81517,48.09373],[0.81435,48.0988],[0.83268,48.09845],[0.84122,48.10306],[0.85537,48.12262],[0.85203,48.13157],[0.85037,48.13308],[0.86531,48.13449],[0.87036,48.13189],[0.87269,48.1325],[0.8723,48.13448],[0.8786,48.13491],[0.87931,48.13623],[0.88267,48.13371],[0.89464,48.1357],[0.91028,48.13603],[0.91367,48.13504],[0.91665,48.13894],[0.91101,48.14103],[0.90926,48.14393],[0.91162,48.14886],[0.88922,48.15898],[0.88775,48.16152],[0.87927,48.16186],[0.87296,48.16385],[0.8726,48.16249],[0.86888,48.16326],[0.8661,48.16421],[0.8653,48.16596],[0.85988,48.1676],[0.85444,48.1651],[0.84948,48.16688],[0.84364,48.1647],[0.83951,48.16567],[0.82925,48.17162],[0.82677,48.17594],[0.81736,48.1806],[0.81333,48.18076],[0.81276,48.18399],[0.81109,48.18568],[0.80551,48.18592],[0.80058,48.18883],[0.79562,48.18804],[0.79562,48.1907],[0.79766,48.19445],[0.80124,48.19621],[0.80879,48.19761],[0.80562,48.20535],[0.81049,48.20631],[0.81496,48.20579],[0.81677,48.20792],[0.82416,48.2108],[0.83048,48.21071],[0.83024,48.2143],[0.8259,48.22072],[0.81992,48.22483],[0.81706,48.2305],[0.81058,48.2337],[0.81189,48.23484],[0.80526,48.24055],[0.80465,48.24315],[0.80157,48.245],[0.80068,48.24755],[0.80241,48.24807],[0.80201,48.24991],[0.79193,48.25832],[0.79144,48.26101],[0.78907,48.26156],[0.7911,48.26558],[0.78588,48.27114],[0.78752,48.27247],[0.78773,48.27427],[0.79207,48.27798],[0.79169,48.28107],[0.79644,48.28711],[0.80707,48.28973],[0.80543,48.29088],[0.79779,48.29118],[0.79341,48.29301],[0.77835,48.30327],[0.77542,48.30198],[0.77449,48.30363],[0.77293,48.30195],[0.76868,48.30189],[0.76117,48.2985],[0.7593,48.30014],[0.75567,48.29982],[0.76272,48.30711],[0.76248,48.31038],[0.76894,48.31322],[0.76887,48.32194],[0.78087,48.33237],[0.78414,48.33363],[0.78543,48.34043],[0.79061,48.34271],[0.79353,48.34234],[0.80366,48.34518],[0.8069,48.34415],[0.81221,48.34948],[0.81498,48.34874],[0.81841,48.34942],[0.82481,48.34533],[0.82635,48.3431],[0.82854,48.34246],[0.83128,48.34542],[0.84238,48.34669],[0.84231,48.34903],[0.84351,48.34922],[0.8438,48.35107],[0.8416,48.35023],[0.84023,48.35089],[0.83993,48.35272],[0.84628,48.35155],[0.85196,48.34866],[0.85901,48.34978],[0.86181,48.35089],[0.86356,48.35375],[0.86656,48.35497],[0.87161,48.35971],[0.87286,48.35617],[0.87578,48.3553],[0.87891,48.35669],[0.8813,48.35578],[0.88228,48.35727],[0.88371,48.35671],[0.89174,48.36595],[0.8975,48.37012],[0.89639,48.37091],[0.90089,48.37384],[0.9063,48.37171],[0.90735,48.3701],[0.90903,48.37026],[0.91293,48.37306],[0.91284,48.37395],[0.91633,48.37451],[0.91428,48.37927],[0.91659,48.3796],[0.91786,48.37725],[0.92435,48.38467],[0.92653,48.3841],[0.92904,48.38864],[0.92897,48.39043],[0.93644,48.39384],[0.93613,48.39529],[0.94058,48.39835],[0.94406,48.39956],[0.95,48.39941],[0.9494,48.40197],[0.94719,48.40338],[0.94377,48.41003],[0.9445,48.41729],[0.94529,48.41812],[0.94826,48.41783],[0.94986,48.41884],[0.9496,48.41985],[0.95371,48.42145],[0.9566,48.42728],[0.96928,48.43293],[0.97642,48.43877],[0.97649,48.44111],[0.97339,48.44368],[0.97134,48.44167],[0.96932,48.44134],[0.95841,48.4426],[0.95591,48.44441],[0.95394,48.44767],[0.94748,48.45348],[0.94775,48.45578],[0.94538,48.45638],[0.94576,48.45729],[0.94189,48.45755],[0.93898,48.46083],[0.9397,48.46621],[0.93724,48.46721],[0.93834,48.46847],[0.93571,48.47555],[0.9414,48.47764],[0.9448,48.47705],[0.95371,48.48027],[0.95629,48.48228],[0.95423,48.48329],[0.95538,48.48609],[0.95564,48.48924],[0.95437,48.49057],[0.9554,48.49265],[0.94996,48.49345],[0.94403,48.49625],[0.94155,48.49869],[0.954,48.50384],[0.96227,48.51572],[0.96506,48.51782],[0.96774,48.52388],[0.95209,48.52629],[0.94954,48.52825],[0.94765,48.52809],[0.94596,48.53027],[0.93304,48.53236],[0.9317,48.53433],[0.9251,48.53564],[0.92285,48.53844],[0.92674,48.54195],[0.93104,48.54314],[0.93202,48.54683],[0.93603,48.54661],[0.93854,48.54893],[0.93876,48.55056],[0.92571,48.55965],[0.92358,48.55838],[0.90697,48.56562],[0.90399,48.56582],[0.89358,48.5718],[0.88016,48.5741],[0.86909,48.57257],[0.85939,48.57775],[0.85747,48.58051],[0.85064,48.58263],[0.84888,48.58912],[0.84989,48.59161],[0.84735,48.59706],[0.84705,48.60952],[0.83957,48.60815],[0.83629,48.60852],[0.83305,48.61077],[0.82931,48.61104],[0.8224,48.60888],[0.81964,48.60987],[0.81717,48.61546],[0.82101,48.62257],[0.82263,48.62291],[0.8238,48.62472],[0.82557,48.62929],[0.82996,48.63227],[0.82738,48.6339],[0.8231,48.63438],[0.8219,48.63607],[0.82319,48.63848],[0.823,48.64248],[0.82171,48.6444],[0.82518,48.64862],[0.81799,48.65496],[0.81878,48.65834],[0.80969,48.66244],[0.80935,48.66482],[0.82339,48.67832],[0.82767,48.68072],[0.83452,48.68098],[0.84078,48.67838],[0.84604,48.68222],[0.84931,48.68172],[0.85382,48.68556],[0.85879,48.68556],[0.86387,48.68762],[0.8604,48.69235],[0.86535,48.69727],[0.86878,48.69884],[0.86702,48.70111],[0.86711,48.70434],[0.87142,48.70814],[0.87257,48.71323],[0.88269,48.71773],[0.8863,48.71732],[0.89057,48.7204],[0.89688,48.71391],[0.89942,48.713],[0.89961,48.71053],[0.90734,48.71156],[0.90894,48.70992],[0.9201,48.7124],[0.9212,48.70918],[0.9367,48.71368],[0.94336,48.71331],[0.94966,48.71461],[0.95598,48.71725],[0.95814,48.71951],[0.95737,48.72059],[0.958,48.7224],[0.96145,48.72572],[0.97829,48.73096],[0.98503,48.72582],[0.99115,48.72572],[0.99801,48.72836],[1.00368,48.72699],[1.01665,48.72836],[1.01901,48.73378],[1.0206,48.73479],[1.02741,48.73203],[1.02913,48.72868],[1.03403,48.72846],[1.03782,48.73148],[1.03587,48.73361],[1.03403,48.73395],[1.0339,48.73935],[1.03642,48.74145],[1.04313,48.74241],[1.04719,48.74535],[1.04664,48.74804],[1.04837,48.74945],[1.05572,48.75277],[1.05907,48.75676],[1.06444,48.75939],[1.06867,48.75691],[1.06859,48.75161],[1.06968,48.74879],[1.07648,48.74994],[1.07897,48.75241],[1.08259,48.75172],[1.08229,48.75311],[1.08654,48.75724],[1.08818,48.75646],[1.08801,48.75313],[1.08996,48.75409],[1.09159,48.75119],[1.09573,48.74872],[1.10129,48.75179],[1.10092,48.75309],[1.10296,48.75307],[1.10158,48.75103],[1.10346,48.74903],[1.10522,48.74972],[1.10663,48.74843],[1.11041,48.74955],[1.11184,48.74619],[1.11454,48.74712],[1.11333,48.74913],[1.11447,48.74973],[1.11266,48.75186],[1.11917,48.75563],[1.11816,48.76016],[1.11928,48.7616],[1.11733,48.76365],[1.11821,48.76603],[1.12098,48.76725],[1.12467,48.76639],[1.12533,48.7673],[1.12034,48.77062],[1.1224,48.77086],[1.11983,48.77546],[1.1204,48.777],[1.11888,48.78336],[1.11745,48.78357],[1.1214,48.78919],[1.12897,48.78842],[1.13511,48.7852],[1.14345,48.78588],[1.14634,48.78464],[1.15116,48.78582],[1.15079,48.78137],[1.14817,48.77959],[1.14883,48.7774],[1.1535,48.77329],[1.15457,48.77372],[1.16298,48.76931],[1.18636,48.77301],[1.1971,48.76992],[1.20475,48.76639],[1.20773,48.76635],[1.21086,48.76372],[1.22305,48.75798],[1.23276,48.76336],[1.22474,48.76331],[1.22261,48.76729],[1.24623,48.76959],[1.2488,48.76772],[1.25611,48.76587],[1.25454,48.75863],[1.26049,48.75779],[1.27022,48.75748],[1.26993,48.76121],[1.27087,48.76273],[1.27999,48.76268],[1.28791,48.76432],[1.29694,48.76823],[1.31375,48.76442],[1.32118,48.76066],[1.32981,48.76096],[1.33318,48.76284],[1.33841,48.76994],[1.35013,48.7758],[1.35347,48.7792],[1.3614,48.78008],[1.36598,48.78391],[1.36878,48.78226],[1.37479,48.78118],[1.37438,48.78429],[1.37742,48.7893],[1.37696,48.79177],[1.37241,48.79852],[1.35635,48.81601],[1.35664,48.81853],[1.35947,48.82044],[1.35876,48.82827],[1.36138,48.83364],[1.36626,48.83503],[1.38168,48.8437],[1.38894,48.84561],[1.39513,48.85015],[1.39737,48.85359],[1.39686,48.85538],[1.40432,48.86057],[1.42389,48.86126],[1.4285,48.8654],[1.43203,48.86628],[1.44132,48.865],[1.44902,48.86934],[1.46062,48.8723],[1.46153,48.8746],[1.46297,48.87448],[1.46536,48.8776],[1.46684,48.88374],[1.4664,48.88881],[1.47088,48.89446],[1.47128,48.89783],[1.46538,48.89999],[1.46143,48.8996],[1.46066,48.90103],[1.46233,48.90344],[1.4605,48.91008],[1.45519,48.91328],[1.45932,48.91465],[1.45263,48.91869],[1.45172,48.91976],[1.45243,48.9222],[1.44796,48.92464],[1.45977,48.92782],[1.45954,48.93305],[1.46131,48.93756],[1.47151,48.93965],[1.48065,48.94049],[1.49013,48.93615],[1.49869,48.93882],[1.49885,48.94098],[1.50152,48.94105],[1.51201,48.93447],[1.51123,48.9319],[1.50845,48.93097],[1.50734,48.9276],[1.51101,48.92365],[1.51419,48.92195],[1.51864,48.92535],[1.5384,48.92251],[1.54087,48.91681],[1.54525,48.91299],[1.54528,48.91092],[1.5413,48.90836],[1.53843,48.90848],[1.53917,48.90489],[1.54204,48.90365],[1.54354,48.90093],[1.54612,48.90121],[1.54997,48.89872],[1.54958,48.89768],[1.55097,48.89625],[1.5533,48.89546],[1.5534,48.89326],[1.56374,48.89063],[1.56105,48.88769],[1.56196,48.88715],[1.55978,48.88205],[1.55624,48.88221],[1.55618,48.88087],[1.55136,48.87516],[1.54836,48.87595],[1.54623,48.87243],[1.55522,48.86507],[1.55884,48.86424],[1.56049,48.86781],[1.56945,48.86567],[1.57804,48.86087],[1.58404,48.86051],[1.57977,48.85045],[1.5783,48.8491],[1.57727,48.84436],[1.58662,48.8432],[1.59347,48.84101],[1.59294,48.84001],[1.59785,48.83906],[1.59392,48.83372],[1.58427,48.83253],[1.57898,48.82944],[1.58409,48.8266],[1.5895,48.81953],[1.5912,48.81487],[1.58323,48.81067],[1.58071,48.81056],[1.57943,48.80889],[1.58343,48.80717],[1.58202,48.80532],[1.57725,48.8052],[1.57999,48.79991],[1.57817,48.79877],[1.5793,48.79635],[1.57754,48.79553],[1.58096,48.79375],[1.57529,48.79115],[1.57703,48.78879],[1.57603,48.78743],[1.57663,48.78302],[1.57783,48.78124],[1.58112,48.77992],[1.5804,48.77756],[1.58422,48.77727],[1.58308,48.77582],[1.58759,48.7736],[1.58146,48.76552],[1.58491,48.7633],[1.58281,48.76237],[1.58547,48.76172],[1.60834,48.76075],[1.60974,48.75765],[1.62654,48.74805],[1.6218,48.74194],[1.62343,48.74141],[1.62026,48.73601],[1.61583,48.73615],[1.61008,48.72887],[1.60376,48.72484],[1.60124,48.72051],[1.59702,48.72106],[1.59411,48.71609],[1.5876,48.71062],[1.59183,48.70884],[1.59171,48.70772],[1.57685,48.70258],[1.58512,48.69926],[1.58219,48.69605],[1.58695,48.69505],[1.5912,48.69251],[1.59436,48.69483],[1.60539,48.68926],[1.61177,48.68947],[1.61066,48.6854],[1.60586,48.67876],[1.60469,48.67524],[1.608,48.6723],[1.60128,48.66834],[1.60146,48.6652],[1.60312,48.66242],[1.6086,48.65899],[1.61295,48.65435],[1.62122,48.64958],[1.62276,48.65072],[1.63142,48.64848],[1.6432,48.65129],[1.64385,48.64806],[1.63832,48.6451],[1.65042,48.63744],[1.6493,48.63541],[1.64957,48.63227],[1.65699,48.62966],[1.65653,48.62867],[1.65824,48.62764],[1.65517,48.62272],[1.66622,48.61371],[1.66738,48.61412],[1.66794,48.61709],[1.67442,48.61471],[1.67889,48.61878],[1.68491,48.61983],[1.69063,48.61741],[1.68232,48.6156],[1.6871,48.61117],[1.68958,48.61165],[1.69091,48.61414],[1.69258,48.61464],[1.70282,48.61181],[1.71466,48.61468],[1.71677,48.6103],[1.71848,48.60992],[1.71719,48.60756],[1.71877,48.60574],[1.71381,48.59968],[1.71413,48.59806],[1.70912,48.59532],[1.70199,48.585],[1.7103,48.58136],[1.70925,48.57802],[1.72742,48.5726],[1.73178,48.57554],[1.73683,48.57228],[1.74284,48.57326],[1.74389,48.57246],[1.74586,48.57614],[1.75314,48.57457],[1.7574,48.57496],[1.75871,48.57316],[1.76533,48.56937],[1.76223,48.5676],[1.76359,48.56712],[1.76273,48.56513],[1.76796,48.55896],[1.77666,48.55545],[1.77885,48.55357],[1.77818,48.55263],[1.78725,48.55374],[1.7838,48.54672],[1.78417,48.54482],[1.7809,48.54],[1.78206,48.53947],[1.77939,48.53599],[1.77575,48.52771],[1.77837,48.51768],[1.77617,48.51443],[1.77684,48.50931],[1.77989,48.50956],[1.78303,48.50022],[1.78905,48.50016],[1.78881,48.49759],[1.79064,48.49684],[1.78564,48.49008],[1.7921,48.48786],[1.79164,48.48673],[1.79462,48.48593],[1.7943,48.48517],[1.79634,48.48419],[1.79156,48.48124],[1.79525,48.47748],[1.80321,48.47257],[1.80126,48.47166],[1.80311,48.46902],[1.80145,48.46604],[1.81573,48.4657],[1.83214,48.46758],[1.83659,48.46709],[1.83562,48.46356],[1.83989,48.45651],[1.8396,48.45232],[1.84413,48.45203],[1.84416,48.44938],[1.84557,48.44934],[1.84599,48.44747],[1.84492,48.4461],[1.85762,48.44678],[1.85779,48.44557],[1.8638,48.44447],[1.86402,48.442],[1.86639,48.44215],[1.87169,48.43978],[1.89188,48.44031],[1.90426,48.43861],[1.90451,48.43999],[1.9064,48.44015],[1.90709,48.44536],[1.91163,48.44548],[1.91188,48.44776],[1.92074,48.44775],[1.92326,48.45338],[1.92215,48.4576],[1.92945,48.45696],[1.92792,48.45461],[1.93063,48.45372],[1.92855,48.45097],[1.93282,48.44968],[1.93144,48.44482],[1.93449,48.44379],[1.93296,48.44204],[1.93553,48.4407],[1.94033,48.44166],[1.94289,48.44109],[1.93633,48.43481],[1.93916,48.43428],[1.93911,48.43199],[1.93682,48.43126],[1.93676,48.43005],[1.93853,48.42871],[1.93698,48.4278],[1.93747,48.42641],[1.94072,48.42548],[1.93961,48.41958],[1.93219,48.42036],[1.93194,48.41631],[1.92762,48.41634],[1.92589,48.41274],[1.93273,48.41069],[1.92837,48.40605],[1.93212,48.40341],[1.94642,48.40634],[1.96223,48.40433],[1.97149,48.40162],[1.97824,48.402],[1.97651,48.39952],[1.97724,48.39917],[1.97335,48.39577],[1.97416,48.38979],[1.96934,48.38394],[1.96826,48.38412],[1.96672,48.38042],[1.97631,48.38027],[1.97781,48.37857],[1.98031,48.37826],[1.98012,48.37484],[1.98215,48.37485],[1.98149,48.3726],[1.97988,48.37183],[1.98022,48.37021],[1.97801,48.36886],[1.98415,48.36834],[1.98458,48.3651],[1.98903,48.36358],[1.97331,48.35581],[1.97291,48.35405],[1.97547,48.34726],[1.97447,48.34699],[1.97536,48.34479],[1.96971,48.34329],[1.97059,48.34226],[1.9687,48.34131],[1.98234,48.32832],[1.9745,48.32317],[1.98065,48.31877],[1.97924,48.31855],[1.97909,48.31266],[1.9745,48.3126],[1.97346,48.31591],[1.95923,48.30869],[1.95987,48.3075],[1.9588,48.30664],[1.96222,48.30555],[1.96114,48.30478],[1.9652,48.29516],[1.97273,48.29672],[1.97141,48.29353],[1.97436,48.29394],[1.97543,48.29606],[1.98237,48.29545],[1.98038,48.29225],[1.97451,48.29291],[1.97272,48.28822],[1.98073,48.28706],[1.98134,48.28821],[1.98985,48.28643],[1.99025,48.2877],[2.00333,48.28625],[2.00468,48.28477],[2.00724,48.28469],[2.02003,48.28607],[2.02015,48.2877],[2.02433,48.28788],[2.02499,48.28923],[2.0374,48.28823],[2.03694,48.28638],[2.04126,48.28438],[2.05193,48.29098],[2.05271,48.29547],[2.06728,48.29402],[2.08534,48.29401],[2.08938,48.29528],[2.09118,48.2991],[2.09838,48.30259],[2.09985,48.30493],[2.10617,48.30763],[2.11372,48.30725],[2.1106,48.29695],[2.13612,48.29925],[2.16375,48.29843],[2.16097,48.30455],[2.15571,48.3045],[2.15183,48.31384],[2.1523,48.31591],[2.16902,48.3127],[2.17171,48.31594],[2.18069,48.31168],[2.1849,48.32112],[2.18457,48.32278],[2.18215,48.32152],[2.18213,48.32427],[2.18812,48.32805],[2.1879,48.33237],[2.19061,48.3326],[2.19148,48.33385],[2.20286,48.33891],[2.20508,48.34229],[2.20188,48.34308],[2.20225,48.3446],[2.20709,48.34494],[2.20716,48.3418],[2.21258,48.34064],[2.2117,48.33874],[2.21575,48.33713],[2.21583,48.33421],[2.21785,48.33353],[2.21961,48.33552],[2.22391,48.33642],[2.22669,48.33264],[2.22851,48.33296],[2.22925,48.33134],[2.22757,48.32963],[2.23432,48.32788],[2.23546,48.32932],[2.23343,48.33067],[2.23774,48.33207],[2.23983,48.33094],[2.24199,48.33126],[2.24287,48.33288],[2.24617,48.33126],[2.2443,48.3256],[2.23805,48.31637],[2.2493,48.31629],[2.24943,48.31458],[2.24661,48.30887],[2.24682,48.30559],[2.24494,48.30226],[2.24516,48.2984],[2.25357,48.30024],[2.25888,48.30721],[2.26192,48.30691],[2.26522,48.30937],[2.26259,48.31037],[2.2669,48.31468],[2.26912,48.31504],[2.26891,48.31352],[2.27222,48.31384],[2.27229,48.31204],[2.28314,48.31262],[2.29569,48.30808],[2.30021,48.31123],[2.29871,48.312],[2.30074,48.3157],[2.30168,48.31547],[2.31124,48.32882],[2.31306,48.32896],[2.31259,48.3308],[2.31718,48.33157],[2.31812,48.33018],[2.32365,48.33238],[2.3246,48.33193],[2.32445,48.32961],[2.32645,48.32965],[2.32755,48.33297],[2.32905,48.32901],[2.32816,48.3264],[2.33478,48.32739],[2.34198,48.31683],[2.34601,48.31733],[2.3459,48.31611],[2.34812,48.31633],[2.3487,48.31525],[2.35347,48.31441],[2.35823,48.30849],[2.36713,48.31206],[2.36995,48.30867],[2.38634,48.31177],[2.39518,48.31487],[2.39747,48.31456],[2.39996,48.31568],[2.39848,48.3187],[2.40266,48.32072],[2.40265,48.31802],[2.40414,48.31757],[2.40434,48.31491],[2.40953,48.30991],[2.40892,48.30911],[2.41342,48.30685],[2.41477,48.30452],[2.41881,48.30159],[2.42109,48.29867],[2.42129,48.29619],[2.42332,48.29476],[2.4225,48.29071],[2.42317,48.28752],[2.4202,48.28514],[2.4177,48.27885],[2.41984,48.27503],[2.41837,48.27422],[2.41789,48.27215],[2.42111,48.26764],[2.41996,48.26657],[2.42352,48.26037],[2.4269,48.25969],[2.42844,48.25659],[2.43039,48.25551],[2.43873,48.25465],[2.44014,48.2532],[2.4464,48.25518],[2.45016,48.25004],[2.46909,48.25527],[2.47635,48.25118],[2.47594,48.25028],[2.4789,48.24951],[2.47634,48.24444],[2.48411,48.23905],[2.48666,48.24011],[2.50619,48.23854],[2.50771,48.23282],[2.50689,48.22599],[2.51833,48.22759],[2.51334,48.22436],[2.5142,48.21865],[2.51534,48.21762],[2.51412,48.21438],[2.5174,48.21438],[2.51699,48.20983],[2.52102,48.20659],[2.51851,48.20133],[2.52294,48.20052],[2.52313,48.19489],[2.51297,48.19298],[2.51376,48.19042],[2.51715,48.19093],[2.51814,48.18991],[2.50728,48.17968],[2.51547,48.17477],[2.51235,48.17068],[2.51469,48.16933],[2.51653,48.16624],[2.50633,48.15644],[2.48324,48.16452],[2.48121,48.16267],[2.47838,48.15674],[2.47857,48.155],[2.47534,48.15611],[2.47386,48.15406],[2.47465,48.14883],[2.46753,48.14822],[2.46012,48.13685],[2.45192,48.13434],[2.45157,48.13218],[2.44426,48.13147],[2.44276,48.1254],[2.44431,48.12423],[2.44921,48.12548],[2.45109,48.12346],[2.45438,48.12237],[2.4601,48.12691],[2.46487,48.12911],[2.46796,48.12735],[2.46916,48.12919],[2.47205,48.1282],[2.47601,48.12964],[2.49032,48.1266],[2.5161,48.12648],[2.52187,48.12512],[2.51964,48.12714],[2.52152,48.1273],[2.53751,48.14034],[2.55827,48.14161],[2.57056,48.14082],[2.57482,48.13127],[2.58059,48.13234],[2.60268,48.13149],[2.61297,48.1329],[2.62105,48.13603],[2.63967,48.13895],[2.64471,48.13732],[2.66475,48.12054],[2.66885,48.12084],[2.67154,48.12214],[2.67281,48.12475],[2.67743,48.12593],[2.67811,48.12483],[2.68868,48.12496],[2.69278,48.12397],[2.69413,48.12531],[2.69661,48.12521],[2.70351,48.12424],[2.70532,48.12303],[2.7075,48.12594],[2.71856,48.13297],[2.72046,48.13691],[2.7552,48.14565],[2.75549,48.14938],[2.75358,48.15321],[2.74601,48.1572],[2.74556,48.15882],[2.74379,48.1584],[2.741,48.15987],[2.73641,48.16631],[2.75055,48.16208],[2.75271,48.16243],[2.75517,48.16009],[2.7597,48.16182],[2.75856,48.1634],[2.76724,48.1649],[2.76803,48.16292],[2.77172,48.16169],[2.77916,48.1675],[2.79207,48.16455],[2.79415,48.16887],[2.79526,48.16908],[2.79748,48.1674],[2.80008,48.16806],[2.80061,48.16474],[2.80168,48.16428],[2.81033,48.16613],[2.81142,48.16376],[2.81031,48.161],[2.80866,48.16013],[2.80892,48.15878],[2.80291,48.15574],[2.79791,48.15116],[2.80114,48.14958],[2.79688,48.14172],[2.79926,48.13798],[2.80122,48.13145],[2.81034,48.13021],[2.81364,48.13144],[2.82088,48.12966],[2.82421,48.13393],[2.83618,48.13414],[2.842,48.1387],[2.84611,48.13981],[2.84692,48.14111],[2.84988,48.1411],[2.85901,48.14735],[2.86803,48.15643],[2.95327,48.16501],[2.95668,48.15776],[2.96361,48.15296],[2.96884,48.15261],[2.97292,48.15043],[2.98158,48.1498],[2.97972,48.15175],[2.97995,48.15385],[2.99088,48.15249],[2.99115,48.14678],[2.99552,48.14131],[2.9978,48.14103],[2.99839,48.13977],[3.00332,48.14216],[3.00389,48.14486],[3.00961,48.14577],[3.0219,48.135],[3.02312,48.13567],[3.0294,48.1333],[3.02142,48.12426],[3.01588,48.11571],[3.03277,48.11417],[3.03529,48.11599],[3.03835,48.09885],[3.04033,48.09618],[3.04288,48.09608],[3.0429,48.09338],[3.04901,48.09374],[3.0504,48.09136],[3.04886,48.08384],[3.05047,48.07233],[3.06089,48.06422],[3.0746,48.06027],[3.07995,48.06032],[3.08832,48.05394],[3.09536,48.05398],[3.08965,48.04907],[3.09306,48.04765],[3.09202,48.04519],[3.09281,48.04428],[3.09516,48.04431],[3.09463,48.04041],[3.10702,48.03506],[3.11445,48.03425],[3.12426,48.03113],[3.12262,48.02929],[3.12007,48.02908],[3.12051,48.02674],[3.11955,48.0259],[3.11643,48.02808],[3.10949,48.02497],[3.1031,48.02405],[3.10006,48.02226],[3.09946,48.02075],[3.10409,48.01355],[3.11029,48.01103],[3.11542,48.01297],[3.12421,48.0069],[3.12455,48.00603],[3.12068,48.00278],[3.1232,48.00105],[3.12112,47.99594],[3.12312,47.99075],[3.12508,47.99177],[3.12668,47.99127],[3.12172,47.9868],[3.12341,47.98365],[3.12857,47.98337],[3.12845,47.97097],[3.12674,47.96829],[3.10931,47.96207],[3.11149,47.96039],[3.11146,47.95787],[3.10962,47.95613],[3.10867,47.95074],[3.10527,47.94694],[3.0984,47.94878],[3.09769,47.94609],[3.09569,47.94714],[3.08922,47.94331],[3.08386,47.94263],[3.08151,47.93729],[3.07968,47.9364],[3.07847,47.93142],[3.06461,47.93052],[3.06438,47.92809],[3.06174,47.92613],[3.05081,47.92417],[3.05244,47.92083],[3.04922,47.92013],[3.05049,47.91064],[3.0378,47.90672],[3.03727,47.9114],[3.03593,47.91158],[3.02891,47.9069],[3.02393,47.90517],[3.01802,47.90764],[3.018,47.90616],[3.00956,47.90539],[3.01241,47.90286],[3.01191,47.90093],[3.01697,47.89892],[3.01318,47.89575],[3.00723,47.89529],[3.0099,47.88961],[3.00694,47.88378],[3.01007,47.88282],[3.01179,47.88047],[3.01188,47.87737],[3.01039,47.87634],[3.01244,47.87413],[3.00202,47.86911],[2.99846,47.86858],[2.99831,47.86728],[3.01115,47.86222],[3.0233,47.86102],[3.02906,47.85712],[3.02505,47.8566],[3.03178,47.85036],[3.03123,47.84442],[3.03382,47.84387],[3.03179,47.84163],[3.0297,47.83508],[3.0243,47.83588],[3.01254,47.83437],[3.01458,47.8327],[3.01331,47.82776],[3.01546,47.82316],[3.01391,47.82245],[3.02206,47.81777],[3.01547,47.81354],[3.02434,47.81308],[3.02429,47.80881],[3.02813,47.802],[3.02528,47.78767],[3.02353,47.78633],[2.99972,47.7871],[2.98822,47.78603],[2.98045,47.78252],[2.97882,47.78028],[2.96155,47.7753],[2.95474,47.77556],[2.95249,47.77027],[2.95068,47.77009],[2.9497,47.76587],[2.94009,47.76552],[2.9375,47.76643],[2.93559,47.76325],[2.93077,47.76228],[2.92845,47.76297],[2.92816,47.76426],[2.92286,47.7643],[2.91452,47.76938],[2.90938,47.76931],[2.90809,47.76667],[2.90602,47.7673],[2.89981,47.7663],[2.89904,47.76379],[2.89066,47.76518],[2.88958,47.76392],[2.87018,47.76487],[2.86543,47.76336],[2.86274,47.76087],[2.85648,47.76174],[2.85667,47.76093],[2.85199,47.75786],[2.85901,47.74954],[2.85782,47.74867],[2.85827,47.74679],[2.85483,47.74009],[2.85579,47.73966],[2.85395,47.73535],[2.85127,47.73451],[2.85019,47.73262],[2.85335,47.72902],[2.85222,47.72662],[2.84865,47.7258],[2.84923,47.72296],[2.85261,47.72128],[2.84897,47.71684],[2.85508,47.71547],[2.86063,47.70992],[2.87886,47.72035],[2.88181,47.71557],[2.88465,47.71389],[2.88407,47.70765],[2.88213,47.70806],[2.87991,47.70614],[2.87915,47.7038],[2.89926,47.69628],[2.90366,47.69689],[2.90431,47.69424],[2.90774,47.69094],[2.90942,47.69205],[2.91386,47.69096],[2.91462,47.68766],[2.91662,47.68784],[2.91773,47.68523],[2.92109,47.68305],[2.92675,47.68176],[2.92053,47.67379],[2.92037,47.67082],[2.91815,47.66979],[2.9254,47.66234],[2.92662,47.659],[2.93531,47.65734],[2.93694,47.65913],[2.94158,47.65754],[2.94214,47.65367],[2.95423,47.64569],[2.93629,47.63665],[2.93611,47.6326],[2.93232,47.62705],[2.93552,47.62653],[2.93418,47.62074],[2.93835,47.61847],[2.93739,47.61614],[2.9405,47.61432],[2.94146,47.61076],[2.94522,47.60845],[2.93627,47.59932],[2.94198,47.5988],[2.94345,47.59317],[2.95064,47.58885],[2.95499,47.59041],[2.96078,47.58565],[2.96231,47.58592],[2.96445,47.58163],[2.96227,47.57679],[2.96548,47.57358],[2.97466,47.57357],[2.97654,47.56943],[2.96344,47.56387],[2.95866,47.55738],[2.9143,47.56597],[2.91394,47.56409],[2.91007,47.56221],[2.90937,47.55916],[2.90489,47.55621],[2.89011,47.5526],[2.8739,47.55281],[2.87347,47.5494],[2.8752,47.54938],[2.87322,47.54512],[2.86267,47.54634],[2.86023,47.554],[2.85274,47.54985],[2.85139,47.54747],[2.84519,47.54493],[2.8489,47.53754],[2.87463,47.52042]]]}}]}