{"type":"FeatureCollection","features":[{"type":"Feature","properties":{"reg_name":"Francia","source":"IGN Admin Express via france-geojson, Licence Ouverte 2.0"},"geometry":{"type":"MultiPolygon","coordinates":[[[[4.74211,45.41461],[4.74411,45.40888],[4.75357,45.3993],[4.75807,45.39124],[4.75949,45.38275],[4.75625,45.37435],[4.75702,45.37146],[4.756,45.36567],[4.77256,45.35486],[4.77401,45.35263],[4.77358,45.34649],[4.76823,45.34373],[4.76411,45.34545],[4.76198,45.34241],[4.76054,45.32746],[4.76185,45.32406],[4.76993,45.31602],[4.78893,45.30671],[4.80049,45.29836],[4.80694,45.30049],[4.83083,45.30338],[4.8588,45.30895],[4.85862,45.29852],[4.87971,45.29693],[4.88105,45.29848],[4.89721,45.30482],[4.90285,45.31123],[4.91508,45.31533],[4.92546,45.32049],[4.92939,45.32423],[4.94757,45.3286],[4.95435,45.32732],[4.95605,45.32976],[4.96088,45.32943],[4.96592,45.33512],[4.97619,45.33611],[4.9853,45.34287],[4.98823,45.34393],[4.99126,45.34327],[4.99512,45.34405],[5.00017,45.34271],[5.00366,45.34311],[5.00326,45.34159],[5.00965,45.34223],[5.01986,45.32012],[5.02269,45.31776],[5.02768,45.31679],[5.03311,45.31819],[5.05432,45.31905],[5.05911,45.31363],[5.06789,45.29559],[5.07089,45.28482],[5.07541,45.28182],[5.08413,45.28558],[5.1069,45.28721],[5.11137,45.28859],[5.1132,45.29097],[5.11863,45.29117],[5.12155,45.29874],[5.12851,45.29758],[5.13371,45.29836],[5.13859,45.29667],[5.13822,45.29267],[5.13135,45.28653],[5.12954,45.27906],[5.13018,45.26721],[5.12489,45.26207],[5.12583,45.26146],[5.12379,45.25908],[5.12444,45.25519],[5.12089,45.24763],[5.12297,45.24609],[5.12578,45.24584],[5.12761,45.24697],[5.13145,45.24333],[5.13661,45.24455],[5.14153,45.24357],[5.14164,45.24739],[5.14434,45.24775],[5.15128,45.25315],[5.15191,45.25548],[5.1531,45.25631],[5.15551,45.25471],[5.15823,45.25555],[5.15916,45.25504],[5.15868,45.25292],[5.15724,45.25228],[5.15603,45.24966],[5.15669,45.24739],[5.16122,45.2462],[5.17654,45.2484],[5.17951,45.24378],[5.18279,45.24158],[5.18458,45.23119],[5.19039,45.22631],[5.19083,45.22401],[5.20021,45.22027],[5.20171,45.2174],[5.17871,45.21698],[5.17473,45.21374],[5.16742,45.21013],[5.16838,45.20871],[5.16485,45.20047],[5.16624,45.20017],[5.16428,45.1976],[5.16876,45.19853],[5.16997,45.19323],[5.17514,45.18155],[5.18981,45.16943],[5.18715,45.16716],[5.1892,45.16576],[5.1918,45.15507],[5.19087,45.1532],[5.18558,45.15036],[5.18199,45.14982],[5.18132,45.14781],[5.18767,45.14532],[5.18809,45.14197],[5.19056,45.14067],[5.1894,45.13754],[5.18654,45.13494],[5.18849,45.1267],[5.18744,45.12083],[5.18274,45.11694],[5.18033,45.11205],[5.17286,45.10359],[5.17095,45.10336],[5.16552,45.09896],[5.16289,45.09843],[5.1611,45.09293],[5.15781,45.08932],[5.15833,45.08431],[5.15489,45.08138],[5.15414,45.07929],[5.14485,45.08153],[5.14098,45.07641],[5.13785,45.08148],[5.13588,45.08004],[5.13468,45.07484],[5.13845,45.07255],[5.14569,45.07656],[5.14856,45.0769],[5.1489,45.07442],[5.157,45.0672],[5.1568,45.06599],[5.16246,45.06575],[5.16932,45.06748],[5.17119,45.06901],[5.173,45.07639],[5.17938,45.08331],[5.18334,45.08488],[5.19356,45.0835],[5.20821,45.08422],[5.22612,45.07918],[5.23255,45.07048],[5.23678,45.06847],[5.24451,45.06697],[5.24386,45.06155],[5.24458,45.06067],[5.25215,45.06093],[5.26052,45.05915],[5.26626,45.05981],[5.26645,45.05571],[5.26767,45.05473],[5.27258,45.05502],[5.2755,45.05912],[5.2798,45.06109],[5.2831,45.05983],[5.28919,45.05986],[5.29058,45.06077],[5.29099,45.0636],[5.29278,45.06386],[5.29453,45.06224],[5.30064,45.06259],[5.30532,45.06102],[5.30585,45.05885],[5.30757,45.05768],[5.3058,45.05538],[5.30627,45.05339],[5.32022,45.05164],[5.3197,45.05629],[5.32069,45.05707],[5.32409,45.05509],[5.32626,45.05553],[5.32806,45.05841],[5.33374,45.06007],[5.33552,45.06264],[5.34033,45.06206],[5.34312,45.05978],[5.34326,45.05028],[5.34595,45.048],[5.35735,45.04618],[5.36183,45.04691],[5.36966,45.04369],[5.37309,45.0437],[5.37549,45.03967],[5.38006,45.04081],[5.37979,45.03942],[5.38583,45.03463],[5.39656,45.03804],[5.39653,45.03954],[5.39117,45.04308],[5.39034,45.0445],[5.39136,45.04565],[5.38934,45.04705],[5.38649,45.04712],[5.38105,45.05123],[5.38183,45.05521],[5.38306,45.05591],[5.3868,45.05684],[5.38884,45.05453],[5.3895,45.05019],[5.39117,45.04935],[5.3911,45.04674],[5.39657,45.04409],[5.39957,45.04332],[5.4035,45.04465],[5.41265,45.04463],[5.41779,45.04837],[5.42156,45.05367],[5.42572,45.05627],[5.4296,45.05327],[5.43309,45.05305],[5.43524,45.05412],[5.43715,45.05758],[5.43903,45.05848],[5.43675,45.05979],[5.43661,45.06178],[5.44974,45.0711],[5.44781,45.07179],[5.45152,45.07466],[5.45225,45.07649],[5.4554,45.07815],[5.4579,45.08323],[5.46098,45.08643],[5.46661,45.08704],[5.4693,45.08859],[5.47493,45.0856],[5.48296,45.08381],[5.48381,45.08168],[5.48644,45.08115],[5.48855,45.07907],[5.48966,45.07597],[5.4942,45.07166],[5.49339,45.07092],[5.49045,45.07312],[5.48232,45.07315],[5.47486,45.07035],[5.47433,45.06621],[5.47098,45.06293],[5.46622,45.05369],[5.46485,45.04594],[5.46523,45.04354],[5.47803,45.03365],[5.47605,45.02502],[5.48361,45.02279],[5.4804,45.01288],[5.48498,45.0047],[5.49359,44.99613],[5.48836,44.98966],[5.47767,44.96675],[5.48365,44.92229],[5.48031,44.89681],[5.47005,44.87903],[5.47555,44.86704],[5.46607,44.84122],[5.46379,44.82597],[5.47165,44.82364],[5.48477,44.82306],[5.47677,44.81564],[5.47613,44.80698],[5.46918,44.80622],[5.45851,44.80045],[5.46189,44.79492],[5.46416,44.79243],[5.48018,44.79275],[5.47693,44.78887],[5.48203,44.78659],[5.49493,44.78263],[5.50535,44.78149],[5.51962,44.77722],[5.53201,44.77495],[5.53467,44.77608],[5.55453,44.76747],[5.55628,44.77022],[5.55264,44.77568],[5.55413,44.77726],[5.554,44.77933],[5.54414,44.78893],[5.54452,44.79567],[5.54977,44.79453],[5.55778,44.78953],[5.56149,44.78917],[5.56647,44.78425],[5.58205,44.77786],[5.58144,44.77262],[5.58405,44.76827],[5.58389,44.76534],[5.5868,44.76323],[5.59,44.76162],[5.59659,44.76189],[5.60886,44.75532],[5.62631,44.75329],[5.62658,44.75],[5.62912,44.74574],[5.62991,44.74171],[5.63447,44.73649],[5.63591,44.73284],[5.64398,44.73158],[5.6471,44.7241],[5.65226,44.72265],[5.66162,44.72071],[5.66315,44.72549],[5.69878,44.72207],[5.69997,44.7287],[5.70406,44.7293],[5.7087,44.72092],[5.71492,44.71929],[5.7176,44.71536],[5.72116,44.71263],[5.72403,44.71191],[5.72549,44.713],[5.73418,44.71274],[5.73652,44.71381],[5.74198,44.71003],[5.74123,44.70686],[5.74375,44.70566],[5.74606,44.70095],[5.7525,44.69851],[5.75607,44.69594],[5.76049,44.69603],[5.76813,44.69918],[5.77177,44.69677],[5.77811,44.70067],[5.78398,44.70023],[5.80147,44.70678],[5.81133,44.70567],[5.81496,44.70327],[5.82036,44.70364],[5.82712,44.70029],[5.82716,44.69645],[5.83044,44.69055],[5.82969,44.68868],[5.8258,44.68569],[5.79942,44.67415],[5.80039,44.66934],[5.79784,44.66325],[5.79252,44.66084],[5.79143,44.65862],[5.79234,44.65567],[5.79062,44.65329],[5.78048,44.65264],[5.76381,44.65557],[5.76109,44.65876],[5.75394,44.66271],[5.7535,44.66061],[5.74992,44.66081],[5.75009,44.6563],[5.74748,44.65471],[5.75356,44.64858],[5.7433,44.64767],[5.7428,44.64904],[5.73679,44.64975],[5.73477,44.64648],[5.73865,44.64064],[5.72804,44.6392],[5.72107,44.63973],[5.7146,44.64365],[5.70688,44.64208],[5.70377,44.64491],[5.68964,44.64726],[5.67996,44.65223],[5.66844,44.64837],[5.6555,44.65149],[5.65633,44.65372],[5.65446,44.65539],[5.65155,44.65521],[5.64803,44.65225],[5.64172,44.65107],[5.64022,44.64793],[5.64158,44.63856],[5.63921,44.63552],[5.64162,44.63118],[5.64123,44.62786],[5.6429,44.62605],[5.64306,44.62217],[5.64946,44.61937],[5.64719,44.61156],[5.64619,44.60938],[5.64193,44.60999],[5.63533,44.60915],[5.63659,44.60461],[5.63491,44.60165],[5.63204,44.59984],[5.63139,44.59751],[5.62748,44.59496],[5.62751,44.59105],[5.62573,44.58957],[5.62679,44.58841],[5.62632,44.58662],[5.61785,44.5839],[5.6159,44.57939],[5.61536,44.57325],[5.61285,44.57124],[5.60905,44.57082],[5.60702,44.56834],[5.60217,44.55683],[5.60026,44.55534],[5.59725,44.54327],[5.60472,44.54067],[5.61198,44.53606],[5.61499,44.53282],[5.62187,44.53528],[5.62737,44.53458],[5.65314,44.51483],[5.66293,44.50527],[5.6645,44.50189],[5.65696,44.50202],[5.65007,44.49916],[5.6413,44.50234],[5.62979,44.50119],[5.62668,44.49857],[5.62502,44.4948],[5.62353,44.48947],[5.62502,44.48457],[5.62105,44.48212],[5.61813,44.47481],[5.61174,44.4696],[5.6063,44.46795],[5.60338,44.46542],[5.59508,44.46651],[5.5792,44.47169],[5.5703,44.47676],[5.56139,44.47466],[5.55878,44.47307],[5.55522,44.47696],[5.54526,44.4825],[5.53135,44.4855],[5.51609,44.49173],[5.47988,44.49124],[5.47427,44.49454],[5.47359,44.49857],[5.47203,44.49852],[5.4714,44.49976],[5.46426,44.50053],[5.45841,44.49939],[5.45693,44.49624],[5.45891,44.48852],[5.46279,44.48108],[5.46543,44.48006],[5.46773,44.47333],[5.46742,44.47222],[5.459,44.46903],[5.45873,44.46614],[5.46105,44.46366],[5.4609,44.45974],[5.46405,44.45736],[5.46443,44.44789],[5.48113,44.44168],[5.48546,44.44178],[5.48766,44.44019],[5.49772,44.43815],[5.4983,44.43732],[5.49362,44.42822],[5.48656,44.42931],[5.48463,44.42833],[5.48323,44.42432],[5.47649,44.41972],[5.47285,44.42039],[5.47044,44.42287],[5.46291,44.42654],[5.46015,44.42661],[5.44971,44.43122],[5.43672,44.4337],[5.43007,44.4317],[5.4184,44.42477],[5.42217,44.419],[5.42295,44.41577],[5.42853,44.4155],[5.43123,44.41425],[5.43415,44.41011],[5.43638,44.40226],[5.44303,44.39124],[5.44079,44.38791],[5.44088,44.38409],[5.44415,44.37945],[5.44144,44.37776],[5.4366,44.37785],[5.43376,44.37648],[5.43022,44.37699],[5.43191,44.37099],[5.43832,44.3674],[5.44882,44.36905],[5.45199,44.36743],[5.45882,44.36851],[5.46255,44.36738],[5.46574,44.36486],[5.46726,44.36045],[5.46687,44.35454],[5.46786,44.35216],[5.47126,44.35045],[5.47517,44.35154],[5.47989,44.35119],[5.48246,44.34981],[5.48218,44.34729],[5.49057,44.33963],[5.49129,44.33786],[5.49803,44.33971],[5.50229,44.34408],[5.51049,44.34607],[5.52137,44.35108],[5.52275,44.34775],[5.52896,44.34303],[5.53986,44.34264],[5.53737,44.33353],[5.541,44.33115],[5.54457,44.33136],[5.54727,44.33],[5.55559,44.3317],[5.56051,44.33557],[5.56803,44.33217],[5.57386,44.33394],[5.57434,44.33227],[5.58792,44.33211],[5.59125,44.33321],[5.59531,44.33176],[5.60397,44.33421],[5.60618,44.33263],[5.61777,44.3323],[5.62349,44.33384],[5.6238,44.33522],[5.62692,44.33476],[5.63082,44.33299],[5.63257,44.32835],[5.62872,44.32782],[5.61605,44.31657],[5.61107,44.31594],[5.61102,44.31059],[5.60808,44.30851],[5.6079,44.30667],[5.60947,44.30635],[5.61615,44.30944],[5.61977,44.30786],[5.62705,44.30108],[5.63625,44.30077],[5.63821,44.299],[5.6396,44.29567],[5.643,44.29381],[5.63299,44.29045],[5.63177,44.28689],[5.63211,44.2839],[5.63677,44.27873],[5.64751,44.27248],[5.64558,44.26924],[5.64678,44.26709],[5.65759,44.27236],[5.67252,44.27436],[5.67561,44.27589],[5.68657,44.26692],[5.68559,44.26393],[5.67986,44.26126],[5.67419,44.25639],[5.67468,44.24962],[5.67299,44.24619],[5.67544,44.24405],[5.673,44.23984],[5.67763,44.23629],[5.68241,44.2343],[5.67945,44.2288],[5.68069,44.22503],[5.67921,44.22093],[5.67726,44.21976],[5.67602,44.21215],[5.68236,44.2048],[5.68336,44.20022],[5.68645,44.19716],[5.68642,44.19464],[5.6845,44.19276],[5.67604,44.19143],[5.67501,44.1888],[5.66863,44.18985],[5.65794,44.18898],[5.65159,44.18958],[5.6523,44.18541],[5.64796,44.17968],[5.64778,44.17518],[5.64378,44.17309],[5.64327,44.17072],[5.64386,44.1689],[5.64571,44.16835],[5.64697,44.16629],[5.66263,44.16687],[5.67264,44.16451],[5.68236,44.16363],[5.67919,44.15535],[5.67794,44.14638],[5.66738,44.14911],[5.65522,44.14756],[5.63114,44.15058],[5.63222,44.15217],[5.63171,44.15858],[5.63722,44.16234],[5.63959,44.16759],[5.63616,44.16998],[5.63359,44.16978],[5.63209,44.17108],[5.63198,44.17369],[5.62629,44.17594],[5.61613,44.1778],[5.61596,44.18254],[5.6132,44.18604],[5.60959,44.1875],[5.60933,44.19071],[5.60205,44.19149],[5.60043,44.18933],[5.59621,44.18765],[5.59099,44.18716],[5.58369,44.18868],[5.57619,44.18804],[5.57462,44.18683],[5.57535,44.18504],[5.57282,44.18173],[5.56838,44.17999],[5.56437,44.1709],[5.56735,44.16928],[5.57325,44.16281],[5.58298,44.15762],[5.57873,44.15208],[5.56882,44.14803],[5.55133,44.14979],[5.55006,44.14577],[5.5414,44.13263],[5.51106,44.12411],[5.51125,44.12186],[5.5087,44.1185],[5.50261,44.11565],[5.49879,44.11572],[5.49898,44.105],[5.49695,44.10239],[5.50041,44.10031],[5.50028,44.09329],[5.49864,44.08942],[5.49922,44.08278],[5.49801,44.07521],[5.49858,44.07168],[5.50264,44.06344],[5.51643,44.06325],[5.53637,44.06846],[5.53905,44.06816],[5.5446,44.06989],[5.54499,44.06842],[5.54233,44.06311],[5.54518,44.04992],[5.54412,44.04645],[5.54363,44.02596],[5.53588,44.01299],[5.5268,44.00635],[5.52457,44.00213],[5.52362,43.99612],[5.51942,43.99454],[5.51765,43.9917],[5.51781,43.98773],[5.51317,43.97336],[5.51222,43.96708],[5.50766,43.9577],[5.50909,43.95514],[5.5092,43.95167],[5.51267,43.94539],[5.52093,43.94464],[5.52688,43.94753],[5.54499,43.93905],[5.55967,43.94286],[5.56892,43.94225],[5.57,43.94041],[5.56789,43.93696],[5.5806,43.92547],[5.58159,43.91508],[5.59434,43.91683],[5.60491,43.9155],[5.60584,43.91641],[5.60823,43.91477],[5.59767,43.90287],[5.59756,43.89846],[5.59514,43.8943],[5.59079,43.8909],[5.59029,43.88723],[5.5872,43.8856],[5.58719,43.88169],[5.58411,43.88028],[5.58379,43.87678],[5.57796,43.87249],[5.57433,43.86764],[5.57348,43.86338],[5.5712,43.86179],[5.56686,43.86186],[5.56353,43.85803],[5.55659,43.85499],[5.55174,43.85139],[5.54862,43.85148],[5.54872,43.8326],[5.54681,43.82932],[5.54429,43.81835],[5.54625,43.81697],[5.55152,43.81755],[5.55958,43.82148],[5.56428,43.81973],[5.56733,43.82707],[5.5746,43.83029],[5.58892,43.82701],[5.59129,43.82941],[5.59543,43.82889],[5.60062,43.82603],[5.60566,43.82823],[5.61459,43.82776],[5.6184,43.83012],[5.62183,43.82925],[5.62379,43.83072],[5.6277,43.83093],[5.6321,43.82818],[5.65445,43.82511],[5.65644,43.81937],[5.6584,43.81693],[5.66796,43.80949],[5.67448,43.80736],[5.67463,43.80448],[5.68003,43.79869],[5.68573,43.78721],[5.69266,43.78444],[5.70058,43.78358],[5.70496,43.77954],[5.71356,43.78112],[5.71289,43.77838],[5.71425,43.7648],[5.71695,43.75553],[5.7257,43.75184],[5.7301,43.7486],[5.74124,43.74542],[5.74587,43.7429],[5.75314,43.73647],[5.75733,43.72941],[5.76206,43.73602],[5.78134,43.75566],[5.80331,43.74999],[5.82326,43.74766],[5.82788,43.74807],[5.83117,43.74693],[5.83629,43.7417],[5.83604,43.74014],[5.84256,43.73685],[5.84574,43.72648],[5.84783,43.72479],[5.84904,43.71818],[5.8562,43.72358],[5.86693,43.72425],[5.87353,43.72255],[5.88455,43.72391],[5.89773,43.73157],[5.90121,43.73258],[5.90498,43.73743],[5.905,43.74486],[5.90296,43.75343],[5.91251,43.75309],[5.92266,43.75754],[5.92547,43.75691],[5.92584,43.75163],[5.92747,43.75018],[5.93597,43.75107],[5.93876,43.74879],[5.93931,43.74453],[5.94344,43.73636],[5.93883,43.7333],[5.938,43.73057],[5.94048,43.72733],[5.95723,43.71892],[5.96268,43.72479],[5.96458,43.7254],[5.96631,43.72129],[5.96904,43.72021],[5.97362,43.71475],[5.9797,43.71559],[5.98544,43.71396],[5.98437,43.70868],[5.98794,43.69506],[6.00054,43.69095],[6.00078,43.68968],[6.00574,43.68763],[6.00772,43.68352],[6.00802,43.67931],[6.01142,43.67708],[6.01161,43.67415],[6.01631,43.67264],[6.02174,43.66828],[6.03378,43.67631],[6.03945,43.67865],[6.0358,43.68796],[6.03455,43.69264],[6.03513,43.69407],[6.05156,43.69771],[6.05751,43.70059],[6.05893,43.70324],[6.0704,43.70493],[6.07705,43.7072],[6.07818,43.71125],[6.08805,43.71819],[6.08734,43.72046],[6.09174,43.72532],[6.09164,43.72794],[6.0903,43.72897],[6.09228,43.73003],[6.0953,43.72962],[6.09794,43.733],[6.10287,43.73634],[6.10632,43.7416],[6.10673,43.74446],[6.10875,43.74574],[6.11474,43.74614],[6.11642,43.74504],[6.11668,43.74165],[6.1297,43.73622],[6.14149,43.7378],[6.1443,43.74005],[6.15429,43.74364],[6.16881,43.75117],[6.18289,43.76218],[6.19064,43.78017],[6.19733,43.78746],[6.20945,43.79692],[6.21671,43.79951],[6.23336,43.79903],[6.24223,43.80238],[6.25422,43.80043],[6.25738,43.79744],[6.25992,43.79262],[6.26289,43.78188],[6.26678,43.77963],[6.26862,43.77722],[6.28231,43.77359],[6.28318,43.77199],[6.29035,43.7684],[6.29499,43.76418],[6.3066,43.76324],[6.3106,43.75941],[6.31733,43.75791],[6.31838,43.75607],[6.31697,43.75553],[6.31686,43.7536],[6.32292,43.75334],[6.32555,43.74982],[6.32628,43.74687],[6.33826,43.74284],[6.3451,43.74197],[6.35117,43.73617],[6.35891,43.73577],[6.36495,43.74064],[6.37474,43.743],[6.37956,43.73868],[6.38,43.73524],[6.38354,43.73443],[6.38528,43.73703],[6.39128,43.74115],[6.39559,43.74788],[6.40264,43.75277],[6.40681,43.75208],[6.40756,43.75557],[6.40665,43.75682],[6.41335,43.76023],[6.41338,43.76721],[6.41009,43.77188],[6.41295,43.77813],[6.41443,43.79159],[6.42352,43.78973],[6.43069,43.7919],[6.43653,43.79183],[6.4389,43.79368],[6.43881,43.79775],[6.44425,43.79638],[6.44529,43.7945],[6.44803,43.79358],[6.45683,43.79313],[6.46047,43.79366],[6.46682,43.79799],[6.46986,43.79873],[6.47078,43.79699],[6.47491,43.79815],[6.48208,43.79107],[6.4869,43.79171],[6.49109,43.79363],[6.49375,43.79349],[6.50514,43.79979],[6.50944,43.80072],[6.51739,43.80678],[6.51728,43.80876],[6.52476,43.80637],[6.54241,43.79188],[6.5437,43.78643],[6.54601,43.78557],[6.54671,43.78307],[6.54176,43.77831],[6.54215,43.7755],[6.54568,43.7753],[6.55035,43.77885],[6.54987,43.78034],[6.55271,43.78276],[6.55486,43.78412],[6.55995,43.78483],[6.5672,43.79141],[6.57238,43.79157],[6.58532,43.80051],[6.58691,43.80532],[6.6023,43.80294],[6.60839,43.80375],[6.6112,43.8054],[6.61931,43.80577],[6.62372,43.80475],[6.62421,43.80135],[6.62327,43.79846],[6.62733,43.79537],[6.62793,43.79157],[6.6364,43.78895],[6.63707,43.78716],[6.6354,43.78566],[6.63647,43.78223],[6.63885,43.78007],[6.64401,43.77901],[6.64522,43.77784],[6.64596,43.77515],[6.6401,43.76974],[6.64009,43.76861],[6.6521,43.76545],[6.65495,43.75994],[6.65742,43.74872],[6.66079,43.74791],[6.67075,43.75154],[6.6788,43.75714],[6.68271,43.75794],[6.69295,43.75506],[6.7014,43.75407],[6.70859,43.74807],[6.71391,43.746],[6.71251,43.74002],[6.71498,43.73866],[6.73799,43.73845],[6.74625,43.73682],[6.75247,43.74105],[6.75322,43.73701],[6.75545,43.73688],[6.75733,43.73365],[6.75779,43.73062],[6.75652,43.73021],[6.75612,43.72734],[6.76234,43.72321],[6.76666,43.72206],[6.76658,43.71688],[6.76785,43.71286],[6.76681,43.71061],[6.77424,43.70364],[6.77236,43.69759],[6.77353,43.6965],[6.77243,43.6952],[6.77435,43.69341],[6.77185,43.69315],[6.76446,43.68821],[6.76516,43.68498],[6.76104,43.68054],[6.76238,43.6776],[6.76127,43.67534],[6.76188,43.67438],[6.7598,43.67392],[6.76171,43.66934],[6.7608,43.66649],[6.76246,43.66286],[6.76582,43.6603],[6.77628,43.65989],[6.77767,43.65627],[6.78324,43.65362],[6.78566,43.65096],[6.78443,43.64862],[6.79139,43.6428],[6.79392,43.63932],[6.79381,43.63545],[6.79197,43.63399],[6.79721,43.63095],[6.79874,43.62818],[6.80253,43.62672],[6.81286,43.63051],[6.81679,43.62976],[6.81915,43.6267],[6.82519,43.62277],[6.8329,43.62129],[6.83605,43.61773],[6.83875,43.61741],[6.84073,43.61489],[6.83878,43.61361],[6.84461,43.61279],[6.85172,43.60441],[6.85435,43.60456],[6.85303,43.60935],[6.8564,43.6089],[6.85748,43.6108],[6.8596,43.60999],[6.85961,43.60774],[6.86091,43.60615],[6.86375,43.60599],[6.8654,43.60317],[6.86651,43.60304],[6.87231,43.60749],[6.88082,43.60603],[6.88534,43.6067],[6.89427,43.61153],[6.89523,43.60938],[6.89787,43.60827],[6.89867,43.60595],[6.90301,43.60261],[6.90575,43.60255],[6.90801,43.59908],[6.91199,43.59833],[6.90897,43.59458],[6.90563,43.59305],[6.90171,43.5864],[6.90185,43.5849],[6.89843,43.58156],[6.89878,43.57961],[6.90222,43.576],[6.90786,43.57271],[6.90888,43.56739],[6.90824,43.56391],[6.90292,43.5648],[6.90104,43.56384],[6.89813,43.56003],[6.89763,43.55744],[6.8878,43.55274],[6.88497,43.54875],[6.88314,43.54121],[6.87954,43.53536],[6.87981,43.53156],[6.87876,43.52917],[6.88109,43.52975],[6.88812,43.52758],[6.89638,43.52716],[6.89502,43.52626],[6.89537,43.51858],[6.89305,43.51679],[6.89113,43.51092],[6.88853,43.50854],[6.88711,43.50851],[6.88423,43.50254],[6.88672,43.50108],[6.89291,43.50102],[6.89919,43.49721],[6.89974,43.49565],[6.91266,43.49369],[6.91161,43.48958],[6.91381,43.48277],[6.92039,43.48224],[6.92307,43.48077],[6.93373,43.48007],[6.9315,43.48101],[6.93109,43.48364],[6.94282,43.48484],[6.94583,43.48296],[6.94626,43.48466],[6.94868,43.48546],[6.94707,43.48864],[6.9497,43.49465],[6.95127,43.49644],[6.95619,43.49696],[6.95495,43.49854],[6.95705,43.5008],[6.95477,43.50256],[6.95455,43.50523],[6.95245,43.50622],[6.94673,43.50591],[6.93783,43.50947],[6.93837,43.51639],[6.94062,43.51752],[6.94167,43.52153],[6.94594,43.52622],[6.95007,43.52764],[6.95028,43.52934],[6.94816,43.53101],[6.95515,43.53717],[6.96333,43.54216],[6.97183,43.54545],[6.99373,43.54888],[7.01214,43.54726],[7.01276,43.55048],[7.01657,43.55077],[7.01694,43.54842],[7.01872,43.54987],[7.02365,43.54945],[7.03253,43.54584],[7.03222,43.54418],[7.0343,43.54225],[7.03296,43.53933],[7.03543,43.53841],[7.03656,43.53709],[7.03597,43.53582],[7.03773,43.53471],[7.03913,43.53596],[7.03874,43.53719],[7.04092,43.5421],[7.04839,43.54656],[7.05465,43.54712],[7.06941,43.563],[7.08431,43.56954],[7.09626,43.57089],[7.10467,43.56995],[7.11294,43.56703],[7.11725,43.56135],[7.12175,43.5595],[7.12165,43.55192],[7.1193,43.55121],[7.11693,43.54789],[7.12021,43.54545],[7.11917,43.54491],[7.119,43.54289],[7.12113,43.54157],[7.12315,43.54271],[7.1209,43.54425],[7.12334,43.54595],[7.12917,43.54592],[7.12989,43.54351],[7.13637,43.54458],[7.13861,43.54702],[7.13744,43.54787],[7.13878,43.54913],[7.14507,43.55165],[7.142,43.55458],[7.13701,43.55407],[7.13465,43.55553],[7.13527,43.55802],[7.13939,43.5629],[7.13806,43.56706],[7.14056,43.56893],[7.13948,43.57011],[7.13372,43.57031],[7.13171,43.56913],[7.1299,43.56979],[7.12744,43.57306],[7.12501,43.57382],[7.12946,43.58135],[7.12951,43.58343],[7.12279,43.58469],[7.1218,43.58704],[7.123,43.5883],[7.12941,43.5891],[7.13025,43.59029],[7.12925,43.59254],[7.12644,43.59234],[7.12581,43.59458],[7.12647,43.60528],[7.13009,43.6178],[7.13701,43.6321],[7.13941,43.6334],[7.13702,43.63463],[7.13729,43.63634],[7.14017,43.635],[7.14272,43.63994],[7.14424,43.64162],[7.14617,43.64182],[7.14566,43.64332],[7.14681,43.64517],[7.15698,43.65349],[7.16767,43.6574],[7.17566,43.65557],[7.19454,43.65792],[7.19866,43.65598],[7.20288,43.6513],[7.20249,43.64965],[7.19921,43.64739],[7.20072,43.64521],[7.20646,43.64564],[7.20816,43.64751],[7.21162,43.64732],[7.21301,43.64843],[7.21158,43.64984],[7.21342,43.65283],[7.21811,43.65461],[7.21841,43.65604],[7.22526,43.6594],[7.22588,43.66226],[7.2303,43.66544],[7.22897,43.66893],[7.22934,43.67342],[7.23161,43.67671],[7.23064,43.67855],[7.24065,43.68777],[7.24794,43.69105],[7.26243,43.69426],[7.27685,43.69436],[7.28074,43.6926],[7.28493,43.69274],[7.28327,43.69443],[7.28417,43.69782],[7.28565,43.69775],[7.28526,43.69381],[7.28985,43.69298],[7.29303,43.6908],[7.29411,43.68878],[7.29361,43.68663],[7.30402,43.68483],[7.30754,43.68742],[7.30877,43.69259],[7.30723,43.69438],[7.30693,43.69813],[7.3118,43.70122],[7.31295,43.70549],[7.31472,43.70653],[7.32058,43.70441],[7.32135,43.70024],[7.32534,43.70016],[7.32519,43.69796],[7.32647,43.69615],[7.32432,43.69502],[7.32479,43.69311],[7.31989,43.69031],[7.32048,43.6878],[7.32235,43.68705],[7.32337,43.68501],[7.32254,43.68406],[7.3248,43.68148],[7.32378,43.68026],[7.32412,43.67695],[7.32637,43.67411],[7.3313,43.67452],[7.3333,43.67534],[7.33534,43.67821],[7.33452,43.68326],[7.33522,43.68639],[7.33724,43.68607],[7.33736,43.68368],[7.33836,43.68372],[7.33875,43.68569],[7.33999,43.6855],[7.34161,43.68259],[7.34868,43.6853],[7.34974,43.68701],[7.347,43.6875],[7.34135,43.68616],[7.34051,43.68769],[7.33388,43.68961],[7.33364,43.69358],[7.33114,43.69693],[7.3298,43.70247],[7.33214,43.70403],[7.33409,43.70295],[7.3373,43.70676],[7.33534,43.70853],[7.33611,43.71033],[7.33916,43.70971],[7.3376,43.71172],[7.35065,43.71478],[7.35115,43.71779],[7.35587,43.72073],[7.36073,43.72228],[7.36448,43.72183],[7.37272,43.71778],[7.38156,43.72217],[7.38902,43.723],[7.39044,43.72128],[7.38873,43.71963],[7.39342,43.71997],[7.39903,43.71863],[7.4006,43.72091],[7.40575,43.71937],[7.4106,43.72154],[7.41096,43.7236],[7.41564,43.72592],[7.40911,43.72959],[7.41304,43.73192],[7.41227,43.73439],[7.42297,43.74169],[7.42451,43.74086],[7.43082,43.74873],[7.4382,43.75132],[7.43907,43.74927],[7.44195,43.75076],[7.44491,43.74986],[7.45305,43.75841],[7.45782,43.7596],[7.46222,43.76026],[7.46584,43.75734],[7.46798,43.75697],[7.47464,43.75117],[7.48683,43.749],[7.48809,43.75002],[7.48776,43.75242],[7.48209,43.75688],[7.48497,43.76202],[7.48861,43.76379],[7.48828,43.76502],[7.49021,43.7672],[7.50203,43.77356],[7.50488,43.77419],[7.50628,43.77323],[7.5094,43.77535],[7.50834,43.77818],[7.51056,43.78098],[7.51218,43.78017],[7.52018,43.78188],[7.52067,43.78262],[7.51526,43.78193],[7.51483,43.78271],[7.52189,43.78446],[7.5292,43.784],[7.53016,43.78805],[7.52373,43.79782],[7.51872,43.8025],[7.51775,43.80784],[7.51438,43.8148],[7.51431,43.81913],[7.51035,43.82652],[7.50951,43.83468],[7.50703,43.83773],[7.5079,43.8413],[7.49913,43.84517],[7.49667,43.84978],[7.49496,43.85586],[7.49544,43.86435],[7.49831,43.86423],[7.50022,43.86703],[7.49754,43.86986],[7.49788,43.87165],[7.50136,43.87501],[7.50643,43.87642],[7.51034,43.87942],[7.50988,43.88206],[7.51278,43.88305],[7.5115,43.88487],[7.51292,43.88526],[7.51714,43.88227],[7.51984,43.88621],[7.52684,43.88625],[7.53073,43.89017],[7.53475,43.89039],[7.53854,43.89324],[7.55019,43.89379],[7.55922,43.89729],[7.56195,43.89974],[7.56282,43.90191],[7.56179,43.90452],[7.56237,43.90955],[7.55795,43.9176],[7.56822,43.92304],[7.56744,43.92623],[7.57115,43.92918],[7.57033,43.93125],[7.57145,43.93475],[7.57365,43.93573],[7.5729,43.93779],[7.57074,43.93813],[7.56984,43.94064],[7.56664,43.94326],[7.56917,43.94433],[7.56938,43.94742],[7.57461,43.94655],[7.57439,43.94766],[7.57876,43.94971],[7.58143,43.94818],[7.58318,43.95179],[7.58764,43.95493],[7.59722,43.95597],[7.59847,43.95736],[7.60877,43.95603],[7.61081,43.95422],[7.61142,43.95545],[7.62034,43.96036],[7.63135,43.96423],[7.63641,43.96908],[7.64007,43.97013],[7.64019,43.97157],[7.64346,43.97395],[7.65244,43.97371],[7.65267,43.9755],[7.65525,43.97655],[7.65566,43.98519],[7.66374,43.98693],[7.66384,43.99234],[7.67044,43.99826],[7.66898,43.99994],[7.66774,44.0065],[7.665,44.00934],[7.66556,44.01133],[7.66368,44.01277],[7.66183,44.01791],[7.6632,44.0206],[7.66152,44.02212],[7.66225,44.02822],[7.66465,44.02915],[7.66561,44.03144],[7.67543,44.02946],[7.67611,44.03204],[7.69082,44.04001],[7.69554,44.03966],[7.70046,44.04073],[7.70277,44.0435],[7.70359,44.04767],[7.70259,44.04915],[7.70508,44.05458],[7.71117,44.06025],[7.71444,44.06122],[7.71288,44.06256],[7.71408,44.06543],[7.71417,44.07202],[7.71285,44.07461],[7.71564,44.0778],[7.71615,44.0813],[7.71881,44.08253],[7.71508,44.08405],[7.70876,44.09085],[7.70139,44.09395],[7.69661,44.09774],[7.69639,44.09991],[7.68999,44.10837],[7.68517,44.11117],[7.68285,44.11384],[7.67412,44.11827],[7.67181,44.12194],[7.67031,44.12827],[7.66656,44.13112],[7.66715,44.13343],[7.67632,44.14081],[7.67946,44.14715],[7.67646,44.14779],[7.67524,44.15015],[7.67084,44.15293],[7.67298,44.15995],[7.68095,44.16426],[7.68459,44.17402],[7.68261,44.17425],[7.68059,44.1761],[7.67278,44.17719],[7.6698,44.17539],[7.66457,44.17572],[7.64614,44.17843],[7.63662,44.1771],[7.63006,44.17024],[7.63135,44.16726],[7.6299,44.16489],[7.62687,44.16341],[7.62789,44.16069],[7.62727,44.15869],[7.62183,44.15318],[7.62005,44.14951],[7.60306,44.15003],[7.5981,44.15256],[7.5947,44.15253],[7.58994,44.15035],[7.58545,44.15052],[7.57656,44.15332],[7.57244,44.15148],[7.56482,44.15517],[7.56415,44.15474],[7.56541,44.15122],[7.5613,44.14857],[7.55911,44.14871],[7.55459,44.14638],[7.54319,44.1451],[7.53822,44.14551],[7.53456,44.14798],[7.53086,44.14648],[7.52709,44.13993],[7.52019,44.13767],[7.51776,44.13924],[7.51504,44.13827],[7.51186,44.14202],[7.50903,44.14251],[7.507,44.1444],[7.49313,44.14044],[7.49039,44.137],[7.48275,44.13341],[7.47226,44.13299],[7.46068,44.12579],[7.44823,44.12884],[7.4432,44.12783],[7.43246,44.13022],[7.42979,44.12975],[7.429,44.12279],[7.42688,44.12149],[7.42626,44.11868],[7.42764,44.11641],[7.42695,44.11288],[7.42475,44.11193],[7.41758,44.11519],[7.4145,44.11866],[7.40938,44.11947],[7.40661,44.11793],[7.39289,44.12503],[7.38893,44.12479],[7.36786,44.1164],[7.36439,44.1175],[7.358,44.11602],[7.35436,44.12471],[7.35186,44.12625],[7.34735,44.13574],[7.34573,44.13649],[7.3467,44.13779],[7.34646,44.14024],[7.34467,44.14474],[7.34187,44.14585],[7.33261,44.14379],[7.32831,44.14469],[7.32121,44.14275],[7.31754,44.14313],[7.31084,44.14748],[7.30805,44.14422],[7.30333,44.14605],[7.29595,44.14402],[7.28792,44.14523],[7.28568,44.14253],[7.28136,44.14087],[7.27178,44.14764],[7.26278,44.14803],[7.25657,44.15537],[7.25169,44.15608],[7.24819,44.15907],[7.24706,44.16227],[7.24524,44.16371],[7.24336,44.16825],[7.24351,44.17157],[7.2409,44.17336],[7.23556,44.17544],[7.23307,44.17185],[7.22832,44.16818],[7.22445,44.16902],[7.2194,44.16847],[7.21591,44.17105],[7.21386,44.17502],[7.20479,44.17905],[7.20463,44.1824],[7.20068,44.18698],[7.19677,44.18629],[7.19361,44.1871],[7.19377,44.18976],[7.18942,44.19544],[7.18874,44.2003],[7.18613,44.20135],[7.18305,44.199],[7.17766,44.19725],[7.17532,44.20014],[7.16747,44.20236],[7.16573,44.20631],[7.16274,44.20801],[7.15692,44.20421],[7.14886,44.20153],[7.14844,44.20005],[7.1436,44.20012],[7.13058,44.20712],[7.12559,44.21125],[7.12141,44.21228],[7.11882,44.21514],[7.1139,44.21782],[7.10758,44.21804],[7.10009,44.22147],[7.09254,44.22025],[7.09103,44.22181],[7.09048,44.22507],[7.08654,44.22928],[7.07681,44.23221],[7.07022,44.23298],[7.0653,44.22999],[7.06514,44.22809],[7.06159,44.22671],[7.05582,44.22934],[7.03884,44.22373],[7.03302,44.22541],[7.031,44.22761],[7.03035,44.23138],[7.02716,44.2306],[7.02251,44.23426],[7.01926,44.2322],[7.01676,44.23221],[7.01162,44.23544],[7.00852,44.23524],[7.0042,44.24237],[7.00098,44.24372],[7.0011,44.24682],[6.99845,44.24881],[6.99663,44.25209],[6.99843,44.25883],[6.99534,44.26499],[6.99638,44.26645],[6.99552,44.26905],[6.99722,44.27384],[6.99468,44.27741],[6.99572,44.27988],[6.99004,44.28315],[6.9834,44.28486],[6.98135,44.28675],[6.97188,44.28362],[6.96899,44.28679],[6.97152,44.29174],[6.97022,44.29441],[6.96672,44.29541],[6.96281,44.29345],[6.95753,44.29511],[6.95586,44.29706],[6.95858,44.3021],[6.95796,44.30537],[6.96072,44.30864],[6.96053,44.31085],[6.95462,44.31479],[6.95308,44.31679],[6.95318,44.31876],[6.94645,44.32029],[6.94188,44.3244],[6.93862,44.32453],[6.93687,44.32856],[6.92724,44.33242],[6.92418,44.34088],[6.92207,44.34192],[6.92089,44.34516],[6.92211,44.34623],[6.92257,44.35073],[6.91827,44.35293],[6.91234,44.35322],[6.90612,44.35811],[6.8998,44.35758],[6.88743,44.36105],[6.88695,44.36526],[6.88837,44.36737],[6.89245,44.36824],[6.89518,44.37016],[6.89685,44.37559],[6.89493,44.38072],[6.89598,44.38451],[6.89478,44.38862],[6.8968,44.39444],[6.89452,44.39751],[6.89475,44.40214],[6.89765,44.4055],[6.89409,44.40978],[6.89287,44.42078],[6.89747,44.42087],[6.89946,44.42218],[6.90288,44.42045],[6.91796,44.4274],[6.922,44.4235],[6.92475,44.42235],[6.92643,44.42372],[6.93332,44.42508],[6.93255,44.42727],[6.93331,44.42975],[6.94608,44.42727],[6.94809,44.4297],[6.94415,44.43248],[6.93936,44.43385],[6.93889,44.43688],[6.93637,44.43992],[6.93331,44.44026],[6.93253,44.44151],[6.92511,44.44487],[6.92097,44.44571],[6.91278,44.45049],[6.91107,44.45214],[6.91154,44.45487],[6.90767,44.46084],[6.90618,44.46766],[6.90086,44.47048],[6.89165,44.47189],[6.88234,44.47677],[6.88071,44.47927],[6.87737,44.48079],[6.87591,44.48248],[6.87742,44.48652],[6.87684,44.48871],[6.86816,44.49288],[6.86567,44.495],[6.86446,44.49875],[6.85967,44.50279],[6.86123,44.50342],[6.85816,44.50698],[6.8594,44.50981],[6.85644,44.51663],[6.85741,44.52259],[6.8534,44.52881],[6.85523,44.52965],[6.85554,44.53186],[6.8579,44.53402],[6.86984,44.53684],[6.87236,44.54566],[6.87681,44.54629],[6.87606,44.55061],[6.87856,44.55434],[6.88385,44.55183],[6.89038,44.55234],[6.89175,44.55449],[6.89473,44.55546],[6.89863,44.55536],[6.90192,44.55391],[6.90731,44.55753],[6.91498,44.55884],[6.91622,44.56038],[6.91317,44.56559],[6.91358,44.56927],[6.92014,44.56937],[6.93287,44.57337],[6.93309,44.57944],[6.93127,44.5819],[6.93474,44.58609],[6.93364,44.58654],[6.93273,44.59271],[6.93375,44.59686],[6.93825,44.59921],[6.93683,44.60129],[6.93768,44.60338],[6.94596,44.60597],[6.95031,44.61004],[6.95039,44.61336],[6.94897,44.61455],[6.94838,44.61745],[6.94926,44.61918],[6.95958,44.62115],[6.96381,44.61882],[6.96837,44.6198],[6.96741,44.62205],[6.96831,44.62472],[6.96234,44.62658],[6.95375,44.63703],[6.95366,44.64384],[6.94769,44.65368],[6.95122,44.65863],[6.9588,44.66247],[6.95929,44.66479],[6.95818,44.66678],[6.95897,44.66863],[6.95769,44.66932],[6.95765,44.6713],[6.96318,44.67811],[6.97121,44.6772],[6.97148,44.67836],[6.97617,44.68092],[6.97762,44.68343],[6.98425,44.68641],[6.98707,44.69014],[6.99916,44.69045],[7.00158,44.6876],[7.00471,44.68716],[7.0069,44.68856],[7.01779,44.68875],[7.02373,44.6913],[7.03031,44.6914],[7.03679,44.68937],[7.04716,44.68323],[7.05381,44.68273],[7.05973,44.67996],[7.07163,44.67948],[7.07711,44.68092],[7.07473,44.68755],[7.07559,44.6903],[7.07099,44.69816],[7.07076,44.70088],[7.06796,44.7022],[7.06761,44.70497],[7.06524,44.70826],[7.06638,44.71078],[7.06602,44.71333],[7.05462,44.71474],[7.04211,44.71855],[7.02991,44.72976],[7.03065,44.73199],[7.02895,44.73526],[7.02345,44.74003],[7.02617,44.74461],[7.02329,44.74748],[7.02134,44.75148],[7.02197,44.75466],[7.02425,44.75541],[7.02519,44.76011],[7.02373,44.76409],[7.02049,44.76779],[7.02229,44.77079],[7.01993,44.77263],[7.01873,44.77659],[7.01505,44.779],[7.01171,44.78369],[7.00594,44.78514],[6.9994,44.78968],[7.00102,44.79187],[7.00395,44.79284],[7.00513,44.79567],[7.00945,44.79834],[7.0101,44.80245],[7.01203,44.8036],[7.01466,44.80957],[7.01962,44.81311],[7.0204,44.82123],[7.02384,44.82307],[7.01955,44.82483],[7.00983,44.82599],[7.00967,44.82879],[7.00635,44.83569],[7.00677,44.83932],[7.00125,44.84229],[6.99383,44.84227],[6.98127,44.84679],[6.97776,44.84581],[6.97103,44.8463],[6.96947,44.8482],[6.9613,44.85066],[6.95494,44.85515],[6.95012,44.85597],[6.94237,44.8597],[6.93724,44.86045],[6.93121,44.86353],[6.92681,44.8592],[6.92691,44.85635],[6.92213,44.85113],[6.91513,44.84749],[6.91316,44.84499],[6.9071,44.84438],[6.90345,44.84795],[6.89816,44.84847],[6.88724,44.84724],[6.87746,44.85104],[6.87019,44.84961],[6.86324,44.85061],[6.85479,44.85776],[6.85122,44.85744],[6.83933,44.86028],[6.8382,44.86186],[6.83334,44.8639],[6.83023,44.86781],[6.82385,44.86905],[6.82184,44.87079],[6.81612,44.87227],[6.81173,44.8751],[6.80796,44.87566],[6.80335,44.87807],[6.79955,44.88769],[6.80152,44.89112],[6.7919,44.88943],[6.78468,44.88975],[6.7837,44.8919],[6.7842,44.8937],[6.7804,44.89336],[6.77884,44.89525],[6.77835,44.89886],[6.77118,44.90344],[6.76169,44.90253],[6.75071,44.90565],[6.74977,44.90754],[6.7508,44.90943],[6.75055,44.91463],[6.75197,44.91733],[6.75177,44.91977],[6.75009,44.9201],[6.74886,44.92244],[6.75389,44.92838],[6.75428,44.93187],[6.76104,44.93077],[6.7609,44.9332],[6.75797,44.93709],[6.75308,44.93787],[6.74484,44.93559],[6.74414,44.93721],[6.75308,44.94296],[6.75389,44.94595],[6.75615,44.94577],[6.75629,44.94698],[6.75839,44.9478],[6.76494,44.95967],[6.76525,44.96197],[6.76347,44.97122],[6.75639,44.97424],[6.75137,44.97777],[6.74965,44.97744],[6.74932,44.98488],[6.742,44.98876],[6.73785,44.98923],[6.73716,44.99349],[6.74986,44.99531],[6.75169,44.99663],[6.74992,45.00364],[6.74487,45.01154],[6.7454,45.0143],[6.74301,45.01647],[6.72119,45.02203],[6.71767,45.02058],[6.70703,45.02188],[6.69188,45.02074],[6.68311,45.02234],[6.67968,45.02057],[6.67388,45.01962],[6.67158,45.0229],[6.67084,45.02901],[6.66941,45.02857],[6.6665,45.03043],[6.6642,45.03385],[6.66572,45.03717],[6.66495,45.03954],[6.67033,45.04178],[6.66949,45.04424],[6.66555,45.04854],[6.66135,45.05],[6.65883,45.05221],[6.66197,45.05425],[6.66365,45.05698],[6.66211,45.07164],[6.65488,45.07092],[6.64524,45.07564],[6.64676,45.08497],[6.64122,45.08734],[6.64107,45.08977],[6.63605,45.09406],[6.63326,45.09407],[6.63121,45.09919],[6.62749,45.10122],[6.62671,45.10376],[6.62999,45.10933],[6.63294,45.11056],[6.63298,45.11466],[6.63563,45.11588],[6.64295,45.11601],[6.6482,45.11477],[6.65489,45.11745],[6.65813,45.12176],[6.66238,45.12051],[6.66636,45.12351],[6.67246,45.12441],[6.67423,45.12841],[6.67382,45.13077],[6.68007,45.14012],[6.69209,45.13918],[6.70496,45.14361],[6.71211,45.14465],[6.72704,45.13849],[6.73583,45.13843],[6.74002,45.13674],[6.75191,45.144],[6.75472,45.15001],[6.76128,45.15323],[6.76795,45.15974],[6.7807,45.15758],[6.7872,45.15333],[6.79684,45.15296],[6.8014,45.15008],[6.81357,45.1479],[6.81942,45.14429],[6.82139,45.14526],[6.82453,45.14229],[6.83037,45.14031],[6.83042,45.13927],[6.83602,45.13523],[6.84725,45.13556],[6.84534,45.13126],[6.84789,45.1272],[6.86733,45.13171],[6.87363,45.13593],[6.88056,45.13489],[6.89235,45.13682],[6.89438,45.13737],[6.89807,45.14141],[6.89756,45.14301],[6.89025,45.1465],[6.88995,45.15012],[6.88411,45.15674],[6.88527,45.15846],[6.89126,45.16173],[6.89224,45.16376],[6.89161,45.16704],[6.89395,45.16852],[6.90345,45.16788],[6.91052,45.16548],[6.91447,45.16871],[6.92427,45.16632],[6.92338,45.1682],[6.92718,45.1705],[6.94713,45.17076],[6.94291,45.17619],[6.94904,45.17802],[6.95059,45.1799],[6.95419,45.17961],[6.95454,45.18245],[6.95226,45.1865],[6.95232,45.18969],[6.9544,45.19168],[6.95844,45.1922],[6.95939,45.19356],[6.96738,45.19639],[6.96447,45.19818],[6.96395,45.20054],[6.96058,45.20298],[6.96575,45.20795],[6.97448,45.20778],[6.98579,45.21143],[6.99306,45.20997],[6.99467,45.21545],[6.99749,45.21502],[7.00356,45.21991],[7.00687,45.21685],[7.01512,45.21629],[7.01959,45.21467],[7.02018,45.21659],[7.02329,45.21858],[7.02497,45.21568],[7.02634,45.21544],[7.04276,45.22531],[7.04488,45.22474],[7.04721,45.22581],[7.05118,45.22533],[7.05749,45.22071],[7.05847,45.21851],[7.06641,45.21043],[7.07185,45.20995],[7.07615,45.21239],[7.07994,45.21276],[7.07944,45.21603],[7.08309,45.21782],[7.08346,45.21921],[7.08324,45.22196],[7.08075,45.22445],[7.08453,45.22623],[7.08872,45.22588],[7.09054,45.2286],[7.09608,45.23095],[7.09833,45.23428],[7.1063,45.23728],[7.10773,45.24317],[7.1106,45.24635],[7.11589,45.24626],[7.12103,45.24421],[7.12521,45.24394],[7.13001,45.24793],[7.13129,45.25118],[7.13759,45.25569],[7.13531,45.26047],[7.13284,45.26067],[7.13174,45.26287],[7.13346,45.26659],[7.13061,45.27067],[7.12815,45.27176],[7.13364,45.27483],[7.13643,45.2808],[7.13369,45.28487],[7.1218,45.29622],[7.11996,45.30184],[7.12049,45.30362],[7.11753,45.30707],[7.11801,45.31155],[7.11271,45.31471],[7.10962,45.3189],[7.11222,45.32415],[7.11117,45.32694],[7.11524,45.32902],[7.12618,45.32677],[7.13175,45.32924],[7.13472,45.33124],[7.13416,45.33609],[7.13173,45.3407],[7.13371,45.34291],[7.13393,45.34723],[7.13815,45.35102],[7.15274,45.3529],[7.15286,45.35505],[7.15757,45.35716],[7.15814,45.35867],[7.16451,45.36066],[7.16034,45.36346],[7.15982,45.36839],[7.15829,45.36918],[7.16278,45.37669],[7.16302,45.38092],[7.16504,45.38358],[7.17513,45.38634],[7.17944,45.39035],[7.17798,45.39342],[7.17887,45.39686],[7.18589,45.40323],[7.18427,45.40748],[7.16718,45.41179],[7.15689,45.41701],[7.15224,45.4232],[7.14149,45.4261],[7.13385,45.42657],[7.1194,45.43273],[7.11435,45.43349],[7.11352,45.43419],[7.11457,45.43595],[7.11461,45.44172],[7.11215,45.44363],[7.11086,45.44711],[7.10775,45.44815],[7.10073,45.45448],[7.09918,45.45879],[7.09893,45.46096],[7.10151,45.46567],[7.10438,45.46704],[7.10303,45.46845],[7.08952,45.47078],[7.08655,45.47275],[7.08204,45.4724],[7.07704,45.47379],[7.07358,45.47308],[7.06474,45.47386],[7.06028,45.47099],[7.05038,45.47212],[7.04799,45.47344],[7.04718,45.47753],[7.04585,45.47835],[7.04956,45.485],[7.0556,45.48749],[7.05636,45.48962],[7.05457,45.49497],[7.04537,45.49748],[7.0391,45.49608],[7.03584,45.49693],[7.02909,45.49596],[7.02122,45.49678],[7.01026,45.49981],[7.00497,45.50319],[7.00033,45.50442],[7.0013,45.51132],[7.00531,45.5171],[7.00326,45.52151],[6.99119,45.53044],[6.99261,45.53745],[6.99596,45.54516],[6.99254,45.54886],[6.99123,45.5553],[6.98975,45.55676],[6.99022,45.56387],[6.99347,45.56517],[6.997,45.5689],[6.99376,45.5717],[6.99529,45.57456],[6.99445,45.57595],[6.99102,45.57865],[6.98075,45.58318],[6.97801,45.58718],[6.97802,45.59042],[6.9806,45.59428],[6.97991,45.59692],[6.98505,45.60761],[6.98636,45.6131],[6.98429,45.61458],[6.98353,45.61691],[6.98514,45.6209],[6.98648,45.62147],[6.98719,45.62447],[6.99602,45.62946],[6.99902,45.63384],[7.00104,45.63498],[7.00069,45.6399],[6.99315,45.63958],[6.99065,45.64109],[6.98948,45.64397],[6.97486,45.64656],[6.97241,45.64883],[6.97046,45.65387],[6.96058,45.65485],[6.95885,45.65336],[6.93083,45.64567],[6.92955,45.64717],[6.92666,45.6472],[6.9202,45.65071],[6.91483,45.65173],[6.91603,45.65309],[6.9165,45.65955],[6.91452,45.66116],[6.90214,45.66374],[6.90586,45.6676],[6.90661,45.67036],[6.90517,45.67241],[6.907,45.6759],[6.90253,45.68094],[6.89874,45.6801],[6.89761,45.67812],[6.89334,45.6755],[6.88279,45.68071],[6.88195,45.67925],[6.87889,45.67865],[6.86859,45.68096],[6.86697,45.68396],[6.86542,45.68461],[6.8563,45.68551],[6.84634,45.6902],[6.84687,45.69189],[6.84139,45.7004],[6.83602,45.70237],[6.83149,45.70201],[6.82719,45.70435],[6.82642,45.70762],[6.82221,45.71131],[6.8197,45.71524],[6.81935,45.71868],[6.80842,45.72515],[6.80814,45.72728],[6.81385,45.73332],[6.81725,45.7403],[6.80812,45.74503],[6.80562,45.74846],[6.80719,45.75046],[6.805,45.75515],[6.80598,45.76395],[6.80503,45.76489],[6.805,45.76859],[6.80638,45.76979],[6.80181,45.77525],[6.80252,45.77837],[6.80084,45.78078],[6.80216,45.78195],[6.80199,45.78384],[6.80563,45.79289],[6.81312,45.79548],[6.81136,45.79762],[6.81102,45.80205],[6.81307,45.80747],[6.81035,45.81217],[6.80484,45.81559],[6.8178,45.83152],[6.81889,45.8362],[6.8251,45.83798],[6.8333,45.83743],[6.84147,45.84088],[6.84436,45.84046],[6.85433,45.83681],[6.86037,45.83274],[6.86078,45.83109],[6.86263,45.83035],[6.86158,45.82868],[6.86443,45.82863],[6.86437,45.82733],[6.86738,45.82409],[6.87009,45.82554],[6.87049,45.82882],[6.87215,45.83011],[6.87205,45.83124],[6.86954,45.83205],[6.87268,45.83638],[6.86991,45.8379],[6.87025,45.83932],[6.87207,45.83946],[6.87479,45.84228],[6.87361,45.8455],[6.87914,45.84915],[6.88277,45.84936],[6.8951,45.8426],[6.90345,45.84231],[6.90785,45.84398],[6.91,45.84186],[6.91327,45.84082],[6.9153,45.84201],[6.91646,45.84444],[6.92182,45.84759],[6.92784,45.84785],[6.93371,45.84481],[6.93795,45.84684],[6.94137,45.84693],[6.94221,45.84924],[6.94121,45.85113],[6.9455,45.85316],[6.94944,45.85701],[6.95134,45.86122],[6.9608,45.86186],[6.96288,45.86349],[6.96765,45.86428],[6.97085,45.8669],[6.97638,45.86825],[6.98214,45.86918],[6.99145,45.86798],[6.99921,45.87366],[6.99995,45.87547],[6.99895,45.87732],[7.00079,45.88071],[7.00536,45.88435],[7.00675,45.88709],[7.00452,45.88966],[7.00315,45.89783],[7.0082,45.90406],[7.01427,45.90633],[7.01462,45.90975],[7.01813,45.91226],[7.01831,45.91437],[7.02098,45.91619],[7.02441,45.91619],[7.02922,45.91963],[7.03496,45.92115],[7.03803,45.92066],[7.04036,45.92233],[7.04507,45.92245],[7.04357,45.92435],[7.04159,45.93142],[7.03854,45.93353],[7.03588,45.93793],[7.03716,45.94143],[7.03676,45.94357],[7.03854,45.94476],[7.03705,45.95221],[7.03761,45.9543],[7.03531,45.95598],[7.02302,45.9582],[7.01798,45.96035],[7.00901,45.96897],[7.01015,45.97316],[7.02108,45.97621],[7.02321,45.97847],[7.02319,45.97978],[7.02045,45.98174],[7.01966,45.98389],[7.01532,45.98682],[7.01218,45.98709],[7.01153,45.98923],[7.01255,45.99144],[7.01023,45.99452],[7.01048,45.99738],[7.0054,46.00157],[7.00072,45.99896],[6.9851,46.00465],[6.98519,46.00803],[6.98119,46.0173],[6.98147,46.01981],[6.97087,46.02593],[6.96653,46.03124],[6.9629,46.03053],[6.95472,46.04164],[6.95022,46.05166],[6.94321,46.0508],[6.93711,46.05538],[6.9358,46.05512],[6.93471,46.0567],[6.93499,46.05866],[6.93722,46.06052],[6.93636,46.06253],[6.93791,46.06328],[6.93392,46.06597],[6.92857,46.06465],[6.92451,46.06519],[6.91888,46.05937],[6.91465,46.05697],[6.91366,46.05503],[6.91106,46.05415],[6.91082,46.05208],[6.90853,46.05024],[6.89518,46.04839],[6.89152,46.04574],[6.89131,46.04237],[6.88644,46.04464],[6.883,46.04446],[6.87558,46.04774],[6.87614,46.04902],[6.87263,46.05205],[6.87295,46.05505],[6.88041,46.06935],[6.88759,46.07307],[6.89147,46.07386],[6.88831,46.07877],[6.89124,46.08203],[6.89182,46.08511],[6.88861,46.08695],[6.88807,46.08905],[6.88281,46.09512],[6.88681,46.09798],[6.88771,46.10028],[6.89272,46.10432],[6.89351,46.10685],[6.89554,46.10871],[6.89381,46.10968],[6.89326,46.11236],[6.89727,46.12085],[6.89993,46.1239],[6.89505,46.12373],[6.89162,46.12535],[6.88175,46.12283],[6.87617,46.1258],[6.86956,46.12498],[6.85178,46.12642],[6.84486,46.12814],[6.8427,46.12926],[6.842,46.13186],[6.83805,46.13264],[6.81885,46.13097],[6.81712,46.1296],[6.81473,46.1297],[6.807,46.13654],[6.80191,46.13534],[6.79854,46.1361],[6.79654,46.13862],[6.79483,46.14711],[6.7904,46.15472],[6.79285,46.1594],[6.79198,46.16223],[6.79802,46.16793],[6.80546,46.17246],[6.80752,46.17859],[6.8127,46.18164],[6.80366,46.20435],[6.80734,46.20803],[6.80809,46.21084],[6.8112,46.21468],[6.81337,46.21514],[6.81677,46.22018],[6.8217,46.22314],[6.82098,46.23187],[6.82727,46.23419],[6.82959,46.23382],[6.83727,46.24109],[6.83789,46.2448],[6.83993,46.24824],[6.84769,46.25022],[6.85558,46.25514],[6.85456,46.25927],[6.86012,46.26613],[6.85888,46.27308],[6.86449,46.27961],[6.86451,46.28299],[6.85922,46.2882],[6.85891,46.2906],[6.85503,46.29242],[6.84778,46.28978],[6.8453,46.29105],[6.84374,46.29427],[6.83978,46.29506],[6.83547,46.29793],[6.83444,46.29978],[6.82998,46.30004],[6.82813,46.30205],[6.83004,46.3055],[6.82504,46.31187],[6.80722,46.32059],[6.80141,46.31951],[6.79993,46.32047],[6.79752,46.32588],[6.79887,46.32893],[6.79657,46.33097],[6.79647,46.33295],[6.78671,46.33216],[6.78432,46.33316],[6.78405,46.337],[6.7807,46.34069],[6.77933,46.34462],[6.77368,46.34781],[6.77199,46.35031],[6.77044,46.35519],[6.77142,46.36092],[6.77533,46.3642],[6.78092,46.3665],[6.79186,46.36715],[6.7975,46.37175],[6.79866,46.37392],[6.80347,46.37633],[6.80617,46.37983],[6.80605,46.38304],[6.80196,46.38559],[6.80308,46.39217],[6.80531,46.39414],[6.7898,46.39292],[6.76026,46.40038],[6.75751,46.4026],[6.73504,46.40501],[6.72387,46.40796],[6.67876,46.4074],[6.66642,46.40458],[6.65324,46.40504],[6.64968,46.40621],[6.6354,46.40603],[6.60481,46.4021],[6.58809,46.40232],[6.54903,46.39494],[6.54388,46.39482],[6.52058,46.4042],[6.51307,46.40479],[6.4924,46.39843],[6.48447,46.39349],[6.48286,46.39192],[6.48257,46.3832],[6.4804,46.37932],[6.4749,46.37482],[6.43144,46.36004],[6.41313,46.35964],[6.40568,46.35183],[6.39833,46.34929],[6.39316,46.34246],[6.38911,46.34012],[6.36726,46.34555],[6.35953,46.34945],[6.35698,46.35224],[6.35697,46.35434],[6.35221,46.35843],[6.3522,46.36044],[6.35017,46.36209],[6.35064,46.3673],[6.34468,46.37001],[6.33037,46.36977],[6.32669,46.37157],[6.32111,46.36893],[6.3152,46.36877],[6.30878,46.36642],[6.30521,46.36676],[6.29669,46.36107],[6.29418,46.36085],[6.28727,46.35701],[6.28051,46.35125],[6.27674,46.34971],[6.27666,46.34483],[6.27127,46.33736],[6.26937,46.33669],[6.26234,46.32928],[6.26198,46.32758],[6.25767,46.32551],[6.25627,46.32355],[6.25793,46.32178],[6.25805,46.31978],[6.25333,46.31161],[6.24879,46.30643],[6.24594,46.30575],[6.24351,46.30353],[6.24897,46.30177],[6.24738,46.30043],[6.24907,46.29871],[6.24839,46.29634],[6.24989,46.29638],[6.24849,46.29413],[6.25079,46.29365],[6.2529,46.29051],[6.25108,46.28764],[6.24864,46.28728],[6.24569,46.28513],[6.24292,46.28523],[6.23813,46.28102],[6.23898,46.27932],[6.23758,46.27775],[6.23809,46.27584],[6.24274,46.2728],[6.24892,46.26308],[6.26135,46.25446],[6.25993,46.2518],[6.26305,46.25093],[6.26662,46.24747],[6.27906,46.25145],[6.2785,46.25265],[6.28502,46.25489],[6.28328,46.25594],[6.28662,46.25718],[6.29162,46.26263],[6.29488,46.26459],[6.29669,46.26358],[6.29418,46.25944],[6.29541,46.25583],[6.30346,46.25497],[6.30953,46.25625],[6.30587,46.25141],[6.3094,46.24994],[6.30882,46.24735],[6.31025,46.24383],[6.29447,46.22492],[6.27737,46.21561],[6.26857,46.2133],[6.26647,46.2137],[6.25373,46.20886],[6.24755,46.20516],[6.24578,46.20662],[6.24494,46.20498],[6.23422,46.20639],[6.22798,46.2035],[6.22778,46.20251],[6.22187,46.2006],[6.22207,46.19897],[6.21753,46.19791],[6.2144,46.19405],[6.20673,46.19216],[6.20174,46.18665],[6.19892,46.1853],[6.19827,46.18344],[6.19631,46.18409],[6.19145,46.18128],[6.18736,46.18034],[6.1875,46.17871],[6.18618,46.1784],[6.1862,46.17493],[6.18889,46.16633],[6.1771,46.15908],[6.15211,46.15172],[6.14858,46.14959],[6.14492,46.14483],[6.14141,46.14618],[6.13618,46.14153],[6.13121,46.1404],[6.12662,46.14046],[6.1212,46.14266],[6.10815,46.14315],[6.10389,46.14442],[6.09902,46.14391],[6.09247,46.15176],[6.07493,46.14889],[6.07268,46.14993],[6.05204,46.1514],[6.04856,46.14723],[6.04737,46.14278],[6.04865,46.14131],[6.04553,46.13991],[6.04327,46.14138],[6.03671,46.13646],[6.03386,46.13682],[6.03394,46.13799],[6.03207,46.13918],[6.02426,46.14038],[6.01793,46.1427],[6.00343,46.14191],[5.99278,46.14442],[5.98754,46.14266],[5.98532,46.14331],[5.98224,46.14174],[5.98299,46.14096],[5.98225,46.13721],[5.97718,46.13305],[5.97368,46.13158],[5.96981,46.13191],[5.96529,46.12958],[5.96112,46.13043],[5.95729,46.12794],[5.95606,46.13209],[5.94621,46.12795],[5.93584,46.12887],[5.92601,46.12795],[5.92537,46.13045],[5.92027,46.13121],[5.90353,46.12003],[5.89404,46.11947],[5.89171,46.11752],[5.88532,46.1079],[5.88759,46.10405],[5.8929,46.09906],[5.89352,46.09562],[5.89144,46.08848],[5.88745,46.08582],[5.88318,46.08492],[5.87172,46.08685],[5.85932,46.08534],[5.85567,46.08677],[5.8464,46.09363],[5.84322,46.09639],[5.84194,46.0998],[5.83952,46.10231],[5.83155,46.10625],[5.82432,46.10364],[5.82041,46.10429],[5.81956,46.10311],[5.82255,46.10126],[5.82374,46.09752],[5.82269,46.09225],[5.82169,46.08989],[5.81771,46.08629],[5.81786,46.0833],[5.81608,46.08097],[5.81142,46.07842],[5.81157,46.07611],[5.80762,46.06393],[5.80879,46.05999],[5.81424,46.05716],[5.8128,46.05189],[5.807,46.04383],[5.80932,46.03768],[5.80952,46.03177],[5.81198,46.02769],[5.8124,46.02398],[5.80935,46.01868],[5.80597,46.01639],[5.80564,46.01429],[5.81092,46.00993],[5.80953,46.00538],[5.81061,45.99788],[5.80964,45.9898],[5.81051,45.9882],[5.81877,45.98205],[5.83209,45.97506],[5.83403,45.97203],[5.83269,45.95919],[5.83502,45.95111],[5.83296,45.94936],[5.83131,45.94258],[5.8252,45.9389],[5.83123,45.93846],[5.8275,45.93653],[5.82288,45.93185],[5.82187,45.92931],[5.82221,45.92638],[5.82844,45.91973],[5.82941,45.91602],[5.82854,45.9093],[5.80914,45.86275],[5.80367,45.85558],[5.79722,45.83105],[5.78962,45.82683],[5.78564,45.8211],[5.78407,45.81651],[5.78451,45.81321],[5.78678,45.80941],[5.78652,45.80324],[5.7842,45.79507],[5.78301,45.78422],[5.78008,45.77741],[5.78307,45.77292],[5.78253,45.76842],[5.77904,45.75989],[5.78353,45.75334],[5.7835,45.74431],[5.7819,45.7431],[5.76984,45.74131],[5.77616,45.72922],[5.77624,45.72638],[5.77329,45.72359],[5.7648,45.72029],[5.755,45.70731],[5.74876,45.7053],[5.7425,45.70688],[5.73821,45.71035],[5.71808,45.70793],[5.70835,45.71057],[5.7006,45.70995],[5.69972,45.70831],[5.70101,45.7021],[5.70573,45.6962],[5.70958,45.68883],[5.70976,45.68648],[5.70565,45.68013],[5.68488,45.66616],[5.68366,45.66197],[5.68919,45.6485],[5.68861,45.64511],[5.68486,45.64149],[5.67812,45.63836],[5.65791,45.6385],[5.6536,45.63715],[5.64941,45.63371],[5.6478,45.62598],[5.63695,45.62175],[5.63581,45.6144],[5.63164,45.61124],[5.62646,45.61134],[5.62375,45.61327],[5.61262,45.63011],[5.60519,45.63358],[5.6043,45.63595],[5.60645,45.63971],[5.60388,45.64289],[5.60266,45.65153],[5.6,45.65435],[5.58736,45.65987],[5.58641,45.66707],[5.57183,45.67136],[5.57065,45.66992],[5.56827,45.67055],[5.56932,45.67213],[5.56323,45.67437],[5.56171,45.67257],[5.5553,45.67158],[5.55251,45.67229],[5.55171,45.67402],[5.55478,45.67808],[5.54676,45.68483],[5.54517,45.6874],[5.54568,45.69063],[5.54689,45.69122],[5.54543,45.695],[5.54595,45.69733],[5.54858,45.69946],[5.55599,45.69763],[5.56202,45.69196],[5.56144,45.68653],[5.56384,45.68466],[5.56682,45.68413],[5.57031,45.68443],[5.57554,45.6881],[5.57575,45.69179],[5.57368,45.69473],[5.57117,45.69688],[5.56166,45.69998],[5.55511,45.70026],[5.55195,45.70224],[5.55417,45.70484],[5.55443,45.7073],[5.54955,45.71181],[5.54554,45.71359],[5.53119,45.71427],[5.52567,45.71673],[5.51854,45.73016],[5.51623,45.73225],[5.50261,45.74016],[5.49718,45.74531],[5.48468,45.75268],[5.45741,45.78099],[5.44609,45.78685],[5.43858,45.79544],[5.42216,45.80767],[5.42048,45.81889],[5.42117,45.82202],[5.42519,45.82488],[5.43288,45.82435],[5.43545,45.82541],[5.43619,45.82813],[5.43494,45.83109],[5.42847,45.83631],[5.41901,45.83968],[5.41678,45.84248],[5.41654,45.84744],[5.41313,45.85222],[5.40958,45.85318],[5.40102,45.85913],[5.38417,45.86548],[5.37346,45.87347],[5.35383,45.88327],[5.35102,45.88371],[5.34091,45.88051],[5.3357,45.87466],[5.33359,45.869],[5.3293,45.86357],[5.3142,45.85831],[5.30918,45.85493],[5.30648,45.85037],[5.30202,45.84765],[5.30054,45.84399],[5.29994,45.83541],[5.29385,45.8277],[5.29062,45.82026],[5.29107,45.81638],[5.28892,45.81112],[5.27769,45.80349],[5.27556,45.8009],[5.27386,45.79567],[5.27024,45.79172],[5.23901,45.77686],[5.22666,45.76948],[5.22107,45.76845],[5.21468,45.76925],[5.20762,45.77182],[5.19153,45.77169],[5.18802,45.77466],[5.18681,45.78209],[5.17752,45.79307],[5.17292,45.79503],[5.16791,45.79515],[5.16037,45.80231],[5.1491,45.80602],[5.14498,45.8046],[5.13272,45.80881],[5.13202,45.80774],[5.12554,45.81106],[5.11427,45.8109],[5.11246,45.80991],[5.11151,45.80714],[5.1144,45.80198],[5.11445,45.79914],[5.1133,45.798],[5.10826,45.79844],[5.10609,45.80011],[5.10495,45.80333],[5.10539,45.80844],[5.10372,45.81367],[5.10107,45.81338],[5.09606,45.80333],[5.09612,45.79802],[5.08931,45.78428],[5.05933,45.79198],[5.06036,45.78837],[5.05952,45.78254],[5.06533,45.77167],[5.06575,45.76833],[5.06752,45.76527],[5.08412,45.76541],[5.09544,45.76918],[5.09104,45.76235],[5.09261,45.76021],[5.09107,45.7602],[5.08938,45.74966],[5.09206,45.74816],[5.09132,45.7461],[5.09304,45.74579],[5.09263,45.744],[5.09531,45.74344],[5.09453,45.73945],[5.12601,45.73791],[5.1321,45.73375],[5.13897,45.73102],[5.13752,45.72767],[5.14076,45.72341],[5.14291,45.72381],[5.14393,45.72004],[5.1553,45.71746],[5.15776,45.71519],[5.15924,45.71524],[5.15879,45.71283],[5.16021,45.71176],[5.15946,45.70822],[5.15639,45.70474],[5.154,45.69972],[5.1533,45.69996],[5.15429,45.70255],[5.15017,45.70581],[5.14877,45.70614],[5.14957,45.70316],[5.14656,45.70364],[5.14635,45.70082],[5.14306,45.70003],[5.14024,45.70271],[5.13788,45.70291],[5.13689,45.7052],[5.13576,45.70498],[5.13469,45.70654],[5.13242,45.70558],[5.13106,45.70771],[5.11909,45.69971],[5.11263,45.70257],[5.11072,45.69852],[5.10489,45.70038],[5.10503,45.69409],[5.10762,45.69191],[5.10685,45.69036],[5.10836,45.68987],[5.10813,45.68802],[5.10057,45.68444],[5.09426,45.68288],[5.08986,45.67952],[5.08916,45.6772],[5.0839,45.67597],[5.08201,45.67787],[5.0753,45.67218],[5.07307,45.67306],[5.06907,45.669],[5.06333,45.66644],[5.06083,45.66642],[5.05402,45.66006],[5.05806,45.65324],[5.04805,45.64822],[5.04056,45.6471],[5.03834,45.64495],[5.03995,45.64387],[5.03515,45.6372],[5.03906,45.6322],[5.03508,45.62847],[5.03906,45.62702],[5.04364,45.62133],[5.0386,45.61758],[5.03673,45.6129],[5.0278,45.6172],[5.01584,45.6192],[5.00475,45.62311],[4.98945,45.61853],[4.99257,45.61548],[4.99713,45.61546],[5.00199,45.61395],[4.99796,45.60341],[4.97093,45.6132],[4.96038,45.61008],[4.93608,45.60884],[4.92753,45.60571],[4.91662,45.60728],[4.90101,45.60619],[4.89278,45.60156],[4.88234,45.6018],[4.88136,45.59881],[4.87448,45.59567],[4.86593,45.59496],[4.85978,45.59083],[4.86153,45.58697],[4.8577,45.58044],[4.85759,45.57652],[4.85278,45.57888],[4.84907,45.5792],[4.84393,45.5821],[4.83809,45.58317],[4.82959,45.58804],[4.8261,45.58739],[4.81629,45.58874],[4.81316,45.58764],[4.81082,45.58971],[4.80559,45.58889],[4.80406,45.58752],[4.77713,45.5874],[4.77778,45.58477],[4.78208,45.58058],[4.81108,45.57113],[4.82741,45.551],[4.8351,45.54538],[4.86444,45.53734],[4.86971,45.53471],[4.87281,45.5313],[4.87174,45.52741],[4.86848,45.52344],[4.84192,45.50099],[4.82509,45.49534],[4.81201,45.48335],[4.78984,45.47533],[4.78062,45.4709],[4.77994,45.46708],[4.78132,45.45778],[4.77948,45.45504],[4.77592,45.45421],[4.76894,45.45707],[4.76507,45.45742],[4.75694,45.45571],[4.75492,45.45336],[4.75493,45.45102],[4.75582,45.44623],[4.76047,45.43709],[4.76032,45.43362],[4.75947,45.43184],[4.75235,45.42813],[4.74476,45.42133],[4.74225,45.41759],[4.74211,45.41461]]],[[[7.03158,43.52104],[7.03577,43.51748],[7.04344,43.51568],[7.06116,43.51588],[7.06665,43.5148],[7.06711,43.51365],[7.06804,43.51591],[7.06977,43.51588],[7.07088,43.51736],[7.0636,43.5201],[7.05326,43.52099],[7.04834,43.52376],[7.04403,43.52412],[7.0372,43.52152],[7.03221,43.52344],[7.03158,43.52104]]],[[[7.03709,43.50679],[7.04782,43.5045],[7.05544,43.50782],[7.04727,43.50943],[7.03943,43.50903],[7.0371,43.5085],[7.03709,43.50679]]]]}}]}