{"type":"FeatureCollection","features":[{"type":"Feature","properties":{"reg_name":"francia-loira","source":"IGN Admin Express via france-geojson, Licence Ouverte 2.0"},"geometry":{"type":"MultiPolygon","coordinates":[[[[-2.62284,47.40975],[-2.62341,47.41085],[-2.62134,47.41139],[-2.62008,47.41356],[-2.61777,47.41153],[-2.62284,47.40975]]],[[[-2.45849,47.44812],[-2.45336,47.45536],[-2.45343,47.46207],[-2.44145,47.46617],[-2.4377,47.46597],[-2.43407,47.47211],[-2.43031,47.47294],[-2.43106,47.4743],[-2.42961,47.47577],[-2.42303,47.47711],[-2.41863,47.47256],[-2.42321,47.46882],[-2.42211,47.46765],[-2.4182,47.46709],[-2.41693,47.46399],[-2.41721,47.46109],[-2.39994,47.45598],[-2.39039,47.45688],[-2.3862,47.45835],[-2.38342,47.45991],[-2.38393,47.462],[-2.36826,47.46422],[-2.35899,47.45706],[-2.35253,47.45467],[-2.34954,47.45773],[-2.33287,47.46002],[-2.32658,47.45878],[-2.31697,47.46129],[-2.31187,47.46524],[-2.31437,47.47635],[-2.31331,47.47869],[-2.31395,47.48217],[-2.31314,47.4859],[-2.30406,47.49154],[-2.30123,47.49639],[-2.3018,47.49758],[-2.29913,47.50048],[-2.29902,47.50467],[-2.29696,47.50845],[-2.2981,47.51548],[-2.29642,47.51599],[-2.29576,47.51454],[-2.28997,47.51364],[-2.28896,47.51517],[-2.28697,47.51529],[-2.28771,47.51373],[-2.28083,47.50958],[-2.27908,47.5115],[-2.27637,47.51111],[-2.27531,47.51256],[-2.27198,47.51098],[-2.26641,47.51038],[-2.26581,47.51185],[-2.26136,47.51361],[-2.25494,47.51151],[-2.25568,47.5064],[-2.26564,47.50178],[-2.24428,47.4936],[-2.22867,47.49918],[-2.22801,47.50077],[-2.22282,47.50229],[-2.22287,47.50441],[-2.21722,47.50584],[-2.21556,47.50839],[-2.18452,47.51226],[-2.18651,47.50668],[-2.18436,47.50496],[-2.18376,47.50179],[-2.18695,47.5001],[-2.19159,47.50076],[-2.19259,47.50014],[-2.19216,47.49664],[-2.18928,47.49397],[-2.18129,47.4908],[-2.17249,47.49201],[-2.16462,47.48915],[-2.15621,47.49597],[-2.15418,47.49636],[-2.15426,47.50754],[-2.15296,47.51096],[-2.15498,47.51521],[-2.15602,47.52203],[-2.14534,47.52482],[-2.13252,47.52653],[-2.13087,47.52745],[-2.13258,47.52963],[-2.13199,47.53119],[-2.12373,47.52854],[-2.11782,47.528],[-2.09855,47.53396],[-2.09833,47.53761],[-2.09683,47.54033],[-2.10465,47.54715],[-2.1044,47.54968],[-2.1018,47.55207],[-2.10132,47.55593],[-2.09951,47.55806],[-2.10023,47.56024],[-2.09897,47.56611],[-2.09669,47.57052],[-2.09935,47.57298],[-2.09842,47.57536],[-2.10051,47.57726],[-2.10314,47.57459],[-2.10474,47.57525],[-2.10506,47.57754],[-2.10006,47.57899],[-2.09953,47.58077],[-2.10385,47.59087],[-2.10194,47.59608],[-2.08819,47.60205],[-2.08602,47.60403],[-2.08369,47.61114],[-2.08499,47.62123],[-2.08846,47.62605],[-2.09704,47.63136],[-2.09148,47.63832],[-2.09037,47.64242],[-2.08627,47.64451],[-2.08369,47.64866],[-2.0812,47.6502],[-2.07387,47.65165],[-2.06747,47.64977],[-2.0515,47.64957],[-2.05066,47.65069],[-2.05115,47.6526],[-2.0484,47.65734],[-2.0485,47.66004],[-2.0499,47.6617],[-2.04067,47.66704],[-2.03908,47.66954],[-2.02939,47.66689],[-2.01813,47.66704],[-2.01291,47.66602],[-2.00936,47.67138],[-2.00266,47.67347],[-1.9873,47.68139],[-1.98457,47.68473],[-1.98208,47.68523],[-1.98261,47.68696],[-1.97438,47.69394],[-1.97254,47.69355],[-1.9717,47.69138],[-1.96889,47.68964],[-1.96927,47.67381],[-1.96759,47.67194],[-1.96124,47.67092],[-1.95381,47.67227],[-1.94018,47.68511],[-1.9363,47.68665],[-1.9174,47.6913],[-1.91116,47.69167],[-1.89866,47.6955],[-1.89184,47.69633],[-1.88966,47.69528],[-1.88688,47.69606],[-1.87828,47.69535],[-1.86654,47.70194],[-1.86401,47.70698],[-1.85831,47.70827],[-1.83995,47.7055],[-1.82753,47.71059],[-1.82547,47.70976],[-1.82512,47.70784],[-1.82088,47.70484],[-1.815,47.70554],[-1.81284,47.70436],[-1.80445,47.70336],[-1.80242,47.70144],[-1.79621,47.70076],[-1.78963,47.70203],[-1.78441,47.6992],[-1.77678,47.69965],[-1.7716,47.69826],[-1.76927,47.69838],[-1.76869,47.69949],[-1.76165,47.70244],[-1.75994,47.70444],[-1.75709,47.70467],[-1.75137,47.70748],[-1.74485,47.70685],[-1.74291,47.70507],[-1.73769,47.7049],[-1.73515,47.704],[-1.72986,47.69936],[-1.72206,47.69842],[-1.72061,47.69955],[-1.71339,47.69931],[-1.71127,47.70038],[-1.7106,47.70845],[-1.69439,47.71096],[-1.69368,47.7121],[-1.6895,47.71338],[-1.68508,47.71308],[-1.68397,47.71168],[-1.66936,47.71254],[-1.66056,47.7092],[-1.65751,47.70944],[-1.6556,47.71053],[-1.65482,47.71259],[-1.65597,47.71363],[-1.65561,47.71518],[-1.64953,47.71782],[-1.6485,47.72087],[-1.64319,47.72244],[-1.63818,47.72232],[-1.63999,47.72575],[-1.63648,47.73852],[-1.63726,47.74016],[-1.6365,47.74244],[-1.63351,47.74345],[-1.62602,47.75671],[-1.62713,47.75983],[-1.62306,47.76357],[-1.61985,47.76431],[-1.61858,47.7625],[-1.61577,47.76255],[-1.61325,47.7644],[-1.60949,47.76425],[-1.60771,47.76273],[-1.60495,47.76251],[-1.59775,47.76704],[-1.5944,47.76697],[-1.59378,47.76843],[-1.59832,47.77021],[-1.59435,47.7726],[-1.5952,47.77419],[-1.59341,47.77605],[-1.59007,47.77616],[-1.58641,47.77989],[-1.57565,47.77791],[-1.56868,47.77953],[-1.56516,47.77889],[-1.56279,47.78118],[-1.55333,47.78514],[-1.54974,47.78282],[-1.52904,47.78478],[-1.52027,47.79362],[-1.50327,47.80143],[-1.50192,47.79931],[-1.49958,47.79845],[-1.49089,47.79837],[-1.48778,47.79983],[-1.47311,47.80197],[-1.47054,47.80336],[-1.46838,47.80681],[-1.46675,47.80731],[-1.46675,47.80921],[-1.46938,47.8124],[-1.46935,47.81492],[-1.47369,47.81937],[-1.47333,47.82276],[-1.47546,47.82359],[-1.47483,47.82492],[-1.4813,47.82854],[-1.48241,47.83088],[-1.47823,47.83588],[-1.4718,47.83304],[-1.46514,47.83433],[-1.46257,47.83586],[-1.46061,47.83542],[-1.4588,47.83179],[-1.45427,47.83099],[-1.45255,47.83132],[-1.45192,47.83273],[-1.44794,47.83318],[-1.43918,47.83031],[-1.43264,47.83233],[-1.43019,47.83177],[-1.42973,47.83278],[-1.42335,47.83249],[-1.41784,47.82748],[-1.41581,47.82706],[-1.41279,47.82873],[-1.41083,47.82852],[-1.40574,47.8245],[-1.40156,47.8259],[-1.39851,47.8291],[-1.39465,47.82936],[-1.38907,47.82787],[-1.38813,47.8261],[-1.38377,47.82475],[-1.38103,47.82196],[-1.38057,47.81833],[-1.37666,47.81489],[-1.37805,47.80994],[-1.36478,47.80659],[-1.36148,47.80345],[-1.36506,47.7991],[-1.32435,47.79206],[-1.31173,47.79124],[-1.29397,47.78657],[-1.24588,47.77672],[-1.24459,47.77928],[-1.24464,47.78296],[-1.2404,47.79337],[-1.23709,47.79589],[-1.23618,47.79812],[-1.2369,47.79995],[-1.23976,47.80076],[-1.24008,47.80643],[-1.24264,47.80783],[-1.23985,47.81003],[-1.23825,47.80999],[-1.2335,47.81684],[-1.23578,47.81795],[-1.23214,47.8204],[-1.22477,47.82013],[-1.22315,47.81901],[-1.22028,47.82112],[-1.22281,47.82293],[-1.22207,47.82579],[-1.21601,47.83115],[-1.21675,47.83325],[-1.21517,47.83667],[-1.21403,47.84454],[-1.21537,47.84558],[-1.21486,47.84694],[-1.22362,47.85082],[-1.22305,47.85241],[-1.21865,47.85453],[-1.21577,47.85749],[-1.21184,47.85671],[-1.20601,47.85855],[-1.20358,47.85758],[-1.19907,47.8607],[-1.1976,47.86381],[-1.18899,47.86704],[-1.18905,47.87104],[-1.19153,47.87498],[-1.19701,47.87782],[-1.19837,47.88215],[-1.19663,47.88927],[-1.1931,47.89041],[-1.19173,47.89202],[-1.1819,47.89218],[-1.18054,47.89583],[-1.17623,47.8974],[-1.17709,47.9075],[-1.17557,47.90957],[-1.17558,47.91178],[-1.17187,47.91252],[-1.16802,47.91705],[-1.1686,47.9186],[-1.16632,47.92358],[-1.16303,47.92769],[-1.16389,47.93041],[-1.16638,47.93172],[-1.16719,47.93575],[-1.15951,47.93922],[-1.16186,47.94433],[-1.16096,47.94791],[-1.16167,47.952],[-1.15901,47.95386],[-1.16059,47.95859],[-1.15827,47.95893],[-1.1553,47.96554],[-1.14824,47.96823],[-1.14103,47.96772],[-1.13979,47.97041],[-1.13429,47.96815],[-1.13253,47.96892],[-1.13315,47.97025],[-1.13131,47.97175],[-1.1254,47.97169],[-1.12782,47.97567],[-1.1251,47.97737],[-1.12546,47.97867],[-1.12439,47.9797],[-1.12804,47.98112],[-1.12733,47.98271],[-1.12522,47.98314],[-1.12576,47.98632],[-1.1248,47.98684],[-1.11951,47.98605],[-1.11967,47.98762],[-1.11728,47.98692],[-1.11366,47.98883],[-1.11046,47.98811],[-1.108,47.98935],[-1.10585,47.98838],[-1.10348,47.98904],[-1.09881,47.98846],[-1.09769,47.98665],[-1.09173,47.98786],[-1.08558,47.98691],[-1.08214,47.98458],[-1.07741,47.98408],[-1.07178,47.98182],[-1.06361,47.9853],[-1.06154,47.98433],[-1.05029,47.98447],[-1.04554,47.98569],[-1.04491,47.98841],[-1.03846,47.99121],[-1.02126,47.99494],[-1.01999,47.99718],[-1.02013,48.00033],[-1.01577,48.00356],[-1.01862,48.00397],[-1.01668,48.00831],[-1.01825,48.01289],[-1.035,48.03361],[-1.03297,48.03335],[-1.02958,48.03601],[-1.02983,48.03781],[-1.02697,48.04037],[-1.0304,48.0436],[-1.02643,48.04556],[-1.03383,48.0521],[-1.0318,48.05697],[-1.02823,48.059],[-1.0283,48.06328],[-1.02696,48.06525],[-1.02162,48.06801],[-1.04061,48.07818],[-1.04978,48.09038],[-1.05167,48.10513],[-1.05469,48.10932],[-1.05404,48.11681],[-1.05649,48.11939],[-1.05664,48.12173],[-1.05942,48.12619],[-1.05812,48.13015],[-1.06112,48.1369],[-1.06029,48.15011],[-1.06292,48.15354],[-1.06445,48.16043],[-1.07393,48.1593],[-1.07265,48.16127],[-1.07262,48.16609],[-1.07777,48.1676],[-1.07817,48.16871],[-1.07543,48.16993],[-1.07482,48.17188],[-1.08042,48.1754],[-1.07826,48.17929],[-1.07961,48.18348],[-1.07725,48.18661],[-1.07818,48.18964],[-1.0773,48.19363],[-1.07642,48.19667],[-1.07359,48.19968],[-1.07487,48.20166],[-1.08189,48.20515],[-1.08152,48.20665],[-1.08728,48.20927],[-1.08619,48.21123],[-1.08461,48.21169],[-1.08448,48.21385],[-1.0827,48.21458],[-1.0806,48.2195],[-1.08433,48.22083],[-1.08412,48.22696],[-1.08604,48.22866],[-1.08625,48.23063],[-1.08922,48.23091],[-1.09155,48.23259],[-1.09089,48.23774],[-1.08963,48.23908],[-1.09376,48.24124],[-1.09258,48.24249],[-1.09455,48.24481],[-1.09469,48.24674],[-1.09857,48.24929],[-1.09891,48.25611],[-1.10019,48.25914],[-1.09939,48.26024],[-1.10196,48.2625],[-1.10134,48.26617],[-1.09899,48.26736],[-1.09993,48.26838],[-1.09364,48.27288],[-1.09389,48.2785],[-1.09301,48.28249],[-1.09078,48.28522],[-1.09056,48.28918],[-1.08699,48.28996],[-1.08654,48.29146],[-1.08383,48.29326],[-1.08453,48.29463],[-1.0821,48.29839],[-1.06611,48.30945],[-1.05921,48.3121],[-1.05925,48.31362],[-1.05364,48.32144],[-1.05049,48.32279],[-1.04505,48.32818],[-1.04963,48.3352],[-1.05581,48.34068],[-1.05679,48.34533],[-1.05996,48.34921],[-1.059,48.359],[-1.05593,48.36125],[-1.05541,48.36379],[-1.05901,48.36709],[-1.06484,48.36723],[-1.06448,48.36991],[-1.05723,48.37557],[-1.05658,48.37919],[-1.05424,48.37912],[-1.05303,48.38097],[-1.05393,48.38399],[-1.05813,48.38844],[-1.05851,48.39023],[-1.06195,48.3928],[-1.06301,48.39448],[-1.06226,48.39705],[-1.06358,48.39946],[-1.0673,48.40185],[-1.06869,48.40553],[-1.07097,48.40783],[-1.07445,48.40855],[-1.0784,48.41339],[-1.08026,48.41398],[-1.08046,48.41694],[-1.07864,48.41841],[-1.07748,48.4215],[-1.07866,48.4229],[-1.07819,48.42453],[-1.08236,48.42974],[-1.08218,48.43236],[-1.08359,48.43373],[-1.07958,48.44356],[-1.07336,48.44601],[-1.06522,48.45143],[-1.06635,48.45273],[-1.06517,48.45682],[-1.06709,48.46102],[-1.06396,48.46695],[-1.06566,48.46808],[-1.06613,48.47009],[-1.07135,48.4693],[-1.07218,48.47129],[-1.07128,48.47313],[-1.07374,48.47337],[-1.07546,48.47692],[-1.07507,48.47985],[-1.07303,48.4818],[-1.07883,48.48159],[-1.07618,48.48355],[-1.06997,48.48554],[-1.06997,48.48683],[-1.07578,48.48748],[-1.07796,48.48845],[-1.07853,48.4901],[-1.07565,48.49451],[-1.07561,48.5009],[-1.07672,48.50231],[-1.07257,48.50198],[-1.06699,48.50449],[-1.07016,48.50849],[-1.06833,48.51017],[-1.06172,48.51055],[-1.0631,48.51325],[-1.06044,48.51494],[-1.05656,48.51345],[-1.05302,48.50922],[-1.04981,48.51],[-1.04485,48.50583],[-1.03939,48.50604],[-1.03592,48.50182],[-1.03047,48.50126],[-1.02673,48.49808],[-1.02318,48.49878],[-1.02058,48.4953],[-1.01757,48.49471],[-1.01755,48.49232],[-1.01266,48.49328],[-1.004,48.48917],[-0.99929,48.48958],[-0.99634,48.49218],[-0.98974,48.49382],[-0.98271,48.4929],[-0.97225,48.4946],[-0.97085,48.49586],[-0.97144,48.5007],[-0.96528,48.50079],[-0.96213,48.50421],[-0.96196,48.50692],[-0.96425,48.51082],[-0.96257,48.5132],[-0.9554,48.51729],[-0.95214,48.51698],[-0.94714,48.51442],[-0.93371,48.51503],[-0.92838,48.51339],[-0.92331,48.51345],[-0.92055,48.50956],[-0.92336,48.50579],[-0.92271,48.50332],[-0.91631,48.49964],[-0.91053,48.49923],[-0.90915,48.4967],[-0.9047,48.49601],[-0.89892,48.49758],[-0.89603,48.49486],[-0.89425,48.49461],[-0.8926,48.49623],[-0.88395,48.49764],[-0.88141,48.49925],[-0.8738,48.49996],[-0.87209,48.49843],[-0.8697,48.49818],[-0.86036,48.50146],[-0.84916,48.49778],[-0.84636,48.49952],[-0.84581,48.49728],[-0.84033,48.49307],[-0.83783,48.48464],[-0.83222,48.48263],[-0.83152,48.48103],[-0.83255,48.47938],[-0.82732,48.47922],[-0.82626,48.47843],[-0.82729,48.47629],[-0.82483,48.47515],[-0.82081,48.4757],[-0.81476,48.47205],[-0.81863,48.46902],[-0.8155,48.46753],[-0.81432,48.46481],[-0.81619,48.46225],[-0.81479,48.45936],[-0.81515,48.45768],[-0.81274,48.45492],[-0.80862,48.45728],[-0.79918,48.45894],[-0.79849,48.46193],[-0.79923,48.46277],[-0.79649,48.46347],[-0.79756,48.46528],[-0.79661,48.46625],[-0.78854,48.46508],[-0.78683,48.46585],[-0.7845,48.46411],[-0.7817,48.46608],[-0.77787,48.46541],[-0.77742,48.46021],[-0.77862,48.45882],[-0.77867,48.45635],[-0.77752,48.45548],[-0.77768,48.45125],[-0.77985,48.44835],[-0.77979,48.44607],[-0.77536,48.44578],[-0.77397,48.44271],[-0.76645,48.44053],[-0.76492,48.43666],[-0.76016,48.43616],[-0.74767,48.43884],[-0.74761,48.441],[-0.7456,48.44245],[-0.74119,48.44208],[-0.74031,48.44327],[-0.73585,48.44442],[-0.73545,48.4457],[-0.72728,48.44479],[-0.7151,48.44895],[-0.71489,48.45435],[-0.72488,48.45534],[-0.7262,48.45629],[-0.72499,48.45742],[-0.72908,48.45968],[-0.73313,48.45976],[-0.73586,48.46112],[-0.73757,48.46458],[-0.73541,48.46725],[-0.73367,48.4673],[-0.7311,48.47282],[-0.72841,48.47204],[-0.72462,48.47321],[-0.72148,48.47038],[-0.71496,48.46915],[-0.71122,48.47074],[-0.70769,48.47534],[-0.705,48.47559],[-0.70084,48.47489],[-0.69987,48.47329],[-0.704,48.47026],[-0.70207,48.46721],[-0.69572,48.46855],[-0.69177,48.46811],[-0.68172,48.47095],[-0.68586,48.47547],[-0.68534,48.47715],[-0.67765,48.47879],[-0.67526,48.48066],[-0.67662,48.48405],[-0.67464,48.48495],[-0.67043,48.48249],[-0.66861,48.48349],[-0.66884,48.48646],[-0.66624,48.48589],[-0.6624,48.48392],[-0.66012,48.47979],[-0.66304,48.47747],[-0.66248,48.47627],[-0.65673,48.47634],[-0.65572,48.47407],[-0.65974,48.4691],[-0.65678,48.4658],[-0.65364,48.45955],[-0.65391,48.45071],[-0.65577,48.44787],[-0.65399,48.44612],[-0.65399,48.44428],[-0.65107,48.44395],[-0.64215,48.44833],[-0.63668,48.45233],[-0.62502,48.45728],[-0.6195,48.459],[-0.61564,48.45892],[-0.61108,48.46291],[-0.60532,48.46527],[-0.59533,48.47263],[-0.59357,48.47232],[-0.59321,48.47084],[-0.58563,48.47216],[-0.57606,48.47042],[-0.57332,48.46879],[-0.57067,48.46962],[-0.56481,48.47725],[-0.56193,48.47314],[-0.55964,48.47211],[-0.55172,48.47312],[-0.55029,48.47423],[-0.54987,48.47978],[-0.54352,48.48345],[-0.54015,48.48376],[-0.53736,48.49049],[-0.53044,48.49517],[-0.52522,48.4962],[-0.52165,48.49521],[-0.52034,48.49737],[-0.51641,48.49813],[-0.51568,48.49982],[-0.51694,48.50163],[-0.51687,48.50402],[-0.51454,48.50362],[-0.5122,48.50747],[-0.5097,48.50901],[-0.50507,48.5058],[-0.50129,48.50724],[-0.50008,48.50417],[-0.49332,48.50177],[-0.4885,48.50162],[-0.48837,48.50392],[-0.48459,48.50419],[-0.48352,48.50238],[-0.4782,48.50157],[-0.47727,48.50312],[-0.47588,48.50234],[-0.47376,48.50334],[-0.47384,48.50571],[-0.47171,48.50632],[-0.47184,48.50766],[-0.4689,48.50827],[-0.46868,48.50922],[-0.47061,48.50972],[-0.47013,48.51194],[-0.46708,48.51309],[-0.45827,48.5119],[-0.45033,48.51291],[-0.44722,48.51538],[-0.43855,48.51171],[-0.4342,48.51381],[-0.43155,48.51243],[-0.43197,48.51138],[-0.42461,48.50945],[-0.4238,48.50677],[-0.4162,48.50794],[-0.41518,48.50671],[-0.4091,48.50559],[-0.39849,48.50851],[-0.39907,48.51039],[-0.39514,48.5103],[-0.39125,48.50869],[-0.39335,48.50107],[-0.38302,48.49668],[-0.3716,48.49579],[-0.36668,48.49362],[-0.36896,48.49207],[-0.36912,48.48883],[-0.36819,48.48786],[-0.36433,48.48769],[-0.35722,48.48385],[-0.35315,48.48377],[-0.34937,48.48885],[-0.35299,48.49219],[-0.3554,48.49267],[-0.35582,48.49567],[-0.35389,48.49617],[-0.35094,48.50052],[-0.34854,48.50129],[-0.33821,48.5005],[-0.33586,48.5019],[-0.3348,48.50643],[-0.33591,48.50933],[-0.32981,48.51315],[-0.328,48.516],[-0.32563,48.51703],[-0.32493,48.51926],[-0.32024,48.52292],[-0.30896,48.51833],[-0.29349,48.51504],[-0.28904,48.51699],[-0.28808,48.51934],[-0.28506,48.51726],[-0.28633,48.5117],[-0.2854,48.50677],[-0.27155,48.50745],[-0.26754,48.51352],[-0.26818,48.51688],[-0.27453,48.51781],[-0.264,48.52247],[-0.26125,48.52685],[-0.25396,48.52599],[-0.25094,48.52673],[-0.24131,48.53667],[-0.24636,48.54262],[-0.26265,48.54864],[-0.24636,48.55842],[-0.24872,48.56345],[-0.24264,48.56799],[-0.23435,48.56234],[-0.2201,48.56041],[-0.21733,48.55808],[-0.21217,48.5631],[-0.20808,48.56414],[-0.20532,48.56065],[-0.19399,48.55482],[-0.18996,48.54889],[-0.18075,48.54495],[-0.17945,48.54084],[-0.17366,48.54151],[-0.16972,48.53702],[-0.16319,48.53527],[-0.15885,48.53225],[-0.15048,48.53042],[-0.1446,48.52775],[-0.14538,48.52055],[-0.14916,48.5187],[-0.15501,48.52055],[-0.16313,48.51767],[-0.16681,48.51546],[-0.16724,48.51303],[-0.1725,48.51054],[-0.17077,48.5068],[-0.17083,48.50375],[-0.17209,48.50214],[-0.17066,48.50186],[-0.16805,48.50367],[-0.16177,48.49863],[-0.15601,48.49584],[-0.15502,48.48664],[-0.14915,48.48024],[-0.15078,48.47778],[-0.15352,48.47695],[-0.14729,48.473],[-0.14964,48.46998],[-0.14889,48.46959],[-0.15056,48.46514],[-0.14978,48.4603],[-0.14688,48.45644],[-0.12454,48.44924],[-0.11065,48.44856],[-0.10586,48.44726],[-0.09327,48.44843],[-0.08909,48.45006],[-0.07301,48.45053],[-0.07191,48.45294],[-0.07271,48.45693],[-0.07053,48.45801],[-0.05135,48.45293],[-0.05143,48.45031],[-0.04944,48.44807],[-0.05044,48.44354],[-0.05235,48.44237],[-0.05189,48.44013],[-0.05533,48.43161],[-0.05734,48.43098],[-0.05736,48.4285],[-0.05298,48.42496],[-0.0539,48.42259],[-0.05765,48.42054],[-0.0536,48.41653],[-0.05251,48.41332],[-0.05499,48.41015],[-0.05776,48.40866],[-0.05505,48.40706],[-0.05506,48.40327],[-0.05669,48.39892],[-0.05633,48.39569],[-0.0527,48.39298],[-0.05348,48.38977],[-0.05796,48.38747],[-0.0572,48.38443],[-0.05387,48.38117],[-0.05502,48.37948],[-0.05466,48.378],[-0.05069,48.37521],[-0.04964,48.376],[-0.05181,48.37869],[-0.0506,48.38016],[-0.0423,48.37925],[-0.04037,48.38119],[-0.03657,48.38063],[-0.03546,48.38156],[-0.03575,48.38487],[-0.0348,48.38634],[-0.02785,48.38625],[-0.02632,48.38526],[-0.02077,48.3865],[-0.02188,48.38719],[-0.02233,48.39222],[-0.01865,48.3945],[-0.01151,48.39358],[-0.0098,48.39612],[-0.00798,48.39463],[-0.00243,48.39736],[0.00337,48.39599],[0.00418,48.39299],[0.00359,48.38879],[0.00682,48.38855],[0.00903,48.39066],[0.01086,48.3903],[0.01162,48.38573],[0.01459,48.38435],[0.01531,48.38167],[0.01911,48.38147],[0.02099,48.3802],[0.04659,48.38127],[0.05777,48.37916],[0.06078,48.37962],[0.06248,48.38091],[0.06252,48.38303],[0.05803,48.3896],[0.05414,48.39195],[0.05922,48.39614],[0.0639,48.40308],[0.07055,48.40909],[0.0721,48.4079],[0.07646,48.40811],[0.08242,48.40929],[0.08358,48.41114],[0.10014,48.41013],[0.10507,48.41477],[0.11037,48.42311],[0.10638,48.42649],[0.11165,48.43244],[0.11718,48.43603],[0.1202,48.43644],[0.12393,48.43458],[0.12825,48.4348],[0.13423,48.43693],[0.15131,48.43723],[0.15779,48.44081],[0.1584,48.44375],[0.14737,48.45002],[0.14796,48.45218],[0.14483,48.45271],[0.14357,48.4553],[0.14557,48.45731],[0.15248,48.45736],[0.16278,48.45067],[0.17114,48.44943],[0.17358,48.45115],[0.17039,48.45428],[0.16973,48.46178],[0.17316,48.46522],[0.18244,48.46508],[0.18531,48.46302],[0.19049,48.46186],[0.20493,48.46874],[0.20415,48.46967],[0.21,48.47063],[0.21332,48.47358],[0.2315,48.47239],[0.24076,48.4758],[0.24184,48.4743],[0.2491,48.47397],[0.25728,48.47727],[0.25905,48.47667],[0.26165,48.47934],[0.26129,48.4818],[0.26475,48.4847],[0.27208,48.48245],[0.27118,48.48126],[0.27464,48.47921],[0.28356,48.48144],[0.28876,48.47848],[0.30072,48.48049],[0.30431,48.47506],[0.30782,48.47526],[0.30936,48.47416],[0.30909,48.47254],[0.31419,48.47327],[0.31704,48.47143],[0.32147,48.47289],[0.32678,48.47169],[0.32934,48.46819],[0.33852,48.46547],[0.33597,48.46348],[0.33875,48.4616],[0.34651,48.4585],[0.35121,48.45943],[0.35675,48.45774],[0.35899,48.45571],[0.35857,48.45444],[0.36376,48.45161],[0.36562,48.44881],[0.36422,48.44644],[0.36848,48.4413],[0.36781,48.43774],[0.37041,48.4371],[0.3714,48.43438],[0.37578,48.43085],[0.37851,48.42685],[0.38244,48.4249],[0.3809,48.41583],[0.37763,48.4133],[0.37353,48.41261],[0.37173,48.41045],[0.37521,48.39864],[0.37438,48.3975],[0.37489,48.39319],[0.37712,48.39161],[0.37386,48.38697],[0.37866,48.38323],[0.37878,48.38026],[0.38021,48.38011],[0.38098,48.37414],[0.37979,48.36652],[0.38278,48.36072],[0.38232,48.35827],[0.38385,48.3526],[0.38688,48.35247],[0.38814,48.3497],[0.38811,48.34822],[0.38523,48.34646],[0.38489,48.34309],[0.38063,48.34306],[0.38048,48.3418],[0.3836,48.3325],[0.39084,48.32682],[0.39271,48.32365],[0.39464,48.32306],[0.39554,48.32047],[0.39878,48.32044],[0.39884,48.3189],[0.40065,48.31885],[0.40417,48.31531],[0.40622,48.31462],[0.40896,48.31669],[0.41287,48.31707],[0.41318,48.31929],[0.41152,48.32043],[0.416,48.32163],[0.42046,48.32111],[0.42367,48.31825],[0.42606,48.31797],[0.4288,48.30956],[0.4314,48.30857],[0.43133,48.30664],[0.43835,48.30639],[0.44281,48.30463],[0.45574,48.30637],[0.45795,48.30511],[0.46628,48.30587],[0.47383,48.30038],[0.4805,48.29859],[0.48757,48.3078],[0.48995,48.30936],[0.49285,48.30581],[0.50159,48.30065],[0.5074,48.29494],[0.50605,48.2937],[0.50218,48.29373],[0.49456,48.28681],[0.49323,48.2841],[0.49459,48.28196],[0.4966,48.28222],[0.50331,48.27783],[0.50244,48.27562],[0.50803,48.27346],[0.51313,48.26688],[0.51643,48.26896],[0.51812,48.26687],[0.53031,48.2655],[0.5329,48.26428],[0.53848,48.25698],[0.53605,48.24967],[0.54078,48.24902],[0.54862,48.25005],[0.55222,48.24767],[0.56732,48.24503],[0.60787,48.24449],[0.61052,48.2422],[0.613,48.24205],[0.62361,48.24531],[0.62606,48.24459],[0.62624,48.24288],[0.63034,48.24124],[0.63049,48.23923],[0.62806,48.2373],[0.6289,48.23619],[0.63241,48.2358],[0.63191,48.23462],[0.63848,48.23561],[0.63702,48.23986],[0.63316,48.24555],[0.63418,48.24916],[0.63187,48.24958],[0.6311,48.25258],[0.63355,48.25757],[0.63723,48.2583],[0.63977,48.26103],[0.65234,48.26396],[0.66168,48.26037],[0.66496,48.26082],[0.67122,48.25515],[0.68295,48.25488],[0.68386,48.25381],[0.682,48.24893],[0.68828,48.24606],[0.68522,48.24268],[0.68659,48.24198],[0.68629,48.24067],[0.6936,48.23788],[0.69739,48.23307],[0.69992,48.23172],[0.7002,48.22884],[0.70692,48.22273],[0.70527,48.22199],[0.70625,48.22083],[0.70449,48.21892],[0.70829,48.21753],[0.70929,48.21808],[0.71284,48.21468],[0.71579,48.21467],[0.71917,48.20743],[0.72224,48.20406],[0.72189,48.19991],[0.72364,48.19814],[0.73015,48.20052],[0.73481,48.19564],[0.73524,48.19236],[0.73783,48.18907],[0.74536,48.1849],[0.75231,48.18378],[0.75774,48.17989],[0.7607,48.18021],[0.77245,48.18495],[0.77726,48.18826],[0.79766,48.19445],[0.79562,48.1907],[0.79562,48.18804],[0.80058,48.18883],[0.80551,48.18592],[0.81109,48.18568],[0.81276,48.18399],[0.81333,48.18076],[0.81736,48.1806],[0.82677,48.17594],[0.82925,48.17162],[0.83155,48.17106],[0.83665,48.16685],[0.84364,48.1647],[0.84948,48.16688],[0.85444,48.1651],[0.85988,48.1676],[0.8653,48.16596],[0.8661,48.16421],[0.86888,48.16326],[0.8726,48.16249],[0.87296,48.16385],[0.87927,48.16186],[0.88775,48.16152],[0.88922,48.15898],[0.91162,48.14886],[0.90926,48.14393],[0.91101,48.14103],[0.91665,48.13894],[0.91367,48.13504],[0.91028,48.13603],[0.89464,48.1357],[0.88267,48.13371],[0.87931,48.13623],[0.8786,48.13491],[0.8723,48.13448],[0.87269,48.1325],[0.87036,48.13189],[0.86531,48.13449],[0.85037,48.13308],[0.85203,48.13157],[0.85537,48.12262],[0.84122,48.10306],[0.83268,48.09845],[0.81435,48.0988],[0.81517,48.09373],[0.82338,48.09303],[0.82467,48.09237],[0.82425,48.09083],[0.82793,48.09115],[0.82864,48.08986],[0.83099,48.09227],[0.83605,48.09099],[0.83793,48.08876],[0.84099,48.08974],[0.83864,48.09223],[0.83872,48.09417],[0.84817,48.0946],[0.84867,48.08899],[0.84454,48.08786],[0.84618,48.08456],[0.84492,48.08368],[0.84302,48.07264],[0.83223,48.06994],[0.8028,48.07163],[0.79398,48.06971],[0.7978,48.0658],[0.79725,48.05708],[0.79808,48.05609],[0.7959,48.05458],[0.79673,48.05171],[0.79407,48.04857],[0.798,48.04261],[0.79755,48.03724],[0.80098,48.0372],[0.80135,48.03828],[0.80381,48.03885],[0.80598,48.03834],[0.80821,48.03518],[0.80721,48.03247],[0.80837,48.03167],[0.81057,48.03251],[0.81833,48.03032],[0.82255,48.03101],[0.82673,48.02975],[0.82986,48.03069],[0.82955,48.03244],[0.83126,48.0335],[0.83498,48.03444],[0.83815,48.03418],[0.84188,48.03018],[0.84173,48.02585],[0.83878,48.02357],[0.84199,48.01925],[0.83968,48.0176],[0.83987,48.01593],[0.83732,48.01586],[0.83795,48.01163],[0.83613,48.01067],[0.83677,48.00881],[0.83308,48.00911],[0.8317,48.00611],[0.83341,48.00272],[0.83149,47.99932],[0.83237,47.99659],[0.82626,47.99247],[0.82622,47.99147],[0.82146,47.9893],[0.81866,47.98925],[0.81898,47.98604],[0.8229,47.98347],[0.82548,47.98018],[0.8246,47.97806],[0.82811,47.9723],[0.83234,47.97203],[0.83765,47.96869],[0.83745,47.96459],[0.8422,47.95944],[0.84188,47.95669],[0.8441,47.95618],[0.84546,47.95345],[0.84429,47.95195],[0.84542,47.94756],[0.84952,47.9472],[0.8487,47.94258],[0.83821,47.93766],[0.81866,47.93499],[0.81406,47.93232],[0.81175,47.92883],[0.8121,47.92618],[0.81344,47.92592],[0.81222,47.91961],[0.80842,47.91659],[0.81609,47.91292],[0.80914,47.91066],[0.80754,47.9079],[0.81522,47.90386],[0.81291,47.90042],[0.81385,47.89799],[0.81715,47.8971],[0.81467,47.8949],[0.81767,47.89297],[0.81211,47.88853],[0.80254,47.89578],[0.79507,47.89991],[0.79384,47.90263],[0.79502,47.90593],[0.79002,47.91221],[0.78569,47.9117],[0.78605,47.91063],[0.78051,47.91038],[0.7767,47.90821],[0.77574,47.90874],[0.77091,47.90252],[0.76018,47.89886],[0.75733,47.89117],[0.75709,47.88578],[0.75763,47.88381],[0.76,47.88293],[0.76157,47.8727],[0.76469,47.86658],[0.76264,47.86354],[0.7636,47.86297],[0.75916,47.85922],[0.76553,47.85423],[0.76834,47.85381],[0.77387,47.85033],[0.77289,47.84929],[0.77435,47.84697],[0.77193,47.84554],[0.77485,47.84381],[0.7736,47.84178],[0.77471,47.83937],[0.76841,47.8311],[0.76345,47.83405],[0.75886,47.83354],[0.75792,47.83146],[0.74587,47.82756],[0.7454,47.82566],[0.74624,47.82464],[0.73841,47.8159],[0.7403,47.81543],[0.73947,47.81407],[0.74021,47.8116],[0.73584,47.80817],[0.73219,47.80767],[0.72644,47.79918],[0.72343,47.79928],[0.71949,47.79275],[0.71453,47.79376],[0.71213,47.78715],[0.70102,47.79006],[0.69838,47.78925],[0.69122,47.78339],[0.68932,47.78],[0.69997,47.77448],[0.70344,47.76994],[0.70357,47.76778],[0.70254,47.76682],[0.6981,47.76586],[0.69735,47.76419],[0.69143,47.76383],[0.6893,47.76538],[0.68295,47.76601],[0.68168,47.76797],[0.67697,47.76953],[0.67182,47.76792],[0.6647,47.76265],[0.65716,47.75853],[0.65371,47.75812],[0.65127,47.75525],[0.64535,47.75283],[0.63612,47.75139],[0.62756,47.75194],[0.62427,47.75049],[0.62333,47.7485],[0.62121,47.74829],[0.61943,47.74557],[0.61875,47.74169],[0.62052,47.73888],[0.61067,47.73204],[0.61234,47.72995],[0.60902,47.7253],[0.60154,47.72578],[0.59409,47.72311],[0.58114,47.71356],[0.58032,47.71238],[0.59297,47.70359],[0.5933,47.70088],[0.59444,47.70031],[0.5916,47.69771],[0.59557,47.68832],[0.60419,47.68561],[0.61443,47.69421],[0.61885,47.69348],[0.61907,47.69091],[0.61719,47.6871],[0.61586,47.6874],[0.61481,47.68275],[0.60783,47.68238],[0.60787,47.68108],[0.60487,47.68072],[0.60451,47.67817],[0.60009,47.67734],[0.59688,47.67285],[0.58649,47.66892],[0.57912,47.66782],[0.57794,47.66947],[0.57105,47.66851],[0.55879,47.6708],[0.5596,47.66617],[0.55601,47.66437],[0.55171,47.65917],[0.54375,47.65631],[0.53702,47.65665],[0.52296,47.6531],[0.51612,47.65664],[0.51326,47.65286],[0.49842,47.64476],[0.49682,47.64662],[0.49562,47.64507],[0.49297,47.64449],[0.48995,47.64517],[0.47976,47.64329],[0.47679,47.64482],[0.47536,47.64735],[0.47244,47.64718],[0.46614,47.64426],[0.46401,47.64561],[0.46174,47.64424],[0.46269,47.64261],[0.45663,47.63883],[0.45307,47.63378],[0.45355,47.63163],[0.45693,47.6284],[0.44993,47.61933],[0.44167,47.61991],[0.42391,47.61783],[0.41974,47.62091],[0.41823,47.62385],[0.41369,47.62616],[0.40949,47.62641],[0.40934,47.63054],[0.40772,47.63294],[0.40328,47.63445],[0.39768,47.63827],[0.39625,47.64085],[0.38685,47.64132],[0.38279,47.64309],[0.38108,47.63907],[0.36421,47.62529],[0.36426,47.62051],[0.37421,47.6125],[0.38346,47.61019],[0.38638,47.60353],[0.39042,47.59851],[0.39443,47.5944],[0.39696,47.59399],[0.39588,47.58677],[0.39807,47.5855],[0.39878,47.58272],[0.40238,47.57842],[0.39135,47.57652],[0.38437,47.57227],[0.38449,47.57078],[0.37848,47.56853],[0.37576,47.57042],[0.37183,47.57048],[0.36786,47.57209],[0.36262,47.57505],[0.35804,47.57502],[0.35405,47.57694],[0.34854,47.57652],[0.33972,47.57938],[0.33979,47.5829],[0.33844,47.58503],[0.33332,47.5871],[0.33223,47.58952],[0.32964,47.59091],[0.32483,47.59168],[0.3221,47.59523],[0.31001,47.5948],[0.28922,47.59789],[0.27562,47.59838],[0.27218,47.60129],[0.26795,47.60265],[0.26993,47.60471],[0.26784,47.60867],[0.26245,47.60885],[0.25925,47.61225],[0.25515,47.61169],[0.25316,47.61331],[0.24595,47.61062],[0.23989,47.61052],[0.23613,47.6117],[0.2321,47.61082],[0.23,47.6084],[0.23243,47.60579],[0.23195,47.59629],[0.23373,47.59294],[0.23393,47.58989],[0.23145,47.58512],[0.22954,47.58464],[0.23439,47.58009],[0.23434,47.57793],[0.23152,47.57832],[0.2304,47.5766],[0.22399,47.57383],[0.21512,47.57299],[0.21511,47.56997],[0.20655,47.56105],[0.20908,47.55772],[0.20491,47.5522],[0.20408,47.54814],[0.19994,47.54527],[0.19951,47.54121],[0.19334,47.53911],[0.19421,47.53751],[0.20555,47.53466],[0.20671,47.53235],[0.20316,47.52792],[0.20662,47.52641],[0.20953,47.52646],[0.21409,47.5238],[0.21561,47.52396],[0.21752,47.52922],[0.22606,47.52659],[0.2236,47.52186],[0.22028,47.51982],[0.22216,47.51805],[0.21911,47.50945],[0.22011,47.50195],[0.2098,47.49465],[0.20359,47.4859],[0.20186,47.48592],[0.19977,47.48341],[0.20092,47.48279],[0.199,47.48114],[0.19885,47.47641],[0.19493,47.47495],[0.1905,47.46128],[0.18094,47.45341],[0.18299,47.43374],[0.18528,47.42473],[0.18085,47.41615],[0.17916,47.41697],[0.17668,47.41432],[0.17448,47.41486],[0.16974,47.40735],[0.1663,47.404],[0.1604,47.40416],[0.15386,47.39873],[0.15776,47.39889],[0.1695,47.39564],[0.16751,47.38562],[0.17948,47.38441],[0.18252,47.38302],[0.18296,47.38033],[0.17089,47.3743],[0.16371,47.36989],[0.16208,47.36761],[0.15359,47.36359],[0.1494,47.36226],[0.14041,47.3618],[0.14593,47.35467],[0.14797,47.34845],[0.1473,47.34538],[0.1426,47.3423],[0.13801,47.33616],[0.12697,47.33279],[0.11746,47.33234],[0.11831,47.32624],[0.11303,47.3179],[0.10925,47.31342],[0.09901,47.30814],[0.09824,47.30601],[0.09909,47.3031],[0.096,47.30404],[0.09401,47.30278],[0.08699,47.29338],[0.08575,47.28993],[0.0786,47.28394],[0.07951,47.28278],[0.08976,47.2829],[0.09,47.28164],[0.08864,47.27539],[0.08387,47.275],[0.08011,47.27168],[0.08145,47.26973],[0.0794,47.26676],[0.08052,47.26513],[0.07477,47.26213],[0.07751,47.25355],[0.07495,47.24999],[0.07483,47.24805],[0.06793,47.24733],[0.06984,47.24102],[0.07385,47.23687],[0.07444,47.22761],[0.0729,47.22637],[0.07315,47.22385],[0.07152,47.22314],[0.07245,47.21988],[0.0768,47.22014],[0.07932,47.21677],[0.07631,47.21617],[0.07452,47.21444],[0.06819,47.21578],[0.06571,47.21334],[0.067,47.21142],[0.06594,47.21007],[0.06241,47.20767],[0.06072,47.20849],[0.05297,47.19677],[0.06041,47.19247],[0.06194,47.19051],[0.06659,47.18979],[0.06348,47.17619],[0.05898,47.17178],[0.05799,47.16875],[0.05383,47.16373],[0.05252,47.16683],[0.0492,47.16889],[0.04642,47.16605],[0.04025,47.1639],[0.03664,47.16035],[0.01901,47.17576],[0.0105,47.16965],[-0.00441,47.16219],[-0.01218,47.15595],[-0.03596,47.12509],[-0.035,47.11976],[-0.04098,47.11355],[-0.03966,47.1121],[-0.03941,47.10787],[-0.0266,47.10588],[-0.02924,47.09526],[-0.034,47.08985],[-0.03562,47.08626],[-0.04094,47.08727],[-0.04013,47.08973],[-0.04155,47.09365],[-0.06066,47.09515],[-0.06724,47.09343],[-0.06924,47.0938],[-0.06738,47.09941],[-0.08291,47.099],[-0.0859,47.10101],[-0.09537,47.0946],[-0.10141,47.08551],[-0.10065,47.08459],[-0.10151,47.08327],[-0.09976,47.08105],[-0.09997,47.07852],[-0.10333,47.07702],[-0.10199,47.07218],[-0.10516,47.07112],[-0.10212,47.0648],[-0.11823,47.06023],[-0.12297,47.05571],[-0.1289,47.05424],[-0.13717,47.05658],[-0.13556,47.05891],[-0.13853,47.06047],[-0.13665,47.06384],[-0.13911,47.06622],[-0.14714,47.06838],[-0.14732,47.06968],[-0.14998,47.07035],[-0.15219,47.06949],[-0.15475,47.07069],[-0.15599,47.06918],[-0.15752,47.07],[-0.16598,47.0646],[-0.17314,47.06673],[-0.17902,47.07017],[-0.163,47.08379],[-0.14556,47.09136],[-0.14055,47.09705],[-0.14126,47.10374],[-0.15212,47.10085],[-0.17202,47.10488],[-0.17955,47.108],[-0.18524,47.10842],[-0.18475,47.10667],[-0.18698,47.10644],[-0.18765,47.1049],[-0.18644,47.10326],[-0.18707,47.10113],[-0.19652,47.09745],[-0.19929,47.09735],[-0.20627,47.09319],[-0.20735,47.09523],[-0.21477,47.09728],[-0.21595,47.09869],[-0.2185,47.09828],[-0.22274,47.10007],[-0.22824,47.09941],[-0.23458,47.10363],[-0.24074,47.1057],[-0.2458,47.10554],[-0.24988,47.10379],[-0.2504,47.10238],[-0.2627,47.09913],[-0.26288,47.10548],[-0.2655,47.10523],[-0.26522,47.10339],[-0.26732,47.10353],[-0.26738,47.10177],[-0.26859,47.10116],[-0.2815,47.09947],[-0.28274,47.10326],[-0.30475,47.09764],[-0.31012,47.09319],[-0.31425,47.09134],[-0.34146,47.08733],[-0.34088,47.09202],[-0.35012,47.09157],[-0.3501,47.09276],[-0.35347,47.09533],[-0.37719,47.08884],[-0.38085,47.08942],[-0.38614,47.08737],[-0.38693,47.09235],[-0.39592,47.09159],[-0.39639,47.08424],[-0.40078,47.07077],[-0.40685,47.06702],[-0.40932,47.06629],[-0.41568,47.0696],[-0.4179,47.07189],[-0.423,47.06984],[-0.42585,47.07273],[-0.43582,47.0707],[-0.44082,47.06783],[-0.45317,47.06731],[-0.45799,47.06877],[-0.46426,47.06758],[-0.47031,47.0613],[-0.47191,47.05785],[-0.47634,47.05436],[-0.48038,47.05363],[-0.48554,47.06521],[-0.48161,47.0694],[-0.47746,47.07189],[-0.4643,47.07435],[-0.46397,47.07608],[-0.45891,47.08013],[-0.45956,47.08241],[-0.46335,47.08186],[-0.4682,47.08386],[-0.47343,47.08176],[-0.47528,47.08306],[-0.48769,47.08105],[-0.49109,47.08312],[-0.49445,47.08309],[-0.50934,47.07817],[-0.51513,47.07794],[-0.52507,47.07405],[-0.53246,47.073],[-0.54492,47.06806],[-0.5464,47.06636],[-0.5573,47.06437],[-0.55972,47.0617],[-0.55415,47.05752],[-0.55816,47.05612],[-0.55573,47.04258],[-0.54849,47.04043],[-0.54425,47.03746],[-0.54222,47.03513],[-0.54253,47.03234],[-0.54483,47.0311],[-0.54566,47.02924],[-0.55203,47.02908],[-0.55496,47.03072],[-0.56226,47.03066],[-0.56547,47.01943],[-0.57487,47.01788],[-0.58396,47.01211],[-0.58762,47.00792],[-0.58696,47.00673],[-0.58775,47.00544],[-0.59503,47.00269],[-0.59715,47.00071],[-0.59395,46.99876],[-0.59549,46.99795],[-0.60265,46.99764],[-0.61881,46.99236],[-0.62152,46.99391],[-0.62494,46.99274],[-0.62499,46.99454],[-0.62793,46.9956],[-0.62728,46.99687],[-0.63303,46.99749],[-0.63512,46.99599],[-0.64053,46.99612],[-0.6455,46.99212],[-0.64696,46.99231],[-0.64638,46.99385],[-0.64995,46.99511],[-0.64786,46.99652],[-0.65675,46.99912],[-0.66114,46.99878],[-0.66207,46.99782],[-0.66994,47.0008],[-0.67058,47.0029],[-0.67619,47.00188],[-0.67683,47.0003],[-0.67469,46.99892],[-0.67541,46.99652],[-0.68037,46.99324],[-0.67853,46.99212],[-0.67768,46.98997],[-0.68019,46.98766],[-0.68658,46.98794],[-0.68948,46.9903],[-0.68948,46.99268],[-0.69396,46.99288],[-0.69637,46.9947],[-0.69847,46.99456],[-0.70156,46.99223],[-0.704,46.99225],[-0.70374,46.99113],[-0.71588,46.98388],[-0.72345,46.99206],[-0.7279,46.99499],[-0.73239,46.99744],[-0.7397,46.99882],[-0.74337,47.0007],[-0.74286,46.9919],[-0.7475,46.99137],[-0.75351,46.99296],[-0.76195,46.99214],[-0.76869,46.9962],[-0.76811,47.00071],[-0.76934,47.00293],[-0.77347,47.00439],[-0.77615,47.00315],[-0.7784,47.00424],[-0.78173,47.00205],[-0.78421,47.00253],[-0.78427,47.00379],[-0.78758,47.00514],[-0.78972,47.0035],[-0.79179,46.99944],[-0.79625,46.99598],[-0.80043,46.99443],[-0.80694,46.99425],[-0.80948,46.99274],[-0.81085,46.99135],[-0.80909,46.99046],[-0.80757,46.99135],[-0.80509,46.98967],[-0.80845,46.98758],[-0.81251,46.99041],[-0.81137,46.99134],[-0.8115,46.99435],[-0.81728,46.99321],[-0.81871,46.99403],[-0.82801,46.9919],[-0.83625,46.98579],[-0.83938,46.98539],[-0.84241,46.98877],[-0.84428,46.98931],[-0.84772,46.98615],[-0.848,46.98218],[-0.85682,46.97878],[-0.85709,46.97774],[-0.84916,46.97378],[-0.85259,46.97071],[-0.86076,46.96868],[-0.86321,46.97239],[-0.8685,46.97283],[-0.86969,46.97181],[-0.8727,46.97371],[-0.87918,46.97434],[-0.87972,46.97581],[-0.88501,46.9771],[-0.88799,46.97544],[-0.89594,46.9753],[-0.89783,46.97066],[-0.90239,46.97075],[-0.90068,46.96878],[-0.90281,46.96813],[-0.90196,46.96708],[-0.89801,46.96691],[-0.89413,46.96915],[-0.89249,46.96597],[-0.88943,46.96738],[-0.89313,46.96919],[-0.89197,46.97046],[-0.88628,46.97063],[-0.88358,46.96922],[-0.88044,46.96998],[-0.87712,46.96854],[-0.88309,46.96378],[-0.88344,46.96197],[-0.88252,46.96109],[-0.8833,46.95954],[-0.87854,46.95599],[-0.87609,46.95565],[-0.87194,46.95779],[-0.87178,46.95937],[-0.8673,46.96274],[-0.86379,46.96225],[-0.86671,46.95825],[-0.86811,46.95857],[-0.86908,46.95724],[-0.86697,46.9559],[-0.86598,46.95733],[-0.86339,46.95663],[-0.86457,46.95538],[-0.86425,46.95224],[-0.86615,46.95219],[-0.86058,46.9491],[-0.86657,46.94803],[-0.8677,46.94954],[-0.86726,46.95085],[-0.87512,46.9537],[-0.87688,46.95238],[-0.88377,46.95106],[-0.881,46.94646],[-0.87894,46.94503],[-0.87714,46.94567],[-0.87373,46.94365],[-0.87128,46.94542],[-0.86206,46.94519],[-0.85828,46.94678],[-0.8561,46.94563],[-0.85408,46.94704],[-0.84948,46.94599],[-0.84773,46.94419],[-0.85213,46.94173],[-0.85385,46.93983],[-0.85325,46.93873],[-0.85417,46.93758],[-0.85984,46.93665],[-0.85793,46.93432],[-0.84801,46.94099],[-0.84068,46.93611],[-0.8407,46.93304],[-0.84614,46.93173],[-0.84084,46.92881],[-0.83728,46.93197],[-0.83137,46.93407],[-0.82914,46.93336],[-0.829,46.93193],[-0.82724,46.93126],[-0.82863,46.92996],[-0.8274,46.92828],[-0.8282,46.92722],[-0.82736,46.92522],[-0.82137,46.91827],[-0.81235,46.92032],[-0.8074,46.91983],[-0.8161,46.91256],[-0.82054,46.911],[-0.82136,46.90931],[-0.81854,46.90826],[-0.81704,46.90398],[-0.82078,46.8983],[-0.82541,46.89435],[-0.82608,46.89005],[-0.82853,46.88723],[-0.83021,46.88764],[-0.83085,46.88515],[-0.82675,46.88247],[-0.82519,46.88377],[-0.81633,46.88064],[-0.81418,46.87642],[-0.81157,46.87451],[-0.81233,46.87278],[-0.80812,46.87029],[-0.80847,46.86856],[-0.80046,46.86505],[-0.80094,46.86337],[-0.79449,46.86076],[-0.79466,46.85904],[-0.79346,46.85772],[-0.7917,46.85786],[-0.79025,46.85543],[-0.78711,46.85335],[-0.78792,46.85274],[-0.7829,46.84847],[-0.78437,46.84793],[-0.7844,46.84626],[-0.78257,46.84528],[-0.78336,46.84422],[-0.78165,46.84283],[-0.7767,46.84116],[-0.77638,46.84014],[-0.77317,46.84036],[-0.76673,46.83446],[-0.76313,46.83464],[-0.75924,46.83218],[-0.75052,46.82989],[-0.7462,46.831],[-0.74263,46.82934],[-0.73787,46.82893],[-0.73688,46.82752],[-0.7372,46.82513],[-0.73286,46.8215],[-0.72571,46.82138],[-0.72358,46.82314],[-0.71276,46.82083],[-0.71004,46.82157],[-0.70667,46.81878],[-0.70774,46.81592],[-0.69875,46.81088],[-0.69897,46.8089],[-0.71016,46.80496],[-0.71305,46.80511],[-0.71378,46.80297],[-0.71784,46.80052],[-0.71914,46.79801],[-0.7173,46.79234],[-0.72044,46.78979],[-0.72353,46.78425],[-0.7271,46.78231],[-0.72442,46.77676],[-0.72674,46.77359],[-0.72705,46.76642],[-0.72519,46.76481],[-0.72231,46.76493],[-0.72008,46.76373],[-0.72099,46.76132],[-0.7194,46.75866],[-0.71975,46.75573],[-0.7156,46.75183],[-0.71097,46.74993],[-0.70418,46.74945],[-0.70182,46.74997],[-0.6999,46.75192],[-0.6983,46.75176],[-0.69763,46.7488],[-0.69513,46.7476],[-0.69404,46.74385],[-0.69582,46.74247],[-0.69606,46.74023],[-0.69858,46.73792],[-0.70076,46.73818],[-0.70261,46.73494],[-0.69999,46.73392],[-0.6961,46.73677],[-0.69391,46.7353],[-0.69632,46.73497],[-0.69634,46.72951],[-0.69316,46.72996],[-0.69208,46.73282],[-0.68917,46.73219],[-0.69027,46.73102],[-0.68696,46.73017],[-0.68845,46.72874],[-0.68802,46.72569],[-0.68549,46.72981],[-0.68188,46.72599],[-0.67812,46.72573],[-0.67804,46.7242],[-0.66888,46.71723],[-0.66562,46.71143],[-0.6627,46.70965],[-0.66178,46.70711],[-0.66361,46.70589],[-0.65906,46.70403],[-0.65619,46.70077],[-0.68073,46.68694],[-0.6512,46.67336],[-0.64686,46.67036],[-0.64188,46.66419],[-0.63699,46.66333],[-0.64857,46.65636],[-0.64934,46.65378],[-0.64833,46.65209],[-0.64828,46.64768],[-0.64913,46.64532],[-0.65942,46.63983],[-0.65888,46.63592],[-0.65643,46.63554],[-0.64357,46.63812],[-0.63419,46.63739],[-0.62979,46.63461],[-0.62327,46.63253],[-0.6246,46.63047],[-0.61405,46.62161],[-0.61397,46.62012],[-0.61732,46.61923],[-0.62158,46.61228],[-0.62304,46.61156],[-0.62294,46.60742],[-0.62569,46.60505],[-0.62422,46.60348],[-0.62276,46.60414],[-0.6197,46.60188],[-0.61808,46.59845],[-0.61399,46.59897],[-0.61445,46.59527],[-0.62091,46.59298],[-0.6119,46.58831],[-0.61607,46.58311],[-0.61541,46.58191],[-0.61822,46.5818],[-0.62029,46.57908],[-0.62466,46.57785],[-0.6245,46.57498],[-0.61841,46.57238],[-0.61999,46.56518],[-0.6176,46.56462],[-0.6166,46.56293],[-0.61755,46.5625],[-0.61516,46.56059],[-0.61085,46.56416],[-0.60659,46.56373],[-0.60732,46.56043],[-0.60568,46.55655],[-0.60838,46.55095],[-0.60222,46.54804],[-0.60472,46.54613],[-0.60411,46.54327],[-0.60241,46.54205],[-0.60301,46.53871],[-0.60213,46.53328],[-0.60422,46.53214],[-0.60904,46.52608],[-0.61238,46.52996],[-0.61589,46.52613],[-0.62001,46.52733],[-0.62015,46.52872],[-0.62211,46.53006],[-0.62589,46.52883],[-0.6271,46.52953],[-0.63204,46.52661],[-0.64223,46.52476],[-0.64403,46.52184],[-0.6381,46.52199],[-0.63749,46.51904],[-0.6404,46.51509],[-0.63967,46.51353],[-0.64047,46.51266],[-0.64277,46.51305],[-0.64632,46.51138],[-0.6452,46.50857],[-0.63667,46.50636],[-0.63435,46.50476],[-0.63435,46.50228],[-0.62503,46.49748],[-0.62457,46.48538],[-0.62974,46.48115],[-0.63116,46.47859],[-0.61909,46.4758],[-0.61691,46.47172],[-0.61627,46.46224],[-0.60766,46.45486],[-0.60986,46.45349],[-0.61052,46.45001],[-0.61386,46.44911],[-0.61479,46.44954],[-0.6145,46.45152],[-0.61921,46.45523],[-0.61984,46.45247],[-0.61686,46.44697],[-0.61773,46.44496],[-0.61654,46.44472],[-0.61878,46.43886],[-0.63684,46.43231],[-0.63465,46.42912],[-0.64078,46.41636],[-0.63895,46.41618],[-0.63943,46.41045],[-0.62911,46.40406],[-0.63305,46.40126],[-0.63782,46.40027],[-0.64064,46.39696],[-0.62901,46.39402],[-0.62088,46.39046],[-0.61445,46.40246],[-0.61354,46.40977],[-0.61018,46.41374],[-0.60187,46.41287],[-0.59417,46.41019],[-0.58866,46.4056],[-0.58189,46.40217],[-0.57238,46.40071],[-0.57154,46.39582],[-0.56606,46.39308],[-0.55052,46.39334],[-0.5378,46.38647],[-0.55053,46.37034],[-0.557,46.36487],[-0.55851,46.36154],[-0.56181,46.35974],[-0.5729,46.35807],[-0.57731,46.35543],[-0.60325,46.36147],[-0.60681,46.35516],[-0.60332,46.35431],[-0.60495,46.34715],[-0.60677,46.34724],[-0.61605,46.34083],[-0.6186,46.34014],[-0.61868,46.3391],[-0.62244,46.33779],[-0.62706,46.33775],[-0.62821,46.33628],[-0.63425,46.33856],[-0.6366,46.33759],[-0.63945,46.32896],[-0.63605,46.32803],[-0.63747,46.32362],[-0.64841,46.3169],[-0.65356,46.31725],[-0.65687,46.31491],[-0.66166,46.31704],[-0.67227,46.31622],[-0.69674,46.32506],[-0.70757,46.31771],[-0.71558,46.317],[-0.72015,46.31489],[-0.7231,46.30956],[-0.71642,46.30748],[-0.71647,46.30612],[-0.71968,46.30324],[-0.72191,46.30237],[-0.72777,46.30383],[-0.73048,46.3034],[-0.73383,46.30502],[-0.74121,46.30478],[-0.7472,46.30282],[-0.75048,46.30426],[-0.75795,46.31125],[-0.76155,46.31266],[-0.7686,46.31239],[-0.77512,46.31835],[-0.78464,46.31894],[-0.79362,46.32491],[-0.80075,46.32448],[-0.80281,46.32529],[-0.80724,46.33111],[-0.80716,46.33313],[-0.80452,46.33586],[-0.79933,46.33718],[-0.79672,46.33914],[-0.79862,46.3417],[-0.80375,46.34264],[-0.80909,46.33844],[-0.82265,46.33576],[-0.82772,46.33797],[-0.83052,46.34153],[-0.83458,46.34191],[-0.83988,46.34037],[-0.84866,46.33251],[-0.84833,46.32915],[-0.84478,46.32618],[-0.84487,46.32456],[-0.84948,46.31777],[-0.85992,46.31752],[-0.86302,46.31914],[-0.86329,46.32057],[-0.86045,46.32529],[-0.86461,46.32747],[-0.86805,46.32638],[-0.86846,46.32344],[-0.87034,46.32217],[-0.87884,46.32419],[-0.88323,46.32379],[-0.88717,46.32665],[-0.8892,46.32358],[-0.89307,46.32307],[-0.89376,46.32142],[-0.89259,46.31948],[-0.89447,46.3169],[-0.90136,46.31589],[-0.90332,46.31408],[-0.90893,46.31424],[-0.91105,46.31278],[-0.91308,46.31322],[-0.91532,46.3159],[-0.91699,46.31549],[-0.91896,46.31264],[-0.92116,46.31249],[-0.92635,46.31554],[-0.92881,46.31434],[-0.9286,46.31084],[-0.93102,46.31004],[-0.93314,46.31083],[-0.93547,46.31473],[-0.94009,46.31505],[-0.94348,46.31828],[-0.94761,46.31781],[-0.9631,46.32262],[-0.95678,46.32575],[-0.95368,46.32962],[-0.94347,46.3366],[-0.93888,46.34565],[-0.93874,46.35191],[-0.93597,46.35443],[-0.93184,46.3658],[-0.92739,46.37075],[-0.92963,46.37152],[-0.93393,46.36752],[-0.93675,46.36639],[-0.942,46.36822],[-0.95128,46.36038],[-0.96451,46.3654],[-0.97002,46.35844],[-0.97069,46.35455],[-0.9749,46.35105],[-0.99521,46.35032],[-0.99489,46.35137],[-0.99977,46.35468],[-1.01301,46.34903],[-1.01367,46.35238],[-1.0123,46.35423],[-1.01381,46.35562],[-1.02907,46.34886],[-1.02986,46.35141],[-1.05253,46.34254],[-1.05338,46.349],[-1.06452,46.33551],[-1.07005,46.33058],[-1.07404,46.32875],[-1.07334,46.32688],[-1.0813,46.32335],[-1.08073,46.32143],[-1.07517,46.31989],[-1.07467,46.31824],[-1.07547,46.3175],[-1.09097,46.3173],[-1.09297,46.31642],[-1.09573,46.31207],[-1.09781,46.31218],[-1.09928,46.31558],[-1.10173,46.31634],[-1.10494,46.31459],[-1.11614,46.31725],[-1.1161,46.32171],[-1.11776,46.32337],[-1.12057,46.3236],[-1.12364,46.32179],[-1.123,46.31578],[-1.12788,46.31288],[-1.1294,46.31028],[-1.1378,46.31249],[-1.1396,46.31122],[-1.15144,46.31865],[-1.16467,46.32419],[-1.16491,46.32179],[-1.16718,46.31969],[-1.18575,46.31849],[-1.19999,46.31462],[-1.20076,46.31635],[-1.20306,46.31574],[-1.20295,46.313],[-1.19551,46.30048],[-1.20678,46.28806],[-1.20846,46.27827],[-1.20324,46.26751],[-1.20739,46.26657],[-1.21586,46.27202],[-1.22101,46.27316],[-1.22861,46.27729],[-1.23079,46.27673],[-1.24778,46.2902],[-1.27517,46.30564],[-1.27609,46.30772],[-1.28177,46.30997],[-1.29462,46.32141],[-1.29357,46.32211],[-1.2959,46.32393],[-1.30598,46.31919],[-1.30468,46.31631],[-1.30169,46.31433],[-1.30158,46.3128],[-1.29922,46.31045],[-1.2979,46.30716],[-1.29808,46.30409],[-1.29504,46.30445],[-1.29433,46.30344],[-1.29592,46.29713],[-1.29124,46.29616],[-1.29267,46.29507],[-1.28741,46.29412],[-1.29249,46.29328],[-1.29262,46.29148],[-1.2873,46.29151],[-1.28842,46.28886],[-1.27908,46.28808],[-1.27331,46.29029],[-1.27228,46.28942],[-1.27798,46.28712],[-1.28947,46.28797],[-1.29681,46.28985],[-1.30888,46.30338],[-1.31416,46.31321],[-1.31799,46.318],[-1.31825,46.321],[-1.32159,46.32517],[-1.32098,46.32573],[-1.32719,46.33112],[-1.34127,46.33949],[-1.34014,46.34092],[-1.34313,46.34285],[-1.34475,46.34181],[-1.35127,46.3438],[-1.35815,46.34763],[-1.3696,46.34866],[-1.37466,46.34849],[-1.37718,46.34724],[-1.3746,46.34376],[-1.38384,46.3409],[-1.40098,46.3405],[-1.41644,46.34603],[-1.42402,46.34749],[-1.42842,46.34713],[-1.43789,46.34024],[-1.46594,46.34236],[-1.46956,46.34395],[-1.47095,46.34606],[-1.47841,46.3663],[-1.4878,46.38139],[-1.50215,46.39735],[-1.51507,46.4043],[-1.52268,46.40529],[-1.53401,46.40888],[-1.54122,46.40944],[-1.54522,46.40804],[-1.54728,46.40598],[-1.55051,46.40543],[-1.58356,46.40979],[-1.58642,46.40869],[-1.6113,46.41342],[-1.61528,46.41252],[-1.62352,46.41295],[-1.62728,46.41453],[-1.62832,46.41719],[-1.6298,46.41791],[-1.64789,46.42016],[-1.65349,46.42194],[-1.65396,46.42391],[-1.6482,46.42627],[-1.64775,46.42823],[-1.64882,46.4294],[-1.65036,46.42818],[-1.65353,46.42879],[-1.65847,46.43303],[-1.65822,46.43412],[-1.66297,46.43494],[-1.66776,46.43793],[-1.6718,46.43805],[-1.67758,46.44119],[-1.68928,46.44267],[-1.69399,46.4447],[-1.6958,46.44707],[-1.71103,46.45126],[-1.71074,46.45347],[-1.71189,46.45397],[-1.71428,46.45903],[-1.72119,46.45909],[-1.72209,46.45798],[-1.7251,46.459],[-1.727,46.46163],[-1.73245,46.46396],[-1.73254,46.46603],[-1.73595,46.46631],[-1.73779,46.46737],[-1.73735,46.46834],[-1.741,46.46847],[-1.74765,46.47279],[-1.75534,46.47445],[-1.76036,46.47783],[-1.76073,46.48025],[-1.76995,46.48923],[-1.77714,46.49276],[-1.78353,46.49451],[-1.7913,46.4945],[-1.79631,46.48927],[-1.79953,46.48875],[-1.80339,46.48897],[-1.81235,46.49342],[-1.81532,46.4998],[-1.8159,46.50418],[-1.81901,46.50984],[-1.81848,46.5124],[-1.82382,46.53164],[-1.84844,46.58589],[-1.85118,46.59605],[-1.85702,46.60985],[-1.86508,46.61595],[-1.87021,46.61711],[-1.87175,46.6185],[-1.87598,46.6283],[-1.89067,46.63469],[-1.89272,46.6375],[-1.89779,46.64038],[-1.90819,46.65216],[-1.90809,46.65499],[-1.91168,46.66076],[-1.94288,46.6927],[-1.95123,46.69568],[-1.95204,46.69439],[-1.96004,46.69435],[-1.96147,46.6922],[-1.96581,46.69194],[-1.97305,46.69742],[-1.97949,46.70511],[-1.98037,46.70891],[-1.97913,46.71467],[-1.97974,46.71735],[-1.99786,46.73239],[-2.06206,46.7773],[-2.0738,46.78373],[-2.1172,46.80336],[-2.12958,46.81026],[-2.14206,46.81906],[-2.14588,46.83418],[-2.14543,46.84781],[-2.14701,46.8628],[-2.14891,46.86993],[-2.15534,46.88315],[-2.15503,46.88965],[-2.1457,46.88966],[-2.13973,46.89219],[-2.1329,46.89142],[-2.1277,46.89226],[-2.12177,46.89113],[-2.11673,46.89533],[-2.11323,46.89601],[-2.10984,46.89948],[-2.11935,46.90078],[-2.1178,46.90832],[-2.11286,46.91297],[-2.11134,46.91281],[-2.10592,46.91972],[-2.0978,46.92487],[-2.09534,46.92455],[-2.0915,46.92988],[-2.07948,46.93399],[-2.08167,46.93819],[-2.07559,46.93955],[-2.07127,46.9358],[-2.07498,46.9402],[-2.05823,46.95094],[-2.04469,46.96804],[-2.04648,46.97793],[-2.03704,46.99135],[-2.03287,46.99182],[-2.0375,46.99526],[-2.03796,46.99776],[-2.0318,46.9989],[-2.03208,47.00163],[-2.0292,47.00747],[-2.02933,47.00985],[-2.02661,47.00954],[-2.0205,47.01135],[-2.01431,47.01389],[-2.01131,47.01671],[-1.99854,47.01835],[-1.98042,47.02742],[-1.98041,47.02891],[-1.98362,47.02951],[-1.98523,47.03386],[-1.99805,47.05396],[-2.00472,47.06146],[-2.01362,47.06477],[-2.02153,47.06965],[-2.02738,47.07092],[-2.0326,47.07352],[-2.03775,47.07841],[-2.03971,47.07901],[-2.0422,47.08297],[-2.04856,47.08638],[-2.05082,47.08909],[-2.05207,47.09381],[-2.07118,47.09844],[-2.07443,47.10111],[-2.07899,47.10102],[-2.08771,47.10357],[-2.08971,47.10304],[-2.09814,47.10614],[-2.10716,47.10665],[-2.10858,47.10785],[-2.10344,47.11436],[-2.10626,47.11416],[-2.10681,47.11203],[-2.11113,47.10993],[-2.11638,47.10949],[-2.12252,47.10962],[-2.12724,47.11164],[-2.13685,47.11054],[-2.15745,47.11299],[-2.16266,47.11539],[-2.16463,47.11843],[-2.17591,47.11979],[-2.17939,47.12209],[-2.19223,47.12235],[-2.19572,47.12393],[-2.20025,47.1236],[-2.2034,47.12492],[-2.21381,47.12398],[-2.22098,47.12585],[-2.22199,47.1277],[-2.22682,47.13094],[-2.23356,47.13184],[-2.23724,47.13084],[-2.23976,47.13254],[-2.24267,47.13247],[-2.24473,47.13032],[-2.24721,47.13247],[-2.24782,47.13402],[-2.2452,47.13584],[-2.24237,47.13599],[-2.22886,47.14487],[-2.22613,47.15227],[-2.2231,47.15388],[-2.21855,47.1532],[-2.20861,47.1568],[-2.20328,47.157],[-2.20005,47.15876],[-2.17818,47.15615],[-2.16706,47.16618],[-2.16208,47.18165],[-2.16156,47.1928],[-2.15821,47.19689],[-2.1601,47.20363],[-2.15848,47.20485],[-2.15929,47.20816],[-2.15837,47.20905],[-2.16667,47.21958],[-2.18099,47.23263],[-2.18009,47.23371],[-2.18121,47.2351],[-2.18081,47.23597],[-2.17494,47.2362],[-2.17317,47.23875],[-2.17054,47.23975],[-2.16937,47.24849],[-2.17089,47.26267],[-2.16999,47.26848],[-2.18736,47.28062],[-2.19451,47.2758],[-2.19749,47.27514],[-2.19844,47.2707],[-2.1997,47.26983],[-2.20457,47.27117],[-2.20798,47.27081],[-2.22374,47.26542],[-2.22464,47.26439],[-2.22216,47.25863],[-2.22686,47.25777],[-2.22804,47.25615],[-2.24668,47.25599],[-2.24926,47.25363],[-2.25282,47.25344],[-2.25616,47.24989],[-2.25989,47.24947],[-2.26299,47.24309],[-2.26217,47.24199],[-2.2659,47.24148],[-2.26741,47.2384],[-2.27341,47.23979],[-2.27609,47.23928],[-2.27633,47.23751],[-2.28917,47.23753],[-2.2923,47.23479],[-2.29755,47.23431],[-2.29818,47.23312],[-2.30164,47.2364],[-2.30663,47.2375],[-2.30799,47.23948],[-2.30664,47.24075],[-2.31765,47.24328],[-2.32419,47.2477],[-2.33536,47.25216],[-2.34281,47.25785],[-2.34134,47.25927],[-2.3421,47.26176],[-2.3541,47.27114],[-2.37516,47.2788],[-2.39257,47.28169],[-2.39838,47.28145],[-2.41416,47.27868],[-2.42038,47.27645],[-2.42441,47.27339],[-2.42539,47.27096],[-2.4169,47.26194],[-2.41655,47.25872],[-2.42048,47.25832],[-2.42479,47.25977],[-2.4316,47.25832],[-2.43697,47.26053],[-2.44061,47.25983],[-2.44596,47.26187],[-2.44751,47.26144],[-2.44927,47.26335],[-2.4534,47.26368],[-2.45337,47.26552],[-2.45552,47.26814],[-2.46112,47.27002],[-2.46482,47.26988],[-2.46537,47.27084],[-2.46757,47.26953],[-2.47174,47.26963],[-2.47831,47.27273],[-2.48135,47.27256],[-2.4816,47.27404],[-2.49392,47.27542],[-2.49446,47.27774],[-2.49909,47.28074],[-2.50258,47.28118],[-2.50414,47.28021],[-2.50702,47.28186],[-2.51083,47.28228],[-2.51299,47.28426],[-2.5237,47.28716],[-2.53146,47.28704],[-2.54636,47.29065],[-2.54695,47.29432],[-2.54496,47.29797],[-2.53948,47.29959],[-2.536,47.29916],[-2.5346,47.30052],[-2.5237,47.3017],[-2.52038,47.30139],[-2.51381,47.29837],[-2.51193,47.29958],[-2.51083,47.30159],[-2.51452,47.30365],[-2.51087,47.30616],[-2.50499,47.31367],[-2.50291,47.32875],[-2.50844,47.34443],[-2.51615,47.34969],[-2.52116,47.35881],[-2.5331,47.36606],[-2.53562,47.36613],[-2.53645,47.36502],[-2.5404,47.36553],[-2.54741,47.36897],[-2.55084,47.36874],[-2.55894,47.37457],[-2.55466,47.37854],[-2.55101,47.37913],[-2.54698,47.3822],[-2.54453,47.3809],[-2.54143,47.38112],[-2.53363,47.38356],[-2.52241,47.39224],[-2.51531,47.39444],[-2.50938,47.39991],[-2.49943,47.40451],[-2.49538,47.40374],[-2.49123,47.40481],[-2.48933,47.40724],[-2.48829,47.4112],[-2.48446,47.41293],[-2.48191,47.41192],[-2.47792,47.41248],[-2.47597,47.41374],[-2.47569,47.41564],[-2.47002,47.41692],[-2.4682,47.42091],[-2.46716,47.4205],[-2.4683,47.41758],[-2.46252,47.41101],[-2.45926,47.41159],[-2.45673,47.41449],[-2.45533,47.41441],[-2.45305,47.41199],[-2.45247,47.41301],[-2.44871,47.41167],[-2.44485,47.4116],[-2.43962,47.41466],[-2.4335,47.41306],[-2.43162,47.41575],[-2.43616,47.4176],[-2.44047,47.4212],[-2.44445,47.42194],[-2.44711,47.42124],[-2.44938,47.42421],[-2.45304,47.42586],[-2.45776,47.42301],[-2.45867,47.42361],[-2.45748,47.42649],[-2.45188,47.43289],[-2.45242,47.43373],[-2.44549,47.43564],[-2.44824,47.44129],[-2.45533,47.4469],[-2.45849,47.44812]]],[[[-2.30479,46.70942],[-2.30209,46.70891],[-2.2869,46.69647],[-2.2821,46.69114],[-2.28337,46.69032],[-2.28351,46.68787],[-2.28635,46.68857],[-2.28629,46.69093],[-2.28832,46.69081],[-2.28909,46.6925],[-2.29467,46.69317],[-2.29951,46.69229],[-2.31153,46.69601],[-2.31533,46.69503],[-2.31553,46.69136],[-2.32399,46.69092],[-2.32764,46.6869],[-2.33089,46.68699],[-2.33181,46.68849],[-2.34,46.69002],[-2.34094,46.69122],[-2.34031,46.69209],[-2.34254,46.69422],[-2.34383,46.69253],[-2.34701,46.69369],[-2.35182,46.69157],[-2.3522,46.69285],[-2.35772,46.69497],[-2.36387,46.69466],[-2.3684,46.69834],[-2.36902,46.70165],[-2.37319,46.70269],[-2.37591,46.70306],[-2.37757,46.70152],[-2.377,46.70012],[-2.3793,46.69853],[-2.38314,46.70036],[-2.37924,46.70509],[-2.38298,46.7064],[-2.38409,46.70795],[-2.38681,46.70735],[-2.38992,46.70983],[-2.39295,46.70998],[-2.39358,46.71292],[-2.39868,46.7164],[-2.39787,46.71991],[-2.39927,46.72128],[-2.40048,46.72606],[-2.38769,46.72703],[-2.38663,46.72761],[-2.387,46.72962],[-2.38382,46.73061],[-2.38234,46.73333],[-2.37735,46.73234],[-2.37425,46.73366],[-2.36995,46.73168],[-2.36186,46.73066],[-2.36056,46.72927],[-2.35799,46.72983],[-2.3545,46.72797],[-2.34767,46.72877],[-2.34453,46.72799],[-2.34502,46.72689],[-2.34323,46.72348],[-2.34005,46.71969],[-2.33777,46.71907],[-2.32841,46.72065],[-2.31835,46.71986],[-2.31743,46.71745],[-2.31224,46.71458],[-2.31085,46.71224],[-2.30625,46.71117],[-2.30479,46.70942]]],[[[-2.19807,46.95117],[-2.21055,46.95942],[-2.22316,46.96527],[-2.24245,46.96536],[-2.25279,46.9585],[-2.25876,46.95836],[-2.26438,46.96088],[-2.28129,46.97935],[-2.28679,46.98349],[-2.3011,46.98904],[-2.30241,46.99057],[-2.30203,46.99762],[-2.29569,47.00355],[-2.2924,47.00891],[-2.29209,47.01145],[-2.29251,47.01256],[-2.29555,47.01338],[-2.29626,47.01695],[-2.30106,47.01843],[-2.30412,47.0233],[-2.30759,47.02465],[-2.30015,47.02541],[-2.29966,47.02438],[-2.28723,47.02462],[-2.27707,47.02904],[-2.26776,47.02729],[-2.26366,47.02863],[-2.25709,47.02732],[-2.25391,47.02803],[-2.25069,47.0273],[-2.24751,47.02329],[-2.24743,47.02149],[-2.24455,47.01943],[-2.23559,47.01709],[-2.22562,47.01685],[-2.21976,47.01141],[-2.22066,47.00966],[-2.21833,47.00782],[-2.22046,47.00264],[-2.21857,46.99515],[-2.21881,46.99171],[-2.22039,46.99012],[-2.22257,46.9903],[-2.22608,46.99273],[-2.23861,46.9976],[-2.24013,46.99614],[-2.23525,46.9952],[-2.23401,46.99301],[-2.23416,46.98943],[-2.23156,46.98896],[-2.23607,46.98562],[-2.23614,46.98413],[-2.23453,46.98293],[-2.23744,46.98155],[-2.23648,46.97988],[-2.23234,46.97649],[-2.2323,46.97446],[-2.23074,46.97321],[-2.22626,46.97619],[-2.18733,46.96114],[-2.16753,46.95499],[-2.15718,46.95004],[-2.15053,46.93971],[-2.14824,46.93831],[-2.14929,46.93741],[-2.14744,46.9342],[-2.15328,46.93176],[-2.15031,46.92683],[-2.14746,46.92654],[-2.14698,46.92403],[-2.14887,46.92229],[-2.14885,46.92036],[-2.15059,46.92002],[-2.15103,46.91733],[-2.15076,46.91568],[-2.14821,46.91353],[-2.14988,46.91224],[-2.14969,46.91001],[-2.15325,46.90693],[-2.14818,46.89735],[-2.148,46.89462],[-2.1548,46.89512],[-2.16682,46.90544],[-2.17228,46.92171],[-2.17739,46.93207],[-2.18501,46.94065],[-2.19807,46.95117]]]]}}]}