{"type":"FeatureCollection","features":[{"type":"Feature","properties":{"reg_name":"francia-occitania","source":"IGN Admin Express via france-geojson, Licence Ouverte 2.0"},"geometry":{"type":"MultiPolygon","coordinates":[[[[1.78613,42.57362],[1.78661,42.57431],[1.78441,42.57587],[1.78313,42.58012],[1.78094,42.5826],[1.77316,42.58068],[1.76074,42.58092],[1.75286,42.58264],[1.74197,42.58775],[1.72826,42.58841],[1.72612,42.58969],[1.72631,42.60031],[1.72899,42.60123],[1.73127,42.60399],[1.7319,42.60741],[1.73519,42.60851],[1.73796,42.61131],[1.73607,42.61715],[1.72951,42.61482],[1.72281,42.61636],[1.7202,42.61504],[1.71411,42.61461],[1.69818,42.62274],[1.69204,42.62195],[1.6836,42.62486],[1.68056,42.62481],[1.67838,42.6225],[1.67346,42.62081],[1.66687,42.62153],[1.6644,42.61904],[1.65689,42.62115],[1.65372,42.62631],[1.63883,42.62842],[1.63716,42.6303],[1.62788,42.62633],[1.62232,42.62728],[1.61953,42.62583],[1.61149,42.62667],[1.60934,42.62855],[1.60205,42.62548],[1.59974,42.62619],[1.59313,42.63313],[1.58568,42.63357],[1.57978,42.63753],[1.57944,42.64117],[1.57599,42.64336],[1.57489,42.64803],[1.56879,42.64843],[1.56607,42.65148],[1.56239,42.65348],[1.55832,42.65215],[1.54925,42.65578],[1.53832,42.65255],[1.53384,42.64968],[1.53083,42.65124],[1.52638,42.65084],[1.52215,42.64918],[1.51891,42.64548],[1.51262,42.64615],[1.50061,42.64515],[1.49375,42.65321],[1.47877,42.65165],[1.47691,42.64074],[1.46991,42.63565],[1.46834,42.63082],[1.47142,42.62824],[1.47105,42.62467],[1.47727,42.61497],[1.47656,42.61302],[1.47042,42.60869],[1.46946,42.60689],[1.46478,42.60685],[1.45981,42.60475],[1.45704,42.60229],[1.4504,42.6026],[1.44782,42.60379],[1.43783,42.60321],[1.4334,42.60692],[1.42923,42.61269],[1.43056,42.61733],[1.4281,42.61845],[1.42728,42.62095],[1.42379,42.62201],[1.4207,42.62473],[1.41996,42.62949],[1.41872,42.63069],[1.41974,42.63223],[1.41593,42.63764],[1.4173,42.64],[1.41691,42.64184],[1.41444,42.64407],[1.41366,42.65552],[1.40837,42.65759],[1.40537,42.65721],[1.40315,42.65887],[1.40377,42.66002],[1.40196,42.66188],[1.40132,42.66457],[1.39664,42.66805],[1.38778,42.66837],[1.38891,42.67427],[1.38703,42.67741],[1.38876,42.67991],[1.38752,42.68151],[1.3896,42.68508],[1.38933,42.68679],[1.3866,42.68952],[1.37737,42.69452],[1.36955,42.69563],[1.3651,42.69451],[1.3617,42.69776],[1.35317,42.70035],[1.35124,42.70266],[1.35288,42.71128],[1.35801,42.71493],[1.35738,42.71941],[1.3509,42.72003],[1.33835,42.71857],[1.33527,42.72404],[1.32538,42.72422],[1.31669,42.71869],[1.30937,42.71741],[1.30747,42.71847],[1.29256,42.71906],[1.27783,42.71387],[1.27494,42.71826],[1.26914,42.71807],[1.26528,42.71547],[1.25316,42.71463],[1.25051,42.71964],[1.24792,42.72093],[1.24722,42.72249],[1.243,42.72286],[1.2412,42.725],[1.23521,42.72503],[1.23254,42.72738],[1.22911,42.72772],[1.21674,42.72002],[1.20952,42.72086],[1.20042,42.71766],[1.1922,42.71667],[1.18884,42.71731],[1.18674,42.7154],[1.17927,42.71326],[1.17691,42.71174],[1.17557,42.70894],[1.16986,42.70798],[1.16593,42.70871],[1.15222,42.71665],[1.15113,42.71949],[1.14878,42.72122],[1.14412,42.72238],[1.13327,42.72807],[1.13289,42.73148],[1.13507,42.73556],[1.13388,42.73757],[1.13059,42.73947],[1.13127,42.74263],[1.12969,42.74564],[1.1327,42.75029],[1.13047,42.75158],[1.12808,42.75538],[1.12164,42.75949],[1.11962,42.76303],[1.1093,42.7657],[1.10914,42.77079],[1.10698,42.77229],[1.0957,42.77419],[1.08645,42.77846],[1.08603,42.78047],[1.08296,42.78341],[1.08307,42.78495],[1.07908,42.78828],[1.0775,42.78835],[1.07335,42.78236],[1.05854,42.78296],[1.0468,42.78076],[1.0431,42.78224],[1.0442,42.78509],[1.04167,42.78614],[1.0334,42.7869],[1.03265,42.78527],[1.03106,42.78494],[1.02908,42.78612],[1.01714,42.78706],[1.01461,42.78838],[1.01194,42.7879],[1.00559,42.7908],[0.99648,42.78745],[0.98649,42.78652],[0.98311,42.78707],[0.97834,42.78994],[0.97677,42.79158],[0.9784,42.79249],[0.97807,42.79362],[0.97618,42.79593],[0.96799,42.79885],[0.9667,42.80203],[0.96013,42.80574],[0.95847,42.80386],[0.94747,42.80134],[0.94623,42.79912],[0.93792,42.79605],[0.93366,42.78979],[0.93077,42.78867],[0.92612,42.7891],[0.92079,42.79188],[0.92008,42.79326],[0.91708,42.79395],[0.91543,42.79626],[0.90844,42.79658],[0.90696,42.79763],[0.9064,42.80078],[0.89966,42.80398],[0.89715,42.807],[0.89192,42.80834],[0.88507,42.8133],[0.87729,42.81422],[0.86965,42.81655],[0.86141,42.821],[0.85835,42.82374],[0.85831,42.82572],[0.84355,42.82926],[0.8372,42.82796],[0.8331,42.82845],[0.82322,42.832],[0.82077,42.83471],[0.81796,42.83467],[0.81613,42.83681],[0.8021,42.84036],[0.79572,42.84004],[0.78906,42.83617],[0.77639,42.83654],[0.76276,42.8403],[0.76174,42.84241],[0.75007,42.84647],[0.73611,42.84879],[0.73506,42.85431],[0.73106,42.85494],[0.72839,42.85692],[0.71796,42.85753],[0.70838,42.8614],[0.69986,42.85732],[0.69099,42.85498],[0.67789,42.85511],[0.67937,42.85031],[0.67859,42.84795],[0.66406,42.84207],[0.65901,42.83853],[0.65871,42.83672],[0.66193,42.82871],[0.66986,42.82438],[0.67025,42.82177],[0.66701,42.81893],[0.66469,42.81431],[0.67057,42.80543],[0.66969,42.80209],[0.66251,42.79852],[0.66001,42.79839],[0.6543,42.79246],[0.65241,42.7877],[0.64539,42.78354],[0.65086,42.7781],[0.66681,42.7754],[0.66423,42.77167],[0.66124,42.76961],[0.65132,42.76576],[0.65013,42.76452],[0.65121,42.7627],[0.64895,42.75862],[0.64616,42.7561],[0.64198,42.75468],[0.64744,42.75166],[0.65994,42.75243],[0.66294,42.7501],[0.66384,42.74798],[0.66269,42.74532],[0.66337,42.74298],[0.6669,42.74147],[0.66677,42.73709],[0.66958,42.73453],[0.67067,42.73072],[0.67704,42.72806],[0.68003,42.72347],[0.67383,42.71802],[0.67387,42.71658],[0.67683,42.71303],[0.68226,42.70897],[0.6804,42.70521],[0.67565,42.70293],[0.67377,42.69984],[0.67422,42.69517],[0.676,42.69438],[0.67647,42.69101],[0.66838,42.68945],[0.66456,42.69111],[0.65833,42.69106],[0.64837,42.69388],[0.6379,42.69304],[0.62806,42.69569],[0.61701,42.69619],[0.61587,42.69739],[0.60562,42.69939],[0.59732,42.70584],[0.59388,42.70429],[0.59313,42.7009],[0.59105,42.69907],[0.58916,42.69495],[0.58497,42.69597],[0.5765,42.69551],[0.57318,42.69686],[0.56933,42.6967],[0.56507,42.69862],[0.5454,42.70141],[0.53549,42.69977],[0.52961,42.70268],[0.52637,42.70258],[0.52643,42.70102],[0.52079,42.69755],[0.52104,42.69512],[0.51852,42.69188],[0.51658,42.69144],[0.49291,42.69308],[0.49188,42.69501],[0.48438,42.69856],[0.47775,42.69999],[0.47226,42.69994],[0.46797,42.69501],[0.46155,42.69342],[0.45608,42.69269],[0.45192,42.69456],[0.45014,42.69295],[0.43627,42.69002],[0.43237,42.69148],[0.42764,42.6904],[0.42275,42.69082],[0.42016,42.69366],[0.41676,42.69487],[0.40299,42.69606],[0.39532,42.69957],[0.39579,42.70197],[0.39327,42.70652],[0.39382,42.71021],[0.39263,42.71312],[0.38558,42.71174],[0.37972,42.71412],[0.37575,42.71422],[0.37208,42.71619],[0.37051,42.71935],[0.3601,42.72429],[0.3578,42.71989],[0.35004,42.71616],[0.34544,42.71098],[0.33893,42.71033],[0.33421,42.70782],[0.32507,42.70517],[0.32462,42.7003],[0.32625,42.69732],[0.32158,42.69098],[0.32347,42.68714],[0.32149,42.68408],[0.31586,42.68453],[0.31286,42.68348],[0.31194,42.68158],[0.3011,42.6776],[0.29514,42.67316],[0.28417,42.68012],[0.27629,42.68772],[0.27018,42.69129],[0.26346,42.69324],[0.26812,42.69985],[0.26753,42.70281],[0.26579,42.70382],[0.26057,42.71165],[0.25988,42.71581],[0.24929,42.71854],[0.23626,42.7174],[0.2336,42.7188],[0.22773,42.71868],[0.22649,42.71726],[0.21676,42.72154],[0.20599,42.7293],[0.19459,42.73246],[0.19093,42.73206],[0.18403,42.73559],[0.17573,42.737],[0.17407,42.73408],[0.16623,42.72957],[0.1635,42.72923],[0.16207,42.72773],[0.16201,42.723],[0.15884,42.72308],[0.15621,42.72455],[0.15152,42.72451],[0.14098,42.72182],[0.13657,42.72233],[0.13325,42.71614],[0.12875,42.71407],[0.11988,42.71316],[0.11605,42.71084],[0.10593,42.71054],[0.09042,42.71713],[0.07836,42.7149],[0.07237,42.70987],[0.07071,42.70394],[0.05855,42.69766],[0.05207,42.6978],[0.04823,42.69587],[0.02459,42.70246],[0.01445,42.70165],[0.01546,42.69605],[0.01367,42.69336],[0.00911,42.68998],[0.00477,42.68858],[0.00189,42.68582],[-0.01064,42.68439],[-0.01658,42.68489],[-0.02166,42.68708],[-0.02699,42.68768],[-0.032,42.69055],[-0.04227,42.69133],[-0.04947,42.69419],[-0.0542,42.6921],[-0.05672,42.69215],[-0.06334,42.69623],[-0.06461,42.70057],[-0.06383,42.70257],[-0.06599,42.70778],[-0.064,42.71009],[-0.06884,42.7179],[-0.07361,42.71807],[-0.07856,42.71648],[-0.08349,42.71795],[-0.08778,42.72114],[-0.09605,42.72047],[-0.09807,42.72205],[-0.1068,42.7205],[-0.1117,42.72674],[-0.10861,42.72907],[-0.10799,42.73204],[-0.10932,42.73449],[-0.11759,42.73832],[-0.11728,42.74246],[-0.1231,42.74913],[-0.12291,42.75162],[-0.12718,42.75323],[-0.12982,42.75803],[-0.13632,42.76168],[-0.13596,42.76349],[-0.13843,42.76694],[-0.14994,42.76921],[-0.1498,42.77299],[-0.14757,42.77386],[-0.1471,42.77562],[-0.14795,42.77718],[-0.15421,42.78077],[-0.15608,42.78596],[-0.15458,42.79275],[-0.16087,42.79832],[-0.16515,42.79539],[-0.16759,42.79101],[-0.17566,42.78646],[-0.17849,42.78536],[-0.18408,42.78753],[-0.18942,42.7866],[-0.18908,42.78999],[-0.19597,42.79275],[-0.1976,42.7952],[-0.20896,42.79773],[-0.2139,42.79604],[-0.21737,42.79853],[-0.21804,42.80131],[-0.21994,42.80275],[-0.22409,42.80103],[-0.22798,42.80486],[-0.23915,42.80888],[-0.23928,42.81333],[-0.23773,42.81427],[-0.23886,42.81811],[-0.24264,42.82041],[-0.24222,42.82232],[-0.24336,42.82314],[-0.24542,42.82265],[-0.24557,42.82044],[-0.25597,42.81907],[-0.2612,42.82259],[-0.26202,42.82452],[-0.26372,42.8243],[-0.27474,42.82849],[-0.27668,42.83547],[-0.28325,42.83758],[-0.29713,42.83869],[-0.30156,42.83984],[-0.30257,42.84121],[-0.30636,42.84121],[-0.31344,42.84938],[-0.30997,42.85513],[-0.31112,42.86181],[-0.30913,42.86704],[-0.30705,42.86818],[-0.30707,42.86997],[-0.30904,42.87451],[-0.31587,42.88223],[-0.31507,42.88347],[-0.31717,42.88676],[-0.31544,42.889],[-0.31625,42.89659],[-0.32064,42.89883],[-0.32032,42.90004],[-0.32529,42.90439],[-0.32406,42.90698],[-0.32717,42.9165],[-0.32075,42.91805],[-0.31508,42.91756],[-0.31075,42.919],[-0.308,42.92646],[-0.30344,42.92729],[-0.29778,42.93097],[-0.29003,42.92909],[-0.28656,42.92939],[-0.28159,42.93356],[-0.27914,42.93921],[-0.28205,42.94823],[-0.28191,42.95094],[-0.28374,42.95621],[-0.28603,42.95678],[-0.29073,42.9605],[-0.2902,42.96226],[-0.28869,42.96275],[-0.28841,42.96605],[-0.28727,42.96703],[-0.29124,42.97652],[-0.28984,42.97921],[-0.29048,42.98424],[-0.29241,42.98748],[-0.29131,42.9894],[-0.29324,42.99273],[-0.28949,42.99672],[-0.28724,43.00592],[-0.27596,43.00588],[-0.27078,43.00811],[-0.26662,43.00856],[-0.25967,43.01368],[-0.25912,43.0195],[-0.25607,43.02273],[-0.25536,43.02625],[-0.25653,43.0278],[-0.25617,43.0293],[-0.25855,43.03203],[-0.2611,43.03278],[-0.26007,43.03466],[-0.26062,43.03595],[-0.25818,43.03816],[-0.25266,43.03938],[-0.23942,43.03968],[-0.23011,43.03736],[-0.22395,43.03369],[-0.21424,43.03638],[-0.20949,43.04167],[-0.20011,43.0427],[-0.19619,43.04751],[-0.18965,43.05202],[-0.18156,43.05254],[-0.18556,43.05661],[-0.19232,43.05687],[-0.1962,43.05969],[-0.19915,43.06441],[-0.19922,43.06779],[-0.19614,43.07444],[-0.19264,43.076],[-0.1891,43.08239],[-0.18644,43.08427],[-0.18807,43.08776],[-0.18672,43.09187],[-0.19508,43.09481],[-0.19768,43.09817],[-0.19795,43.10187],[-0.19511,43.1044],[-0.19161,43.10561],[-0.19098,43.1112],[-0.19384,43.11502],[-0.1847,43.11401],[-0.18341,43.1122],[-0.17501,43.11012],[-0.17394,43.11235],[-0.1691,43.11425],[-0.17094,43.117],[-0.17038,43.1186],[-0.16635,43.12188],[-0.1574,43.12253],[-0.15577,43.12325],[-0.15511,43.12515],[-0.148,43.12887],[-0.14613,43.12824],[-0.14104,43.13587],[-0.14288,43.1432],[-0.13828,43.14371],[-0.13931,43.14616],[-0.1386,43.14911],[-0.13206,43.15362],[-0.12929,43.15724],[-0.12625,43.15766],[-0.12688,43.1654],[-0.12526,43.16643],[-0.12041,43.17578],[-0.1186,43.17674],[-0.1177,43.18033],[-0.11133,43.17934],[-0.1064,43.17174],[-0.10595,43.16653],[-0.09753,43.16662],[-0.09549,43.17719],[-0.09125,43.17733],[-0.08844,43.17623],[-0.06787,43.17712],[-0.06846,43.18277],[-0.0716,43.19222],[-0.06867,43.19713],[-0.0712,43.20686],[-0.07287,43.20821],[-0.0716,43.21982],[-0.07397,43.22238],[-0.07253,43.22439],[-0.0623,43.22248],[-0.04946,43.21718],[-0.04468,43.22737],[-0.04582,43.23261],[-0.03688,43.24342],[-0.03505,43.24387],[-0.03542,43.24526],[-0.03418,43.24664],[-0.03156,43.24759],[-0.0243,43.25396],[-0.02356,43.25541],[-0.02563,43.26099],[-0.01701,43.27045],[-0.0177,43.27458],[-0.02321,43.27456],[-0.02708,43.27591],[-0.02397,43.28021],[-0.03476,43.28165],[-0.04439,43.28528],[-0.04327,43.2866],[-0.04612,43.30086],[-0.04392,43.30446],[-0.04077,43.30426],[-0.03775,43.30585],[-0.03626,43.30869],[-0.03266,43.3111],[-0.0292,43.31585],[-0.02882,43.32023],[-0.02537,43.32962],[-0.0215,43.32872],[-0.0181,43.33153],[-0.00325,43.33211],[0.00135,43.33077],[0.007,43.32683],[0.00686,43.32574],[0.01032,43.32532],[0.01724,43.33334],[0.02418,43.33862],[0.0295,43.34615],[0.02602,43.34865],[0.02123,43.34968],[0.01476,43.35576],[0.01215,43.36008],[0.00838,43.3613],[0.00564,43.36358],[0.0084,43.36702],[0.00823,43.36846],[0.00494,43.37176],[0.00154,43.36894],[-0.00578,43.37302],[-0.00408,43.37878],[0.00102,43.3837],[0.00088,43.38551],[-0.0019,43.38729],[0.00495,43.39378],[0.00123,43.39577],[-0.00429,43.39337],[-0.00443,43.39512],[-0.0004,43.39633],[-0.00381,43.39805],[-0.00187,43.39922],[-0.00119,43.40571],[0.00666,43.41345],[0.00657,43.41709],[0.00966,43.4222],[-0.00479,43.43162],[-0.00084,43.43972],[-0.00075,43.44194],[-0.00248,43.44508],[-0.01285,43.44311],[-0.01653,43.44395],[-0.01727,43.44109],[-0.02204,43.43649],[-0.02223,43.43334],[-0.02481,43.43003],[-0.03218,43.43371],[-0.0337,43.43269],[-0.03459,43.42906],[-0.03307,43.42815],[-0.03593,43.42369],[-0.03586,43.42202],[-0.0388,43.41979],[-0.03772,43.4191],[-0.03933,43.41758],[-0.03849,43.41652],[-0.03936,43.41527],[-0.04165,43.41533],[-0.04288,43.41368],[-0.04298,43.4102],[-0.04649,43.40977],[-0.05288,43.41202],[-0.05708,43.41189],[-0.0647,43.40934],[-0.06727,43.41042],[-0.06231,43.4178],[-0.05078,43.41959],[-0.05358,43.42304],[-0.05658,43.42419],[-0.05815,43.42794],[-0.0696,43.43297],[-0.07074,43.43528],[-0.06618,43.44042],[-0.06682,43.44383],[-0.06167,43.45245],[-0.06148,43.45408],[-0.06638,43.46068],[-0.06575,43.46348],[-0.06303,43.46346],[-0.06131,43.46214],[-0.05839,43.46467],[-0.04532,43.4655],[-0.04243,43.46443],[-0.0304,43.46674],[-0.02633,43.46684],[-0.02603,43.46599],[-0.01909,43.46505],[-0.01891,43.47005],[-0.01782,43.47215],[-0.02634,43.47341],[-0.02639,43.47485],[-0.029,43.4733],[-0.03472,43.47494],[-0.03352,43.47993],[-0.03491,43.48854],[-0.04399,43.48961],[-0.04957,43.49192],[-0.04409,43.50658],[-0.04013,43.51261],[-0.04385,43.51577],[-0.04457,43.51864],[-0.04347,43.52033],[-0.04465,43.5253],[-0.04796,43.5259],[-0.04923,43.52975],[-0.05232,43.52973],[-0.0543,43.53297],[-0.05598,43.5329],[-0.06068,43.54212],[-0.06572,43.54134],[-0.06393,43.54295],[-0.06437,43.54627],[-0.06599,43.54813],[-0.06844,43.54708],[-0.08062,43.54688],[-0.08182,43.54464],[-0.08867,43.54205],[-0.09411,43.54393],[-0.09497,43.54814],[-0.08894,43.5572],[-0.09003,43.56072],[-0.09356,43.56371],[-0.09119,43.56811],[-0.09136,43.57041],[-0.09415,43.57211],[-0.09601,43.57522],[-0.09472,43.57695],[-0.09605,43.57792],[-0.09678,43.58241],[-0.10835,43.58176],[-0.11065,43.58346],[-0.12163,43.58678],[-0.12146,43.58422],[-0.12309,43.58481],[-0.12822,43.58313],[-0.12891,43.58122],[-0.13233,43.58192],[-0.13819,43.57989],[-0.13935,43.5828],[-0.1481,43.58579],[-0.15622,43.58449],[-0.15782,43.58145],[-0.16045,43.58057],[-0.16456,43.58274],[-0.16645,43.5862],[-0.1699,43.58887],[-0.17005,43.59081],[-0.17491,43.59424],[-0.17656,43.59683],[-0.17877,43.59637],[-0.18202,43.59279],[-0.18687,43.59015],[-0.18995,43.58983],[-0.19056,43.58783],[-0.19861,43.58652],[-0.20474,43.5836],[-0.20842,43.59135],[-0.21061,43.59324],[-0.21837,43.59089],[-0.22937,43.59007],[-0.23307,43.58863],[-0.23327,43.58448],[-0.23503,43.58335],[-0.23821,43.58266],[-0.24233,43.58342],[-0.24369,43.58883],[-0.24752,43.59019],[-0.24817,43.59666],[-0.25465,43.59708],[-0.25475,43.59929],[-0.24759,43.60693],[-0.24869,43.61006],[-0.2472,43.61595],[-0.25531,43.61546],[-0.26138,43.61671],[-0.26987,43.61674],[-0.27764,43.61589],[-0.2796,43.61818],[-0.28102,43.62687],[-0.27933,43.62886],[-0.28104,43.63046],[-0.28131,43.64295],[-0.27382,43.63917],[-0.26376,43.63592],[-0.26322,43.64652],[-0.26103,43.64901],[-0.26426,43.65163],[-0.26338,43.65278],[-0.26075,43.65366],[-0.25635,43.65231],[-0.24787,43.65547],[-0.24214,43.65506],[-0.243,43.65783],[-0.24423,43.6574],[-0.24552,43.65868],[-0.24346,43.65953],[-0.24466,43.66455],[-0.23973,43.67124],[-0.24576,43.67119],[-0.25802,43.67375],[-0.25599,43.6755],[-0.25682,43.68319],[-0.25201,43.68379],[-0.24824,43.68568],[-0.24819,43.68869],[-0.24685,43.68931],[-0.24461,43.68775],[-0.24277,43.69116],[-0.23942,43.69282],[-0.2391,43.69395],[-0.24124,43.69719],[-0.24504,43.69926],[-0.24351,43.70142],[-0.2454,43.70326],[-0.24504,43.70502],[-0.25063,43.70779],[-0.24665,43.71067],[-0.2446,43.71052],[-0.24325,43.71222],[-0.24036,43.7117],[-0.23451,43.71409],[-0.22945,43.7147],[-0.21411,43.72369],[-0.21085,43.72426],[-0.20227,43.72972],[-0.20241,43.73291],[-0.20091,43.7343],[-0.19414,43.73702],[-0.19595,43.74022],[-0.19556,43.74576],[-0.19732,43.74766],[-0.20549,43.74995],[-0.21886,43.75033],[-0.21927,43.75248],[-0.2181,43.75417],[-0.21216,43.75625],[-0.2075,43.75608],[-0.2067,43.75921],[-0.20707,43.76046],[-0.21053,43.76164],[-0.2124,43.7688],[-0.2166,43.77002],[-0.2173,43.77149],[-0.21322,43.7763],[-0.21281,43.77879],[-0.21476,43.7805],[-0.21486,43.78307],[-0.22196,43.78759],[-0.22228,43.78933],[-0.2178,43.79817],[-0.22434,43.80118],[-0.22474,43.80324],[-0.22685,43.80472],[-0.22714,43.80827],[-0.21751,43.80993],[-0.216,43.81254],[-0.2138,43.81181],[-0.21263,43.80928],[-0.20246,43.80864],[-0.20082,43.80671],[-0.19449,43.80846],[-0.19458,43.81018],[-0.19177,43.8101],[-0.19365,43.81623],[-0.19202,43.8177],[-0.19639,43.82076],[-0.19812,43.82937],[-0.19726,43.83079],[-0.18948,43.83065],[-0.18813,43.83256],[-0.19102,43.83484],[-0.19597,43.84595],[-0.19965,43.8478],[-0.20178,43.85211],[-0.2073,43.85469],[-0.20891,43.85767],[-0.19856,43.86242],[-0.19572,43.86531],[-0.19601,43.86653],[-0.19847,43.8676],[-0.19641,43.87162],[-0.19216,43.87049],[-0.18941,43.8627],[-0.18726,43.86185],[-0.18556,43.86301],[-0.18676,43.86623],[-0.18572,43.86689],[-0.18629,43.86885],[-0.18852,43.86992],[-0.18932,43.87396],[-0.19197,43.87669],[-0.19049,43.88075],[-0.19519,43.88115],[-0.19554,43.88274],[-0.20128,43.88421],[-0.20123,43.88547],[-0.21128,43.88527],[-0.21131,43.88724],[-0.21891,43.89055],[-0.21886,43.89195],[-0.22231,43.89417],[-0.22246,43.89266],[-0.22556,43.89021],[-0.23394,43.89107],[-0.23848,43.8938],[-0.23856,43.89479],[-0.23465,43.89553],[-0.23906,43.89723],[-0.23934,43.89828],[-0.23337,43.89914],[-0.23337,43.90265],[-0.23115,43.90288],[-0.2311,43.9076],[-0.2298,43.90773],[-0.22834,43.91145],[-0.22539,43.91214],[-0.22458,43.91384],[-0.22148,43.91255],[-0.22026,43.90726],[-0.21774,43.90679],[-0.20967,43.91173],[-0.20557,43.91201],[-0.20009,43.91483],[-0.19781,43.91996],[-0.19205,43.92347],[-0.19203,43.92618],[-0.18107,43.93042],[-0.1809,43.93477],[-0.17911,43.93792],[-0.17597,43.93647],[-0.17225,43.93299],[-0.17209,43.93167],[-0.16562,43.92761],[-0.1598,43.92771],[-0.16066,43.93119],[-0.15392,43.93233],[-0.15347,43.93981],[-0.1464,43.93946],[-0.13582,43.93607],[-0.13468,43.93774],[-0.12661,43.94085],[-0.12736,43.94232],[-0.12468,43.94435],[-0.12031,43.94152],[-0.11547,43.93637],[-0.1077,43.93261],[-0.10859,43.93129],[-0.10818,43.92914],[-0.10256,43.92728],[-0.09524,43.92946],[-0.09389,43.933],[-0.09937,43.93485],[-0.09925,43.93622],[-0.0977,43.94261],[-0.09442,43.94528],[-0.09336,43.9485],[-0.08899,43.94899],[-0.08114,43.94258],[-0.07735,43.94461],[-0.07025,43.94494],[-0.06908,43.95104],[-0.06326,43.9554],[-0.06222,43.9584],[-0.05936,43.96094],[-0.04692,43.96082],[-0.04401,43.96283],[-0.0436,43.96571],[-0.04057,43.96947],[-0.03617,43.98374],[-0.01868,43.97069],[0.00145,43.95989],[0.00549,43.95664],[0.00673,43.95374],[0.00551,43.9435],[0.00186,43.94292],[-0.00314,43.94016],[-0.00773,43.93958],[-0.00968,43.93842],[-0.01123,43.93508],[-0.01536,43.93415],[-0.02026,43.93002],[-0.0239,43.92984],[-0.01863,43.92854],[-0.01813,43.92666],[-0.01472,43.92416],[-0.00606,43.92389],[0.00401,43.91676],[0.01766,43.91169],[0.01722,43.91032],[0.0225,43.90868],[0.03079,43.90056],[0.03449,43.89996],[0.03749,43.90304],[0.04063,43.90378],[0.05902,43.89681],[0.05955,43.89943],[0.06183,43.90164],[0.06926,43.90436],[0.0698,43.90985],[0.07221,43.91013],[0.07248,43.91436],[0.07657,43.91521],[0.07665,43.91647],[0.07448,43.91769],[0.07255,43.92089],[0.07277,43.92819],[0.06855,43.93891],[0.06236,43.94127],[0.06335,43.94357],[0.06039,43.94744],[0.06064,43.94893],[0.05853,43.95006],[0.05683,43.94926],[0.05567,43.95333],[0.05644,43.95466],[0.05497,43.95696],[0.05555,43.96144],[0.05941,43.96137],[0.06114,43.96257],[0.06102,43.96523],[0.06633,43.96472],[0.06762,43.96708],[0.06595,43.96971],[0.06711,43.9736],[0.07493,43.97961],[0.0725,43.98095],[0.07381,43.98242],[0.07605,43.98314],[0.07628,43.98202],[0.07974,43.98118],[0.08873,43.9856],[0.09457,43.98598],[0.10511,43.98457],[0.11432,43.98813],[0.11682,43.98804],[0.11875,43.99009],[0.11758,43.99134],[0.12004,43.9954],[0.12642,43.9965],[0.12808,43.99893],[0.1264,44.00034],[0.12679,44.00191],[0.13861,43.99755],[0.14166,43.99424],[0.13794,43.97688],[0.13864,43.97477],[0.14312,43.97531],[0.15754,43.97284],[0.16103,43.97435],[0.16098,43.9757],[0.16348,43.97593],[0.16591,43.98088],[0.1664,43.98423],[0.16471,43.99499],[0.17662,44.00175],[0.18035,44.00055],[0.1835,44.00836],[0.18958,44.01464],[0.1946,44.01353],[0.19788,44.01606],[0.20281,44.01265],[0.20489,44.01539],[0.2038,44.01594],[0.2041,44.01829],[0.20587,44.02102],[0.21135,44.0196],[0.21404,44.02299],[0.22471,44.01917],[0.23138,44.0228],[0.23399,44.0216],[0.23506,44.01784],[0.22968,44.01112],[0.23338,44.00889],[0.2427,44.00613],[0.24499,44.00641],[0.25344,44.0025],[0.25606,44.008],[0.25724,44.00784],[0.26311,44.00426],[0.26808,44.00286],[0.27004,44.00357],[0.27347,43.99882],[0.28053,43.99853],[0.30285,43.99098],[0.30374,43.99265],[0.30906,43.99549],[0.31224,43.9937],[0.31353,43.99422],[0.31342,43.99575],[0.3177,43.99461],[0.3195,43.9986],[0.31584,44.00313],[0.31613,44.00408],[0.31421,44.00531],[0.31463,44.00783],[0.31372,44.00867],[0.31653,44.01012],[0.32079,44.00821],[0.32706,44.00734],[0.34433,44.01282],[0.35092,44.01356],[0.35432,44.01263],[0.35335,44.01536],[0.3581,44.01701],[0.36491,44.01515],[0.36794,44.01003],[0.37137,44.00816],[0.38152,44.00638],[0.39117,44.01686],[0.39108,44.01982],[0.39725,44.0199],[0.39687,44.02231],[0.40231,44.0228],[0.41119,44.02068],[0.41454,44.02752],[0.41722,44.0295],[0.425,44.02613],[0.43313,44.02928],[0.44245,44.02876],[0.44365,44.03074],[0.44236,44.0336],[0.44387,44.0349],[0.44504,44.03943],[0.45015,44.04361],[0.45125,44.04682],[0.45344,44.04787],[0.45696,44.0526],[0.45822,44.05229],[0.45952,44.05524],[0.4758,44.05515],[0.48406,44.05272],[0.4856,44.05364],[0.48522,44.05791],[0.48975,44.05646],[0.49565,44.05776],[0.50233,44.05751],[0.50409,44.05335],[0.50369,44.05159],[0.50594,44.05185],[0.50605,44.05613],[0.51214,44.0633],[0.52108,44.05718],[0.52676,44.05673],[0.53055,44.0576],[0.53843,44.05295],[0.54231,44.05621],[0.5515,44.05596],[0.55547,44.05475],[0.55831,44.05813],[0.56692,44.06033],[0.57501,44.07139],[0.57839,44.07319],[0.57588,44.07591],[0.5826,44.07641],[0.5857,44.07525],[0.58591,44.07702],[0.5907,44.07686],[0.59376,44.07929],[0.60122,44.07801],[0.59921,44.07487],[0.60512,44.07294],[0.60743,44.07095],[0.60735,44.06955],[0.61191,44.06921],[0.62031,44.06596],[0.62789,44.06063],[0.63134,44.05569],[0.63069,44.05158],[0.63165,44.0495],[0.63857,44.04977],[0.63773,44.04854],[0.6436,44.04389],[0.64927,44.04457],[0.65408,44.04243],[0.65491,44.04167],[0.6534,44.03724],[0.65559,44.03691],[0.654,44.03365],[0.65234,44.03312],[0.65718,44.02965],[0.6604,44.02542],[0.66264,44.02411],[0.67074,44.02678],[0.67709,44.02697],[0.67959,44.02935],[0.67936,44.03695],[0.68567,44.04617],[0.69328,44.04624],[0.69526,44.04437],[0.69673,44.04534],[0.70039,44.05287],[0.70752,44.05702],[0.70792,44.05829],[0.71638,44.05737],[0.73154,44.06223],[0.73868,44.06102],[0.73992,44.06405],[0.74188,44.0652],[0.73971,44.06662],[0.73789,44.06982],[0.73904,44.07333],[0.73836,44.07542],[0.73979,44.07814],[0.74412,44.08185],[0.74377,44.08306],[0.74533,44.08538],[0.7483,44.08677],[0.74743,44.09616],[0.74887,44.0978],[0.75371,44.09945],[0.75283,44.10182],[0.75337,44.1047],[0.75683,44.1074],[0.76385,44.10869],[0.76603,44.11112],[0.76764,44.1108],[0.77206,44.11292],[0.77189,44.11383],[0.77569,44.11582],[0.77864,44.11315],[0.78623,44.11191],[0.78873,44.11416],[0.79889,44.11064],[0.79882,44.11316],[0.79299,44.11871],[0.7954,44.12184],[0.79594,44.12546],[0.79505,44.12859],[0.79757,44.13038],[0.79235,44.13837],[0.78773,44.14276],[0.78857,44.14439],[0.7961,44.14562],[0.8011,44.14303],[0.80494,44.14498],[0.8189,44.14385],[0.83201,44.13719],[0.84902,44.13174],[0.85692,44.13048],[0.85781,44.12757],[0.85999,44.12814],[0.86697,44.12635],[0.86909,44.12652],[0.86905,44.1279],[0.87041,44.12846],[0.88094,44.12999],[0.87973,44.13051],[0.88011,44.13211],[0.88298,44.13329],[0.87798,44.13657],[0.88269,44.14207],[0.88698,44.13858],[0.89207,44.13733],[0.894,44.13789],[0.89422,44.14389],[0.88852,44.14684],[0.88836,44.15088],[0.89004,44.15342],[0.8851,44.15916],[0.88482,44.16082],[0.88872,44.16443],[0.88996,44.16742],[0.89027,44.17026],[0.88918,44.17199],[0.88663,44.17203],[0.88302,44.17547],[0.87471,44.16938],[0.87099,44.1679],[0.86493,44.17065],[0.86504,44.17354],[0.85363,44.17478],[0.85228,44.17648],[0.85332,44.17969],[0.85302,44.18391],[0.85633,44.18922],[0.86043,44.19103],[0.85969,44.19274],[0.86174,44.19339],[0.87632,44.193],[0.88734,44.19026],[0.89475,44.19107],[0.90597,44.19012],[0.90743,44.19501],[0.90518,44.19732],[0.90861,44.20015],[0.90949,44.20318],[0.91409,44.20671],[0.91803,44.21471],[0.92056,44.21618],[0.92404,44.22528],[0.92676,44.22927],[0.92924,44.23025],[0.9278,44.23266],[0.92888,44.23502],[0.9267,44.23418],[0.92431,44.23482],[0.91909,44.23827],[0.92483,44.24698],[0.92668,44.24813],[0.93263,44.24834],[0.93288,44.25059],[0.93178,44.25229],[0.93362,44.25686],[0.9293,44.2618],[0.92736,44.2621],[0.92778,44.26741],[0.93617,44.26566],[0.94029,44.26333],[0.94713,44.26805],[0.94679,44.26962],[0.95079,44.27506],[0.94988,44.27614],[0.94249,44.27471],[0.94213,44.27582],[0.94508,44.27757],[0.94257,44.27802],[0.94038,44.28213],[0.93544,44.28284],[0.93392,44.28543],[0.92582,44.28647],[0.92611,44.28809],[0.92343,44.28977],[0.92344,44.29211],[0.91982,44.29666],[0.91943,44.29962],[0.91643,44.3022],[0.90528,44.29922],[0.90069,44.29992],[0.89689,44.29917],[0.89412,44.29693],[0.88961,44.29956],[0.88472,44.30756],[0.87478,44.30833],[0.87257,44.3092],[0.87204,44.31064],[0.86917,44.30989],[0.87167,44.31235],[0.87124,44.31455],[0.87337,44.31538],[0.87531,44.31995],[0.87327,44.32357],[0.87908,44.32721],[0.88333,44.32838],[0.88135,44.32971],[0.88265,44.33049],[0.88248,44.33184],[0.88924,44.33223],[0.88758,44.33357],[0.88734,44.33631],[0.88846,44.33866],[0.89153,44.33888],[0.89611,44.34623],[0.89286,44.34835],[0.89108,44.35192],[0.89097,44.35354],[0.89369,44.35348],[0.89357,44.35804],[0.89258,44.35987],[0.88916,44.36153],[0.8872,44.36462],[0.88733,44.36637],[0.89499,44.3743],[0.89512,44.37903],[0.89638,44.38184],[0.90463,44.38064],[0.90448,44.38171],[0.91985,44.38442],[0.92313,44.37853],[0.92686,44.37506],[0.93324,44.37279],[0.93714,44.36943],[0.93986,44.35051],[0.94238,44.3446],[0.94576,44.34783],[0.94519,44.3503],[0.9418,44.35319],[0.94603,44.35455],[0.94892,44.35768],[0.95141,44.35781],[0.95,44.35932],[0.95151,44.36158],[0.9547,44.35942],[0.95669,44.36075],[0.95924,44.35875],[0.96456,44.36134],[0.97517,44.36152],[0.97515,44.35798],[0.9773,44.35618],[0.97969,44.35841],[0.98182,44.35844],[0.99069,44.36322],[0.99671,44.36914],[1.00456,44.36559],[1.0138,44.36507],[1.01929,44.36333],[1.02821,44.36424],[1.0493,44.36236],[1.05246,44.36456],[1.06065,44.3656],[1.05904,44.36683],[1.05932,44.37096],[1.06067,44.37145],[1.05972,44.37653],[1.06353,44.37742],[1.06408,44.37851],[1.06448,44.38054],[1.06133,44.38635],[1.06035,44.39106],[1.05724,44.39],[1.05143,44.39209],[1.0545,44.39438],[1.05587,44.3983],[1.0583,44.39901],[1.06131,44.40188],[1.05993,44.40452],[1.06128,44.40899],[1.06016,44.41127],[1.06026,44.41285],[1.06187,44.4139],[1.06051,44.41532],[1.06067,44.41992],[1.05862,44.42169],[1.05749,44.42767],[1.05524,44.42742],[1.05394,44.4319],[1.04923,44.42933],[1.04528,44.43433],[1.04226,44.43497],[1.03421,44.43226],[1.0282,44.434],[1.03238,44.44133],[1.02425,44.44259],[1.02104,44.44535],[1.02177,44.44937],[1.02373,44.45146],[1.0213,44.45598],[1.02462,44.45971],[1.02267,44.46252],[1.02591,44.46701],[1.02336,44.4682],[1.02181,44.47056],[1.02401,44.47307],[1.02167,44.47335],[1.02301,44.47544],[1.00903,44.48004],[1.0142,44.4874],[1.01168,44.48862],[1.01251,44.48962],[1.01699,44.48905],[1.01768,44.4918],[1.01162,44.49565],[1.01651,44.49899],[1.01623,44.50587],[1.00695,44.51296],[1.00618,44.51922],[1.00339,44.52031],[0.99978,44.52688],[0.9927,44.52806],[0.98787,44.53304],[0.98932,44.5386],[0.9856,44.54193],[0.98231,44.54265],[0.98152,44.54444],[0.98654,44.54738],[0.99504,44.54973],[1.00013,44.54776],[1.00888,44.54711],[1.01023,44.54582],[1.01032,44.54176],[1.01297,44.53626],[1.01539,44.5376],[1.02196,44.54541],[1.02725,44.54817],[1.03094,44.5488],[1.02974,44.55198],[1.03613,44.55611],[1.04054,44.55666],[1.04312,44.55853],[1.04524,44.56237],[1.04758,44.56186],[1.05653,44.5647],[1.06376,44.56455],[1.0697,44.56611],[1.07381,44.57178],[1.07439,44.57728],[1.07709,44.5736],[1.07841,44.5748],[1.08769,44.57076],[1.10321,44.57173],[1.10348,44.57435],[1.09894,44.57993],[1.10347,44.58097],[1.10214,44.5841],[1.10253,44.58644],[1.09771,44.59054],[1.09382,44.59058],[1.09459,44.59234],[1.11066,44.60696],[1.11986,44.61021],[1.12465,44.6158],[1.13272,44.61926],[1.13851,44.62521],[1.14813,44.63247],[1.15089,44.63286],[1.15333,44.63774],[1.15333,44.64079],[1.15193,44.64119],[1.15272,44.64251],[1.15152,44.64308],[1.15191,44.6452],[1.14652,44.65284],[1.14867,44.6534],[1.14995,44.65517],[1.14938,44.66092],[1.14702,44.66553],[1.14673,44.6708],[1.14882,44.67028],[1.16069,44.67264],[1.16881,44.68002],[1.17215,44.68005],[1.17847,44.68264],[1.19412,44.68225],[1.19736,44.68382],[1.19799,44.68063],[1.20219,44.68292],[1.20696,44.6836],[1.21726,44.68262],[1.22455,44.68427],[1.22604,44.68864],[1.23008,44.69142],[1.2332,44.69074],[1.23544,44.69202],[1.24193,44.69288],[1.24101,44.69424],[1.24389,44.69565],[1.24449,44.69778],[1.24336,44.70375],[1.24871,44.70807],[1.25576,44.70945],[1.25936,44.70854],[1.26028,44.71021],[1.26342,44.71055],[1.26819,44.71618],[1.268,44.71897],[1.27078,44.72273],[1.2751,44.72155],[1.27476,44.71862],[1.27943,44.71583],[1.28778,44.71478],[1.28937,44.72065],[1.29856,44.72591],[1.30032,44.7337],[1.29554,44.73596],[1.29803,44.74138],[1.30053,44.74306],[1.30019,44.74428],[1.31605,44.74037],[1.31702,44.74947],[1.32021,44.75517],[1.32027,44.75855],[1.32282,44.76504],[1.31365,44.76509],[1.31433,44.76609],[1.31054,44.76979],[1.29846,44.77424],[1.29624,44.77781],[1.29977,44.78239],[1.30473,44.78454],[1.30354,44.7871],[1.30465,44.78909],[1.2975,44.78885],[1.29331,44.78984],[1.29847,44.79529],[1.29827,44.79619],[1.32551,44.80601],[1.3305,44.80705],[1.33887,44.80555],[1.3641,44.81157],[1.36338,44.81435],[1.36595,44.81518],[1.36587,44.81617],[1.36015,44.82517],[1.36099,44.83188],[1.35995,44.83425],[1.36086,44.83958],[1.36595,44.84579],[1.36866,44.84581],[1.37105,44.8474],[1.37283,44.84669],[1.37383,44.84351],[1.37714,44.84183],[1.3861,44.84743],[1.38488,44.84887],[1.38731,44.85104],[1.3929,44.84915],[1.39828,44.84893],[1.40249,44.85008],[1.40333,44.85405],[1.40512,44.85645],[1.40436,44.85733],[1.40538,44.86329],[1.41161,44.86591],[1.41264,44.86911],[1.41132,44.87229],[1.41818,44.8706],[1.42436,44.8725],[1.43109,44.87129],[1.43812,44.87382],[1.44192,44.87758],[1.44216,44.88302],[1.43986,44.88895],[1.43052,44.89134],[1.42597,44.89487],[1.42312,44.89539],[1.41797,44.90061],[1.42142,44.90626],[1.41798,44.90723],[1.41675,44.90901],[1.41265,44.90853],[1.41225,44.90979],[1.41372,44.91331],[1.41881,44.91578],[1.42121,44.91549],[1.42253,44.91626],[1.42306,44.9186],[1.42532,44.91997],[1.44235,44.91655],[1.44196,44.9209],[1.43842,44.92516],[1.43893,44.92871],[1.4364,44.92856],[1.43534,44.93143],[1.43728,44.93266],[1.43699,44.93536],[1.4331,44.93721],[1.43359,44.9383],[1.43561,44.93858],[1.4364,44.94062],[1.4347,44.94452],[1.43346,44.94604],[1.43075,44.94553],[1.42794,44.94658],[1.42565,44.95137],[1.42181,44.95401],[1.42178,44.95562],[1.41912,44.95596],[1.41952,44.95947],[1.41867,44.96068],[1.41663,44.96062],[1.41694,44.9622],[1.42102,44.96462],[1.42164,44.96858],[1.416,44.96956],[1.41259,44.97238],[1.41458,44.97779],[1.41747,44.98052],[1.41762,44.98295],[1.41179,44.98663],[1.41143,44.9896],[1.41324,44.99119],[1.41444,44.99489],[1.4133,44.99939],[1.40927,45.006],[1.42818,45.00922],[1.44438,45.01409],[1.44131,45.01533],[1.44826,45.01931],[1.45556,45.01528],[1.46199,45.0137],[1.4677,45.01703],[1.47689,45.01854],[1.47637,45.01958],[1.47847,45.02265],[1.4766,45.02506],[1.47732,45.02695],[1.48138,45.02725],[1.48254,45.03019],[1.48791,45.03248],[1.49176,45.0299],[1.49379,45.03343],[1.50664,45.03991],[1.51583,45.04145],[1.52061,45.03996],[1.5229,45.04308],[1.52659,45.04347],[1.52814,45.04537],[1.53386,45.04527],[1.53747,45.04669],[1.54006,45.04667],[1.54152,45.04167],[1.54092,45.03906],[1.54512,45.02888],[1.55204,45.02847],[1.55435,45.02931],[1.57005,45.03944],[1.57631,45.0407],[1.59346,45.03478],[1.60538,45.03531],[1.60772,45.03177],[1.61385,45.03329],[1.6187,45.03156],[1.62198,45.03217],[1.62327,45.03047],[1.62467,45.03093],[1.62596,45.03377],[1.62996,45.03357],[1.63546,45.02933],[1.64621,45.02849],[1.6478,45.02751],[1.64854,45.02382],[1.65189,45.02529],[1.65083,45.02236],[1.65263,45.02034],[1.65291,45.01814],[1.65444,45.01793],[1.65714,45.01497],[1.65956,45.01466],[1.65932,45.01354],[1.66498,45.01205],[1.66381,45.00884],[1.67021,45.00875],[1.67124,45.00763],[1.67011,45.00677],[1.67141,45.0043],[1.67319,45.00367],[1.67617,45.00423],[1.68437,45.00266],[1.68716,44.99638],[1.69324,44.99191],[1.70266,44.98783],[1.70264,44.98436],[1.70705,44.98079],[1.70702,44.97291],[1.71103,44.96729],[1.71432,44.96826],[1.72494,44.9681],[1.7315,44.96454],[1.73302,44.96477],[1.73242,44.96211],[1.7339,44.95943],[1.73667,44.96065],[1.74073,44.96058],[1.7508,44.95573],[1.75125,44.94732],[1.75589,44.94627],[1.75523,44.94289],[1.75235,44.94],[1.74888,44.93889],[1.74934,44.93758],[1.76068,44.93612],[1.76729,44.93368],[1.77493,44.92372],[1.78027,44.92874],[1.78632,44.93093],[1.78707,44.93224],[1.78482,44.93673],[1.7857,44.93691],[1.79087,44.93216],[1.7983,44.93032],[1.8024,44.92562],[1.80089,44.92421],[1.80129,44.92209],[1.80436,44.92571],[1.80815,44.92689],[1.80915,44.92825],[1.81149,44.92879],[1.81359,44.92719],[1.82391,44.92768],[1.82643,44.92927],[1.82924,44.93351],[1.83117,44.94549],[1.83687,44.94534],[1.83774,44.94088],[1.83644,44.93746],[1.84277,44.93708],[1.8451,44.93979],[1.84488,44.94307],[1.84741,44.94349],[1.85105,44.94625],[1.86321,44.94783],[1.8632,44.95022],[1.86861,44.95406],[1.8714,44.95331],[1.87892,44.95568],[1.88742,44.95657],[1.88582,44.95786],[1.88729,44.96272],[1.8895,44.96454],[1.89064,44.96418],[1.89899,44.96772],[1.89809,44.96942],[1.8992,44.97244],[1.90231,44.97326],[1.9028,44.9749],[1.90502,44.97471],[1.90866,44.97842],[1.91398,44.97898],[1.91658,44.97831],[1.91691,44.97701],[1.9213,44.97716],[1.92194,44.97613],[1.92883,44.97867],[1.93049,44.97683],[1.93226,44.97662],[1.93341,44.97455],[1.93673,44.97303],[1.93907,44.97322],[1.94165,44.96652],[1.94215,44.95923],[1.94216,44.95596],[1.94035,44.95478],[1.94028,44.95289],[1.94725,44.95355],[1.94916,44.95252],[1.95521,44.95658],[1.9564,44.95974],[1.9662,44.96193],[1.96892,44.96437],[1.9741,44.96664],[1.98166,44.97287],[1.99148,44.97591],[1.99358,44.97466],[2.00579,44.97806],[2.00827,44.97623],[2.01029,44.97754],[2.01706,44.97761],[2.01916,44.97963],[2.02367,44.97852],[2.02549,44.98037],[2.02885,44.98025],[2.03131,44.98201],[2.04031,44.98172],[2.04544,44.98367],[2.05256,44.97648],[2.05512,44.97581],[2.05929,44.97708],[2.05829,44.97568],[2.0588,44.97461],[2.06291,44.97651],[2.06761,44.97251],[2.06757,44.9691],[2.07064,44.96257],[2.07477,44.96011],[2.0758,44.95742],[2.0807,44.95329],[2.07857,44.9463],[2.08023,44.94388],[2.07601,44.94103],[2.0778,44.93393],[2.07901,44.9324],[2.08371,44.93214],[2.09476,44.92366],[2.09906,44.92241],[2.10224,44.91963],[2.10458,44.91977],[2.10212,44.91644],[2.10728,44.91028],[2.10501,44.90817],[2.1011,44.90703],[2.10117,44.90568],[2.09826,44.90473],[2.09217,44.90431],[2.0899,44.90304],[2.08591,44.90384],[2.087,44.89994],[2.08366,44.89534],[2.08529,44.88824],[2.08352,44.8871],[2.08434,44.88567],[2.08625,44.88531],[2.086,44.88418],[2.08968,44.88212],[2.09078,44.87569],[2.09249,44.87543],[2.09351,44.87237],[2.097,44.87112],[2.10181,44.86694],[2.10818,44.85823],[2.11658,44.85019],[2.11721,44.84826],[2.12278,44.84763],[2.12278,44.8466],[2.12809,44.84531],[2.12653,44.84184],[2.12767,44.84063],[2.12749,44.83793],[2.12902,44.83554],[2.13181,44.83438],[2.13531,44.827],[2.14044,44.8236],[2.14461,44.82369],[2.14664,44.82103],[2.15424,44.81655],[2.15874,44.81638],[2.16526,44.81356],[2.16772,44.81096],[2.1652,44.80789],[2.16478,44.80383],[2.16643,44.80105],[2.1653,44.79956],[2.16751,44.79808],[2.16751,44.79529],[2.17177,44.7898],[2.17146,44.78562],[2.16831,44.783],[2.16972,44.77748],[2.16599,44.77662],[2.16696,44.77314],[2.16556,44.77152],[2.16309,44.77103],[2.16165,44.77233],[2.15861,44.77255],[2.15748,44.77124],[2.15413,44.77196],[2.15288,44.76966],[2.15053,44.77002],[2.14846,44.76655],[2.15017,44.76466],[2.14746,44.76326],[2.1517,44.76022],[2.15221,44.75914],[2.1502,44.75873],[2.15083,44.75689],[2.15514,44.75176],[2.1561,44.74883],[2.15408,44.7487],[2.15194,44.74555],[2.15252,44.74393],[2.15479,44.74375],[2.15574,44.74245],[2.15057,44.74073],[2.15248,44.73569],[2.1499,44.73002],[2.15078,44.72822],[2.14796,44.72637],[2.14746,44.72357],[2.14905,44.72214],[2.14325,44.71678],[2.14036,44.71633],[2.13791,44.71443],[2.13773,44.71223],[2.13123,44.70885],[2.13131,44.70533],[2.13295,44.7038],[2.12995,44.69867],[2.13341,44.69763],[2.13367,44.69526],[2.13639,44.69526],[2.13828,44.6936],[2.14756,44.69501],[2.15303,44.70001],[2.1553,44.70024],[2.15953,44.69741],[2.16537,44.68747],[2.17302,44.68051],[2.17429,44.67737],[2.17915,44.67445],[2.17625,44.67251],[2.17193,44.66633],[2.16846,44.66426],[2.16575,44.66462],[2.16184,44.6634],[2.17007,44.6581],[2.17404,44.65365],[2.17449,44.65136],[2.16926,44.64788],[2.16873,44.63861],[2.17435,44.63462],[2.17655,44.63547],[2.17989,44.63471],[2.18634,44.6286],[2.19043,44.62916],[2.19219,44.62663],[2.19377,44.62802],[2.19459,44.6264],[2.19321,44.62496],[2.19757,44.62339],[2.1994,44.62228],[2.19953,44.62089],[2.20627,44.61778],[2.20552,44.61648],[2.20748,44.61553],[2.21068,44.61873],[2.21755,44.62198],[2.22057,44.62203],[2.22069,44.6232],[2.21615,44.62445],[2.21191,44.63129],[2.21096,44.63592],[2.21323,44.63741],[2.21127,44.63835],[2.21146,44.64033],[2.20841,44.64384],[2.21591,44.65069],[2.22504,44.65247],[2.22863,44.65511],[2.23415,44.65547],[2.24107,44.65302],[2.25089,44.65189],[2.25751,44.65531],[2.26027,44.65855],[2.26593,44.66109],[2.27395,44.66067],[2.28529,44.66676],[2.28739,44.66559],[2.29337,44.66708],[2.30458,44.66245],[2.30687,44.66267],[2.31116,44.66528],[2.31625,44.66529],[2.32679,44.66969],[2.33624,44.662],[2.33618,44.65975],[2.33788,44.6566],[2.33417,44.65435],[2.33448,44.6517],[2.33246,44.6504],[2.33296,44.64873],[2.34646,44.64382],[2.34911,44.64094],[2.35453,44.64013],[2.35698,44.64139],[2.3667,44.64121],[2.37009,44.64413],[2.37501,44.6457],[2.38005,44.65129],[2.38542,44.64926],[2.38894,44.6493],[2.38926,44.64822],[2.3873,44.64561],[2.38781,44.64426],[2.39071,44.64359],[2.39436,44.6461],[2.40135,44.64542],[2.40362,44.64727],[2.40685,44.6469],[2.41654,44.64254],[2.42481,44.6441],[2.42846,44.64298],[2.43022,44.64028],[2.435,44.63888],[2.44498,44.64418],[2.44486,44.64701],[2.44845,44.64868],[2.46804,44.64289],[2.46911,44.64393],[2.469,44.64964],[2.47096,44.65161],[2.47253,44.6522],[2.47883,44.649],[2.48319,44.65034],[2.48717,44.65655],[2.49128,44.65749],[2.48908,44.66204],[2.4877,44.66258],[2.48877,44.66487],[2.48751,44.66622],[2.48752,44.66842],[2.49409,44.67643],[2.49859,44.68434],[2.50012,44.69019],[2.50947,44.6935],[2.51105,44.69576],[2.51414,44.69309],[2.51971,44.70118],[2.51802,44.70415],[2.52376,44.70504],[2.53267,44.71098],[2.54019,44.71169],[2.54077,44.71352],[2.54891,44.71639],[2.54975,44.71944],[2.55549,44.72124],[2.55864,44.71984],[2.56042,44.72118],[2.55827,44.72272],[2.55796,44.72519],[2.56075,44.7273],[2.55735,44.72811],[2.5595,44.73149],[2.55514,44.72911],[2.55368,44.72525],[2.54453,44.72513],[2.54574,44.72791],[2.54952,44.72853],[2.55093,44.73128],[2.55213,44.73145],[2.55239,44.73339],[2.55572,44.73352],[2.55561,44.73487],[2.5507,44.73664],[2.5512,44.73821],[2.55329,44.73803],[2.55437,44.73991],[2.55166,44.74168],[2.55393,44.74266],[2.55489,44.74472],[2.54998,44.74838],[2.5537,44.74806],[2.55327,44.75094],[2.55057,44.75414],[2.55058,44.75608],[2.55284,44.75584],[2.55368,44.75742],[2.56126,44.75915],[2.55994,44.76235],[2.56305,44.76582],[2.56236,44.76708],[2.56484,44.77265],[2.5627,44.77473],[2.56284,44.77787],[2.56524,44.77819],[2.57355,44.78496],[2.57817,44.78599],[2.58282,44.78386],[2.58656,44.78399],[2.6,44.79305],[2.5995,44.79544],[2.60085,44.80096],[2.59909,44.80173],[2.60042,44.80344],[2.6,44.80618],[2.60196,44.80798],[2.60058,44.80993],[2.60097,44.81343],[2.59883,44.81388],[2.59853,44.81843],[2.59695,44.82028],[2.60127,44.82153],[2.60298,44.82368],[2.60747,44.82394],[2.60793,44.82597],[2.60989,44.82597],[2.61161,44.83068],[2.61137,44.83266],[2.60772,44.8374],[2.60361,44.83902],[2.60475,44.84005],[2.60267,44.84123],[2.60268,44.84317],[2.60458,44.84465],[2.60699,44.84446],[2.61018,44.84756],[2.61163,44.84769],[2.61538,44.85272],[2.61683,44.85078],[2.61854,44.85217],[2.61775,44.85667],[2.62079,44.85897],[2.62317,44.86647],[2.62577,44.86719],[2.63054,44.87284],[2.64008,44.87196],[2.64368,44.87001],[2.6478,44.87082],[2.64831,44.86991],[2.65425,44.86968],[2.65477,44.87206],[2.65749,44.87372],[2.65872,44.87664],[2.65932,44.88329],[2.65807,44.88352],[2.65796,44.88685],[2.66506,44.89012],[2.66634,44.89241],[2.67098,44.89585],[2.67621,44.90386],[2.68045,44.90416],[2.68048,44.90686],[2.68345,44.90707],[2.68344,44.90496],[2.68736,44.9058],[2.69031,44.90215],[2.69439,44.90483],[2.69427,44.90767],[2.69592,44.90771],[2.69507,44.90442],[2.69661,44.90379],[2.70047,44.90419],[2.70828,44.90834],[2.70753,44.91095],[2.71043,44.91675],[2.71226,44.9172],[2.71246,44.91836],[2.71107,44.91918],[2.71324,44.92165],[2.71345,44.92367],[2.71554,44.92398],[2.71359,44.92713],[2.71621,44.92906],[2.72111,44.92495],[2.72402,44.92458],[2.72404,44.92665],[2.72569,44.928],[2.72673,44.93106],[2.72662,44.93352],[2.72924,44.93693],[2.73348,44.93737],[2.73349,44.93831],[2.73692,44.93934],[2.73825,44.94122],[2.74053,44.93999],[2.74304,44.93657],[2.74315,44.93468],[2.74123,44.93276],[2.74178,44.92961],[2.74362,44.92928],[2.74593,44.93144],[2.75164,44.93393],[2.75524,44.93297],[2.76022,44.92994],[2.76095,44.92557],[2.77185,44.91802],[2.77609,44.90896],[2.77186,44.90227],[2.77209,44.89849],[2.77676,44.88863],[2.77859,44.8875],[2.77541,44.8848],[2.77424,44.88048],[2.77063,44.87984],[2.77116,44.87605],[2.76888,44.87482],[2.77062,44.8707],[2.76896,44.87057],[2.76741,44.86558],[2.77134,44.86024],[2.77027,44.85941],[2.77173,44.8563],[2.77385,44.85474],[2.77581,44.85775],[2.78073,44.85719],[2.78403,44.86276],[2.79046,44.86724],[2.79915,44.86946],[2.80196,44.87363],[2.80418,44.87439],[2.80797,44.87415],[2.8135,44.86939],[2.81616,44.86953],[2.81928,44.87194],[2.82605,44.87061],[2.83232,44.87256],[2.83674,44.87146],[2.84327,44.87273],[2.84795,44.8715],[2.85149,44.87184],[2.85575,44.87503],[2.85968,44.87446],[2.85945,44.87042],[2.86126,44.86838],[2.86075,44.86716],[2.85649,44.86539],[2.85608,44.85469],[2.85506,44.85326],[2.85625,44.8519],[2.8549,44.85041],[2.85755,44.84878],[2.85907,44.8489],[2.86016,44.85062],[2.86211,44.84962],[2.86259,44.84749],[2.86513,44.84725],[2.86559,44.84362],[2.864,44.8425],[2.86034,44.84251],[2.85932,44.84148],[2.85998,44.83879],[2.86174,44.83594],[2.86804,44.83339],[2.87041,44.82942],[2.87224,44.8184],[2.87593,44.81498],[2.87762,44.80986],[2.87721,44.8073],[2.87957,44.80301],[2.88326,44.79746],[2.88933,44.79194],[2.88786,44.78921],[2.89277,44.7864],[2.90511,44.78377],[2.9088,44.78645],[2.91156,44.79057],[2.916,44.79158],[2.92019,44.79431],[2.92535,44.79109],[2.92638,44.7878],[2.93228,44.78337],[2.93775,44.77487],[2.9356,44.77389],[2.93443,44.7707],[2.93565,44.76696],[2.93074,44.76177],[2.92206,44.76595],[2.91745,44.76669],[2.91346,44.76469],[2.91147,44.76182],[2.91698,44.7564],[2.92006,44.7548],[2.92284,44.75461],[2.92361,44.7564],[2.92621,44.75729],[2.92746,44.7567],[2.93377,44.74987],[2.9333,44.74623],[2.93524,44.74487],[2.93221,44.73818],[2.92326,44.72864],[2.92382,44.72729],[2.92559,44.7271],[2.9289,44.71714],[2.93509,44.705],[2.93387,44.69741],[2.93274,44.69665],[2.93566,44.69357],[2.93981,44.69206],[2.93885,44.69081],[2.94141,44.68662],[2.9444,44.68466],[2.93858,44.68248],[2.93774,44.68055],[2.93935,44.67758],[2.94571,44.67655],[2.94821,44.67443],[2.95037,44.66992],[2.95482,44.66778],[2.95493,44.66076],[2.96318,44.65868],[2.96187,44.65447],[2.96376,44.65431],[2.973,44.64572],[2.97545,44.64472],[2.98168,44.64468],[2.98494,44.65037],[2.98306,44.6502],[2.98176,44.652],[2.98305,44.65299],[2.98393,44.6567],[2.99801,44.67288],[3.00139,44.68142],[3.00054,44.68413],[3.00276,44.68618],[3.00092,44.68792],[3.00121,44.68912],[3.00591,44.69111],[3.00866,44.69425],[3.00716,44.69538],[3.00877,44.69716],[3.00923,44.70005],[3.01356,44.7034],[3.0141,44.70686],[3.01268,44.70934],[3.01653,44.71437],[3.02307,44.71347],[3.02472,44.71404],[3.02474,44.71568],[3.0263,44.71694],[3.03913,44.71499],[3.03801,44.72157],[3.03533,44.72523],[3.03443,44.72919],[3.03141,44.72917],[3.0314,44.72813],[3.02636,44.72893],[3.02976,44.73372],[3.03068,44.73705],[3.03047,44.74105],[3.03162,44.74298],[3.02995,44.746],[3.03108,44.74941],[3.03482,44.75128],[3.03486,44.75421],[3.03921,44.75891],[3.04904,44.76272],[3.04259,44.77221],[3.04624,44.77705],[3.04988,44.77874],[3.04968,44.78485],[3.05172,44.78525],[3.04822,44.78896],[3.04943,44.79385],[3.04596,44.79778],[3.04809,44.80425],[3.0519,44.80572],[3.05669,44.80992],[3.0578,44.81315],[3.06002,44.81349],[3.06163,44.81556],[3.06217,44.81898],[3.06943,44.8228],[3.07698,44.82419],[3.07416,44.82672],[3.07172,44.83309],[3.07149,44.83579],[3.07266,44.83744],[3.0853,44.83309],[3.09056,44.83261],[3.09506,44.8338],[3.09916,44.83291],[3.09931,44.84006],[3.09732,44.84219],[3.09972,44.84334],[3.09975,44.84487],[3.0968,44.84665],[3.0988,44.84893],[3.09799,44.85034],[3.0949,44.85057],[3.09504,44.85261],[3.09324,44.85424],[3.09671,44.8588],[3.10206,44.86115],[3.10338,44.86511],[3.1077,44.86647],[3.10287,44.87046],[3.10285,44.87424],[3.10637,44.87691],[3.10679,44.8797],[3.10313,44.88463],[3.10398,44.88656],[3.11178,44.88817],[3.11509,44.894],[3.11742,44.89379],[3.11788,44.89024],[3.12401,44.88989],[3.12391,44.89173],[3.12142,44.89486],[3.12513,44.89713],[3.12536,44.9],[3.12838,44.90358],[3.1411,44.90332],[3.14424,44.90208],[3.14459,44.89943],[3.15009,44.89412],[3.15317,44.89302],[3.15438,44.88855],[3.16009,44.88523],[3.16142,44.8813],[3.16518,44.87821],[3.16356,44.87543],[3.16467,44.87381],[3.16703,44.87487],[3.16992,44.87327],[3.17353,44.87299],[3.17489,44.87094],[3.18034,44.8674],[3.18231,44.86373],[3.18855,44.86145],[3.19236,44.86273],[3.19181,44.86403],[3.19361,44.86617],[3.19259,44.86965],[3.19918,44.87464],[3.2016,44.87507],[3.21073,44.87329],[3.21177,44.87472],[3.21571,44.87436],[3.21673,44.87612],[3.22735,44.88347],[3.22717,44.88477],[3.2289,44.8862],[3.23155,44.88546],[3.23633,44.88791],[3.23611,44.88935],[3.23453,44.88949],[3.22754,44.89612],[3.22705,44.89814],[3.22889,44.90596],[3.22643,44.90998],[3.23657,44.91259],[3.23979,44.9146],[3.2425,44.91431],[3.24418,44.91604],[3.24969,44.91624],[3.24818,44.9211],[3.24421,44.92703],[3.24708,44.92786],[3.24813,44.92983],[3.24328,44.93171],[3.24173,44.9337],[3.24169,44.93515],[3.24283,44.93558],[3.24692,44.93367],[3.25055,44.93459],[3.25083,44.93643],[3.24841,44.93951],[3.25642,44.94201],[3.26663,44.94229],[3.26801,44.94142],[3.26229,44.93669],[3.26153,44.93207],[3.27166,44.9274],[3.27993,44.92607],[3.28602,44.92638],[3.29839,44.93627],[3.29914,44.93909],[3.30684,44.94114],[3.31039,44.93765],[3.31333,44.93849],[3.31622,44.94062],[3.31531,44.94417],[3.33795,44.95591],[3.35453,44.95482],[3.35545,44.9603],[3.36134,44.97141],[3.37257,44.97545],[3.37031,44.96999],[3.37619,44.96462],[3.37528,44.96359],[3.37224,44.96343],[3.37135,44.96025],[3.38907,44.95137],[3.39276,44.95251],[3.39201,44.95332],[3.39725,44.95853],[3.39994,44.95724],[3.40438,44.95703],[3.41519,44.94158],[3.41241,44.93873],[3.41562,44.93114],[3.41581,44.92741],[3.41426,44.92553],[3.41383,44.91986],[3.41038,44.91778],[3.41401,44.91504],[3.41926,44.90843],[3.417,44.90625],[3.41926,44.90524],[3.41798,44.90077],[3.42045,44.8951],[3.42706,44.89047],[3.43571,44.88024],[3.43777,44.87253],[3.43862,44.86082],[3.4418,44.85423],[3.45131,44.8454],[3.4556,44.84468],[3.45885,44.83993],[3.45841,44.83614],[3.45535,44.83177],[3.45599,44.82916],[3.4647,44.82794],[3.47757,44.81355],[3.47824,44.80968],[3.48704,44.80644],[3.48907,44.807],[3.49301,44.81106],[3.49365,44.8147],[3.50565,44.82385],[3.53139,44.82772],[3.54305,44.82838],[3.55172,44.82576],[3.56152,44.82488],[3.56232,44.8279],[3.56022,44.83279],[3.56509,44.83304],[3.57058,44.83587],[3.57454,44.83461],[3.57884,44.82542],[3.58892,44.8264],[3.5902,44.82755],[3.58936,44.83219],[3.58663,44.83812],[3.59,44.8384],[3.5943,44.8411],[3.59042,44.84663],[3.59586,44.85216],[3.5944,44.85514],[3.5976,44.85695],[3.59688,44.85907],[3.59874,44.85972],[3.59866,44.86207],[3.59421,44.86756],[3.59544,44.86845],[3.59407,44.87215],[3.59532,44.8743],[3.59373,44.87657],[3.60328,44.87943],[3.60828,44.87933],[3.60919,44.8777],[3.61475,44.87418],[3.61802,44.87585],[3.62257,44.87603],[3.62281,44.87818],[3.63021,44.88093],[3.63005,44.8794],[3.63174,44.87862],[3.63688,44.87764],[3.64388,44.87817],[3.64453,44.8765],[3.65108,44.87431],[3.65244,44.87605],[3.65364,44.87594],[3.65772,44.87153],[3.65985,44.87106],[3.65975,44.86853],[3.66122,44.86722],[3.66155,44.86496],[3.66288,44.86472],[3.6626,44.86328],[3.66677,44.85757],[3.67244,44.85683],[3.67364,44.85412],[3.67047,44.85087],[3.67182,44.84339],[3.66961,44.84089],[3.65742,44.83612],[3.65937,44.8335],[3.66293,44.83231],[3.66199,44.83149],[3.66323,44.82983],[3.66534,44.83081],[3.66636,44.82878],[3.67304,44.83045],[3.68339,44.82921],[3.68876,44.83206],[3.69544,44.83096],[3.69917,44.83343],[3.69791,44.83637],[3.70013,44.83666],[3.70822,44.83657],[3.71161,44.83572],[3.71746,44.8315],[3.72289,44.83099],[3.7282,44.83381],[3.73464,44.83301],[3.73697,44.83497],[3.73457,44.83846],[3.73498,44.83976],[3.74255,44.83895],[3.74521,44.83634],[3.74663,44.82945],[3.75155,44.8284],[3.75139,44.82507],[3.74979,44.82405],[3.74994,44.82288],[3.75507,44.81994],[3.75589,44.81705],[3.75983,44.81605],[3.76174,44.81373],[3.76138,44.8119],[3.76304,44.80981],[3.75878,44.80652],[3.76063,44.80452],[3.7612,44.80186],[3.76414,44.80038],[3.76661,44.80306],[3.76871,44.80384],[3.77141,44.80318],[3.77175,44.80173],[3.77394,44.80044],[3.77338,44.79892],[3.77168,44.79881],[3.77126,44.7972],[3.7753,44.79656],[3.778,44.79873],[3.77989,44.7956],[3.78716,44.79366],[3.78763,44.79231],[3.79853,44.78609],[3.80323,44.78158],[3.80229,44.77916],[3.8049,44.77247],[3.80333,44.77042],[3.80927,44.76516],[3.81214,44.76603],[3.81233,44.76878],[3.81585,44.76827],[3.81811,44.77014],[3.81772,44.7719],[3.82872,44.77454],[3.83154,44.77668],[3.83356,44.77647],[3.83512,44.77339],[3.84017,44.77274],[3.84319,44.77022],[3.84287,44.76766],[3.83725,44.76004],[3.83046,44.75616],[3.82982,44.75479],[3.83619,44.75109],[3.83543,44.74804],[3.8473,44.74528],[3.85005,44.7465],[3.85527,44.74625],[3.86395,44.74303],[3.86573,44.74339],[3.87546,44.74063],[3.87752,44.73745],[3.87698,44.73579],[3.8782,44.73231],[3.8712,44.72985],[3.87059,44.72822],[3.86686,44.72842],[3.8623,44.7201],[3.86196,44.71889],[3.86464,44.71795],[3.86151,44.71202],[3.86187,44.71057],[3.86458,44.7104],[3.86798,44.70837],[3.87084,44.70865],[3.87256,44.70723],[3.87234,44.70561],[3.86806,44.70387],[3.8672,44.70227],[3.86943,44.70084],[3.86997,44.69958],[3.86867,44.69833],[3.86965,44.6971],[3.87618,44.69594],[3.88211,44.69793],[3.8843,44.69758],[3.88417,44.69259],[3.88255,44.69072],[3.87667,44.6885],[3.87691,44.68534],[3.86954,44.67825],[3.87099,44.67579],[3.87765,44.67503],[3.87882,44.67393],[3.8778,44.66846],[3.87982,44.66632],[3.88383,44.66514],[3.88288,44.65768],[3.88491,44.65586],[3.88967,44.65691],[3.89475,44.65113],[3.89465,44.64776],[3.89769,44.64348],[3.89358,44.64052],[3.89591,44.63775],[3.89272,44.6273],[3.894,44.6137],[3.89599,44.61245],[3.89872,44.61345],[3.9047,44.61279],[3.9071,44.61059],[3.90831,44.60662],[3.90611,44.6048],[3.90732,44.60249],[3.90371,44.59746],[3.90616,44.59485],[3.90517,44.59271],[3.91493,44.59064],[3.91604,44.589],[3.91828,44.58848],[3.91952,44.58553],[3.91561,44.58289],[3.91702,44.57912],[3.92337,44.57369],[3.9243,44.57142],[3.92831,44.57052],[3.92946,44.56875],[3.93226,44.57208],[3.93665,44.57382],[3.94515,44.57379],[3.94877,44.57289],[3.94855,44.57131],[3.95148,44.57059],[3.95897,44.55915],[3.95823,44.557],[3.96069,44.55503],[3.95971,44.55139],[3.96178,44.54907],[3.96247,44.54438],[3.96593,44.54006],[3.96607,44.53578],[3.96923,44.53381],[3.97114,44.53],[3.96966,44.52889],[3.97195,44.52786],[3.97104,44.52662],[3.97623,44.52317],[3.97916,44.52246],[3.97953,44.51988],[3.97797,44.51636],[3.98166,44.51566],[3.98396,44.51127],[3.98319,44.50894],[3.9881,44.50419],[3.98807,44.50311],[3.98596,44.502],[3.98654,44.5002],[3.98846,44.49963],[3.98805,44.49824],[3.98588,44.49711],[3.98707,44.49526],[3.98442,44.49405],[3.98689,44.49092],[3.98514,44.48856],[3.98696,44.48615],[3.98468,44.4834],[3.98708,44.4817],[3.98585,44.47816],[3.98765,44.47278],[3.99222,44.47005],[3.99258,44.46699],[3.99692,44.46606],[3.99816,44.4598],[4.0021,44.4592],[4.00435,44.45651],[4.00907,44.45666],[4.01102,44.45452],[4.01449,44.45471],[4.01437,44.45096],[4.02151,44.45014],[4.02113,44.44741],[4.02321,44.44558],[4.02821,44.44482],[4.02882,44.44639],[4.03222,44.44629],[4.0348,44.44427],[4.03622,44.44588],[4.0376,44.44572],[4.04192,44.4407],[4.04243,44.43686],[4.0451,44.43539],[4.04646,44.43271],[4.04518,44.4299],[4.04192,44.42792],[4.04269,44.42637],[4.03549,44.42009],[4.03969,44.41805],[4.04655,44.41844],[4.05721,44.41378],[4.06123,44.40908],[4.06844,44.40511],[4.06677,44.4013],[4.06268,44.39866],[4.06453,44.39456],[4.05872,44.39427],[4.05634,44.39259],[4.05301,44.3944],[4.05304,44.39543],[4.04815,44.39591],[4.04783,44.3975],[4.04428,44.3944],[4.04247,44.39464],[4.04048,44.3913],[4.04375,44.38455],[4.04617,44.38361],[4.04865,44.38052],[4.05298,44.3787],[4.05079,44.37436],[4.05311,44.37014],[4.05322,44.36708],[4.05757,44.36346],[4.05576,44.3597],[4.05277,44.35975],[4.05403,44.35815],[4.05463,44.35044],[4.05089,44.34717],[4.05111,44.34397],[4.05353,44.33867],[4.05015,44.33684],[4.04805,44.33394],[4.03573,44.3302],[4.03698,44.32816],[4.03971,44.32727],[4.04331,44.32411],[4.04744,44.32364],[4.046,44.32168],[4.04935,44.32145],[4.04683,44.31938],[4.05145,44.31732],[4.06014,44.32017],[4.06099,44.32181],[4.0695,44.32515],[4.07371,44.32986],[4.08514,44.32852],[4.08653,44.33075],[4.0933,44.3305],[4.09379,44.3345],[4.10399,44.3339],[4.11576,44.32687],[4.11944,44.33285],[4.12675,44.33773],[4.13172,44.33604],[4.13254,44.33224],[4.13508,44.33103],[4.1345,44.32865],[4.1403,44.32788],[4.14241,44.32291],[4.14114,44.31774],[4.14287,44.31335],[4.16497,44.31215],[4.17475,44.31816],[4.17799,44.31774],[4.17872,44.31499],[4.17778,44.31284],[4.18288,44.30579],[4.18353,44.30267],[4.1872,44.29931],[4.21525,44.29067],[4.22461,44.28331],[4.22603,44.2806],[4.22844,44.27988],[4.22958,44.27793],[4.23504,44.27418],[4.23979,44.27208],[4.24147,44.2698],[4.24924,44.26607],[4.25789,44.26481],[4.2638,44.26898],[4.27194,44.27122],[4.27792,44.27522],[4.28004,44.28248],[4.28383,44.28557],[4.28861,44.29188],[4.29074,44.30868],[4.28784,44.31395],[4.28837,44.31502],[4.29043,44.31673],[4.29298,44.31561],[4.29415,44.31334],[4.30266,44.31468],[4.31663,44.32069],[4.32172,44.32399],[4.32564,44.33072],[4.32995,44.33212],[4.33002,44.33389],[4.32577,44.33832],[4.33566,44.33968],[4.36191,44.34021],[4.36772,44.33939],[4.38374,44.34419],[4.38818,44.34717],[4.3913,44.34694],[4.39513,44.34488],[4.40326,44.33358],[4.38959,44.30109],[4.39006,44.29996],[4.3929,44.30058],[4.39411,44.29961],[4.39237,44.29808],[4.39365,44.2972],[4.3934,44.29364],[4.39538,44.29086],[4.4014,44.28765],[4.40407,44.28882],[4.42011,44.28709],[4.42673,44.28782],[4.43311,44.29113],[4.43142,44.2876],[4.43371,44.28662],[4.43351,44.28459],[4.43465,44.28326],[4.44042,44.28342],[4.44201,44.28556],[4.44544,44.28711],[4.44725,44.29352],[4.45321,44.29787],[4.44842,44.29661],[4.45089,44.33262],[4.45201,44.3375],[4.45422,44.33963],[4.45762,44.34163],[4.46476,44.34167],[4.46716,44.34028],[4.47494,44.34202],[4.47923,44.33745],[4.48153,44.33691],[4.48875,44.33908],[4.49902,44.33825],[4.50286,44.3389],[4.5036,44.34005],[4.50226,44.34301],[4.50368,44.34419],[4.50563,44.34402],[4.50676,44.34266],[4.50689,44.33738],[4.51317,44.33407],[4.51152,44.33175],[4.51275,44.32809],[4.51828,44.3301],[4.52288,44.33042],[4.53224,44.32267],[4.53961,44.32338],[4.54624,44.32645],[4.54879,44.32572],[4.5491,44.32369],[4.54447,44.32077],[4.5587,44.30244],[4.57,44.29934],[4.575,44.30087],[4.57725,44.30037],[4.58119,44.29719],[4.58698,44.29459],[4.59312,44.29403],[4.59653,44.29198],[4.60453,44.29138],[4.60929,44.28917],[4.61223,44.28613],[4.61381,44.28003],[4.616,44.27818],[4.63174,44.28494],[4.63493,44.28482],[4.63806,44.28297],[4.64123,44.27439],[4.64579,44.27069],[4.64922,44.27036],[4.64918,44.26358],[4.65407,44.25434],[4.6619,44.2471],[4.67484,44.23855],[4.67786,44.23412],[4.67844,44.22943],[4.67272,44.21816],[4.67425,44.21402],[4.68016,44.21213],[4.69417,44.21543],[4.70181,44.21607],[4.70655,44.21443],[4.70894,44.21191],[4.70988,44.208],[4.70444,44.20057],[4.70384,44.19765],[4.70578,44.19279],[4.71496,44.19104],[4.72207,44.18742],[4.71977,44.17714],[4.71638,44.17672],[4.71807,44.17359],[4.71612,44.16597],[4.7189,44.1445],[4.7117,44.13474],[4.71074,44.11846],[4.70701,44.11368],[4.70607,44.10775],[4.70746,44.10367],[4.71879,44.0925],[4.72063,44.08179],[4.72255,44.07968],[4.72587,44.07844],[4.73013,44.07903],[4.7359,44.08264],[4.74884,44.08723],[4.7583,44.08792],[4.76086,44.0863],[4.75975,44.08164],[4.76052,44.07894],[4.75785,44.07725],[4.75956,44.07507],[4.76195,44.07522],[4.76943,44.07152],[4.78508,44.06742],[4.78798,44.06505],[4.78763,44.05402],[4.80801,44.03973],[4.81617,44.03214],[4.81838,44.01905],[4.82115,44.01647],[4.83768,44.01494],[4.84334,44.00986],[4.84555,43.99668],[4.84438,43.98937],[4.84211,43.98647],[4.83766,43.98519],[4.83199,43.98526],[4.8196,43.98838],[4.81598,43.9888],[4.81247,43.98766],[4.81126,43.98562],[4.81015,43.97704],[4.81506,43.96763],[4.81402,43.964],[4.808,43.96003],[4.79716,43.95672],[4.79278,43.95378],[4.78897,43.94733],[4.77902,43.93789],[4.76878,43.9338],[4.76153,43.93492],[4.75,43.93218],[4.74255,43.92775],[4.73906,43.92406],[4.7401,43.91968],[4.73069,43.91306],[4.72337,43.90595],[4.7135,43.90179],[4.70065,43.89837],[4.69915,43.8966],[4.70932,43.89801],[4.7075,43.89555],[4.70451,43.89472],[4.69927,43.88869],[4.69223,43.88418],[4.67016,43.87754],[4.66544,43.87515],[4.66551,43.872],[4.66242,43.87083],[4.66094,43.87584],[4.65923,43.87582],[4.65048,43.86986],[4.64191,43.86748],[4.64295,43.86326],[4.6472,43.86079],[4.6483,43.85883],[4.64747,43.85683],[4.64296,43.85439],[4.64146,43.85114],[4.64522,43.84985],[4.65185,43.85237],[4.66016,43.85324],[4.6653,43.85088],[4.66679,43.84612],[4.66311,43.84283],[4.65015,43.83913],[4.65104,43.83811],[4.64602,43.83534],[4.64242,43.83144],[4.64465,43.82555],[4.64659,43.82554],[4.64783,43.82229],[4.65163,43.81811],[4.65508,43.80764],[4.65194,43.78407],[4.64854,43.77916],[4.63975,43.77245],[4.62949,43.76192],[4.62566,43.74907],[4.61364,43.72982],[4.61228,43.72475],[4.61304,43.71429],[4.61475,43.70935],[4.62543,43.6957],[4.62766,43.69054],[4.62745,43.68543],[4.6251,43.68544],[4.61687,43.68885],[4.60583,43.68608],[4.59303,43.68746],[4.58188,43.69637],[4.5789,43.69751],[4.55811,43.6995],[4.53985,43.70727],[4.533,43.70665],[4.52701,43.70262],[4.52439,43.70213],[4.50368,43.70226],[4.49627,43.70168],[4.48724,43.69924],[4.47865,43.6913],[4.47567,43.68446],[4.47843,43.67685],[4.47747,43.67251],[4.47049,43.6697],[4.45796,43.66801],[4.4513,43.66413],[4.4408,43.64905],[4.4343,43.63355],[4.42617,43.62448],[4.42704,43.62068],[4.43975,43.61067],[4.44836,43.61029],[4.45453,43.61139],[4.46222,43.61489],[4.46681,43.61521],[4.47252,43.61204],[4.47523,43.6083],[4.47414,43.60386],[4.46679,43.59914],[4.46068,43.58926],[4.45549,43.5859],[4.44701,43.58303],[4.43385,43.5853],[4.42554,43.58522],[4.40294,43.57299],[4.40422,43.57202],[4.41204,43.57296],[4.41532,43.57254],[4.41659,43.57134],[4.4158,43.56668],[4.40935,43.56113],[4.40383,43.55925],[4.38741,43.5622],[4.38592,43.55701],[4.38166,43.553],[4.36514,43.54716],[4.35037,43.54675],[4.34923,43.54254],[4.33414,43.53545],[4.33058,43.5362],[4.31608,43.54488],[4.3157,43.5467],[4.31697,43.54864],[4.32236,43.55193],[4.32287,43.55431],[4.31901,43.55712],[4.31399,43.55557],[4.31721,43.55348],[4.31714,43.55215],[4.31543,43.55107],[4.31138,43.55133],[4.30811,43.54804],[4.3079,43.5452],[4.31673,43.53407],[4.32467,43.5282],[4.3205,43.52549],[4.30883,43.52447],[4.30232,43.5185],[4.29585,43.51453],[4.288,43.51339],[4.27141,43.50807],[4.25864,43.50754],[4.23968,43.49917],[4.2378,43.49666],[4.23941,43.49376],[4.23062,43.47875],[4.2323,43.47438],[4.23028,43.46019],[4.19455,43.46554],[4.16562,43.47191],[4.14091,43.48036],[4.1272,43.48945],[4.11989,43.49921],[4.11651,43.5083],[4.12191,43.51092],[4.12278,43.51302],[4.12206,43.51987],[4.12315,43.52135],[4.12801,43.52284],[4.13359,43.52285],[4.13729,43.52467],[4.13912,43.5319],[4.13574,43.53483],[4.13204,43.53534],[4.13354,43.53617],[4.13292,43.53794],[4.12685,43.54388],[4.11736,43.54908],[4.10104,43.55437],[4.09936,43.5539],[4.08916,43.55623],[4.08349,43.55519],[4.07147,43.55708],[4.05614,43.55754],[4.02852,43.55512],[4.00701,43.55166],[3.99547,43.5485],[3.93434,43.52794],[3.93417,43.5262],[3.93546,43.52568],[3.932,43.52353],[3.9275,43.52462],[3.90796,43.5172],[3.88608,43.50674],[3.8512,43.48646],[3.83904,43.47771],[3.82881,43.4692],[3.81853,43.45831],[3.79666,43.44104],[3.77656,43.43139],[3.75121,43.42541],[3.74975,43.42363],[3.74803,43.42424],[3.72492,43.41579],[3.72563,43.40119],[3.71581,43.40082],[3.71446,43.39868],[3.70843,43.3988],[3.70276,43.39698],[3.7018,43.39528],[3.69493,43.3945],[3.69165,43.39157],[3.68394,43.39185],[3.68193,43.39295],[3.6736,43.39027],[3.67229,43.3927],[3.66985,43.39373],[3.6649,43.3932],[3.64313,43.38314],[3.60262,43.35543],[3.56612,43.32572],[3.52548,43.28807],[3.52393,43.28467],[3.52112,43.28277],[3.51852,43.27833],[3.5154,43.27625],[3.51561,43.2748],[3.51122,43.27409],[3.50951,43.27172],[3.4991,43.2753],[3.483,43.27393],[3.47726,43.27659],[3.46723,43.27679],[3.45236,43.28238],[3.44445,43.28189],[3.43719,43.28798],[3.43033,43.29021],[3.40502,43.28816],[3.36908,43.27925],[3.34268,43.26991],[3.34136,43.26813],[3.31162,43.25448],[3.29876,43.24685],[3.29268,43.24442],[3.29186,43.24303],[3.28712,43.24199],[3.26631,43.23065],[3.22857,43.20548],[3.19741,43.18168],[3.19173,43.1757],[3.1902,43.17585],[3.1838,43.16933],[3.18476,43.16817],[3.18068,43.16827],[3.16971,43.15876],[3.14404,43.13258],[3.12924,43.11377],[3.13244,43.1106],[3.12544,43.11011],[3.12208,43.10735],[3.10718,43.08917],[3.09671,43.07318],[3.09288,43.06914],[3.07838,43.04566],[3.06571,43.02235],[3.06381,43.01655],[3.06596,43.01396],[3.06068,43.00788],[3.05094,42.98621],[3.04252,42.95899],[3.03932,42.94168],[3.03963,42.93129],[3.04047,42.9297],[3.05426,42.92584],[3.05454,42.92328],[3.05909,42.92054],[3.06071,42.91742],[3.05697,42.9057],[3.05062,42.87645],[3.05087,42.87391],[3.054,42.87377],[3.0502,42.87064],[3.04537,42.85168],[3.03976,42.80559],[3.0395,42.79861],[3.04211,42.79788],[3.04045,42.79654],[3.039,42.78781],[3.0393,42.77098],[3.0379,42.75542],[3.03818,42.75335],[3.03963,42.75234],[3.03834,42.74016],[3.04075,42.71666],[3.03983,42.71103],[3.03843,42.70459],[3.03625,42.704],[3.0324,42.70609],[3.03234,42.70367],[3.02977,42.70381],[3.02578,42.70672],[3.02447,42.70388],[3.02622,42.70331],[3.0276,42.70452],[3.02999,42.7031],[3.03652,42.70191],[3.03766,42.70268],[3.03895,42.70121],[3.03707,42.69449],[3.03505,42.67294],[3.03507,42.65796],[3.03627,42.65679],[3.03547,42.65548],[3.03544,42.64225],[3.03765,42.62294],[3.04128,42.62057],[3.03985,42.61823],[3.04066,42.60981],[3.04594,42.59165],[3.04657,42.5673],[3.04961,42.55014],[3.05184,42.54395],[3.05476,42.54367],[3.05412,42.54092],[3.05796,42.53626],[3.06221,42.53529],[3.06842,42.53593],[3.07472,42.53367],[3.07667,42.53425],[3.08315,42.5316],[3.08307,42.53007],[3.08665,42.52838],[3.08544,42.52438],[3.09172,42.52569],[3.09566,42.52377],[3.09743,42.52521],[3.09942,42.52456],[3.10615,42.52594],[3.11007,42.52466],[3.11452,42.52116],[3.1156,42.51891],[3.11794,42.52097],[3.1176,42.52322],[3.12977,42.51827],[3.1411,42.51521],[3.13231,42.51335],[3.1332,42.51086],[3.13129,42.50926],[3.12694,42.50623],[3.12334,42.50594],[3.12338,42.50449],[3.12472,42.50439],[3.12475,42.5021],[3.12833,42.5015],[3.12953,42.4995],[3.13398,42.50114],[3.13561,42.49969],[3.13511,42.49803],[3.13239,42.49611],[3.13315,42.49246],[3.13239,42.49076],[3.12952,42.48983],[3.12754,42.48732],[3.13275,42.48567],[3.13151,42.48356],[3.12979,42.48312],[3.1319,42.48122],[3.14605,42.47999],[3.14616,42.47873],[3.14924,42.47731],[3.15514,42.47745],[3.15414,42.47179],[3.15498,42.47016],[3.16244,42.46498],[3.15974,42.46333],[3.16071,42.46197],[3.15733,42.46047],[3.15835,42.45876],[3.16169,42.45877],[3.16737,42.45622],[3.16517,42.45541],[3.16534,42.45388],[3.16009,42.45279],[3.15989,42.4519],[3.16912,42.44643],[3.16921,42.44445],[3.16796,42.44221],[3.1662,42.44168],[3.16631,42.44055],[3.1694,42.4403],[3.17465,42.44202],[3.17676,42.44102],[3.17783,42.43948],[3.17478,42.4387],[3.1736,42.43587],[3.17145,42.43498],[3.16303,42.43581],[3.15619,42.43424],[3.1533,42.43547],[3.14476,42.43306],[3.1324,42.43572],[3.12546,42.43468],[3.12226,42.43584],[3.12083,42.43801],[3.1146,42.43517],[3.11016,42.43538],[3.10796,42.43396],[3.10646,42.4309],[3.10254,42.42828],[3.10166,42.42608],[3.09831,42.42493],[3.0861,42.42519],[3.08014,42.42848],[3.07738,42.43146],[3.07631,42.43516],[3.07055,42.43556],[3.06693,42.44238],[3.05804,42.44554],[3.05115,42.45413],[3.04725,42.45708],[3.04673,42.46064],[3.04314,42.46607],[3.04046,42.47439],[3.03684,42.47355],[3.0328,42.47491],[3.02784,42.47243],[3.0198,42.47062],[3.01325,42.46621],[3.00325,42.47045],[3.00092,42.47299],[2.98889,42.47383],[2.98322,42.47224],[2.98205,42.4713],[2.98258,42.46958],[2.97983,42.46736],[2.97569,42.46746],[2.96735,42.46536],[2.96271,42.4697],[2.96038,42.47358],[2.95275,42.4769],[2.94709,42.4818],[2.94506,42.47965],[2.93841,42.47735],[2.93022,42.47208],[2.92718,42.46616],[2.92478,42.46387],[2.92448,42.45839],[2.91845,42.45608],[2.91178,42.45728],[2.90461,42.45687],[2.89201,42.46179],[2.88946,42.46182],[2.88549,42.45993],[2.88094,42.46117],[2.87613,42.46556],[2.87031,42.46734],[2.86334,42.46333],[2.86385,42.45936],[2.8615,42.45483],[2.85663,42.45404],[2.83954,42.45929],[2.83231,42.45204],[2.83368,42.44821],[2.82753,42.43955],[2.81983,42.44048],[2.81526,42.43974],[2.81371,42.43637],[2.80852,42.43108],[2.80366,42.43196],[2.80431,42.42957],[2.80086,42.42396],[2.79924,42.41857],[2.78412,42.41751],[2.77697,42.41195],[2.7729,42.41273],[2.77018,42.4118],[2.76491,42.41636],[2.76001,42.41837],[2.75757,42.42445],[2.75544,42.42568],[2.74347,42.4249],[2.73904,42.42357],[2.73345,42.42445],[2.7301,42.42261],[2.72335,42.42268],[2.71668,42.42122],[2.7094,42.41526],[2.70606,42.41451],[2.70288,42.41146],[2.69626,42.41013],[2.69204,42.40622],[2.68282,42.40684],[2.67394,42.4047],[2.67229,42.40265],[2.67374,42.40043],[2.67142,42.38753],[2.66588,42.38556],[2.65352,42.38843],[2.65149,42.38641],[2.65187,42.38498],[2.66074,42.37816],[2.66283,42.37095],[2.66113,42.36893],[2.66111,42.36596],[2.66752,42.36176],[2.66989,42.36193],[2.67376,42.35899],[2.67343,42.35742],[2.6749,42.35705],[2.67446,42.3553],[2.67597,42.35439],[2.67659,42.34729],[2.67548,42.34238],[2.67013,42.34073],[2.66244,42.34058],[2.65485,42.34132],[2.65425,42.34289],[2.65122,42.34411],[2.63424,42.34394],[2.63249,42.34638],[2.62278,42.34501],[2.6163,42.34565],[2.61,42.34684],[2.60817,42.34832],[2.60121,42.34924],[2.59952,42.35195],[2.58758,42.35449],[2.58838,42.35647],[2.58687,42.3572],[2.57086,42.35795],[2.56757,42.35625],[2.56187,42.35711],[2.56058,42.35428],[2.55397,42.35403],[2.55387,42.34602],[2.5487,42.33955],[2.54446,42.33942],[2.54213,42.33366],[2.53522,42.33399],[2.53272,42.33305],[2.51589,42.33592],[2.51134,42.33741],[2.51019,42.33925],[2.50565,42.34137],[2.50031,42.34291],[2.492,42.34243],[2.48356,42.33965],[2.48121,42.34064],[2.47841,42.34439],[2.4766,42.34515],[2.47606,42.3479],[2.47273,42.34974],[2.47232,42.35285],[2.46814,42.35663],[2.4668,42.3601],[2.45716,42.36317],[2.45638,42.36722],[2.45462,42.36974],[2.44668,42.36912],[2.43631,42.37454],[2.43346,42.37709],[2.43329,42.3811],[2.43511,42.38317],[2.43457,42.38645],[2.43548,42.38888],[2.43246,42.39326],[2.42882,42.39433],[2.41254,42.39129],[2.40083,42.39472],[2.39549,42.39512],[2.38754,42.40007],[2.3805,42.40125],[2.37211,42.40026],[2.36593,42.40238],[2.36077,42.40283],[2.34918,42.40675],[2.34644,42.40868],[2.34498,42.4112],[2.34481,42.41602],[2.34352,42.41696],[2.33126,42.41543],[2.3261,42.41718],[2.32069,42.42039],[2.3188,42.42214],[2.31874,42.42501],[2.31414,42.42785],[2.30695,42.42879],[2.30059,42.42389],[2.2913,42.42294],[2.27167,42.434],[2.26741,42.43359],[2.26139,42.43722],[2.25672,42.43844],[2.25246,42.43672],[2.2515,42.43412],[2.24616,42.42876],[2.23936,42.42821],[2.23535,42.42623],[2.23073,42.42672],[2.22388,42.42563],[2.2197,42.4228],[2.21513,42.42297],[2.21137,42.42035],[2.20724,42.41954],[2.20658,42.41729],[2.20161,42.41638],[2.19499,42.41809],[2.19158,42.41804],[2.19037,42.41686],[2.18393,42.41919],[2.18016,42.4182],[2.17366,42.42229],[2.16757,42.42458],[2.16612,42.42286],[2.1592,42.42208],[2.15695,42.42338],[2.15422,42.42158],[2.15088,42.42113],[2.14233,42.41607],[2.13864,42.41611],[2.12887,42.41249],[2.1256,42.40965],[2.12294,42.40514],[2.12175,42.39772],[2.1149,42.39451],[2.11505,42.38578],[2.11676,42.38321],[2.10707,42.37897],[2.10573,42.38],[2.08955,42.37372],[2.08665,42.36915],[2.08686,42.36367],[2.08463,42.36177],[2.08116,42.36442],[2.07236,42.36458],[2.06844,42.3611],[2.06552,42.36105],[2.05911,42.3578],[2.05589,42.35851],[2.03551,42.35751],[2.03258,42.35831],[2.02907,42.35592],[2.02289,42.355],[2.01541,42.34678],[2.01237,42.34957],[2.01199,42.3529],[2.00622,42.35333],[2.00383,42.35557],[1.99905,42.35543],[1.99454,42.35995],[1.99072,42.35918],[1.98591,42.36205],[1.9796,42.37117],[1.9717,42.37379],[1.96474,42.38164],[1.96452,42.38798],[1.96079,42.39116],[1.96078,42.40399],[1.95539,42.41032],[1.95829,42.42396],[1.95371,42.4266],[1.94367,42.42823],[1.94099,42.4302],[1.94302,42.44412],[1.93688,42.45359],[1.93238,42.45446],[1.92065,42.44682],[1.9088,42.44682],[1.90867,42.44817],[1.89827,42.45006],[1.89548,42.44772],[1.89136,42.44779],[1.89001,42.44981],[1.88545,42.44929],[1.8841,42.45086],[1.88296,42.45792],[1.88143,42.45971],[1.86429,42.46658],[1.86283,42.4663],[1.8597,42.46246],[1.85422,42.46414],[1.85232,42.46634],[1.84744,42.46785],[1.84336,42.47714],[1.83462,42.48179],[1.83443,42.48292],[1.82696,42.48373],[1.82352,42.48624],[1.8168,42.48306],[1.80795,42.48701],[1.80459,42.4901],[1.79167,42.48578],[1.76326,42.48684],[1.75922,42.49056],[1.75302,42.49146],[1.74951,42.49469],[1.74653,42.49561],[1.73067,42.49275],[1.72928,42.49805],[1.72583,42.5036],[1.72596,42.51428],[1.72181,42.51704],[1.72322,42.51853],[1.72683,42.51838],[1.72964,42.52034],[1.72888,42.5247],[1.73164,42.52894],[1.73352,42.52786],[1.73322,42.53028],[1.73496,42.53372],[1.73352,42.53816],[1.73565,42.5433],[1.73453,42.54908],[1.73638,42.55016],[1.73919,42.55561],[1.7483,42.563],[1.75376,42.56469],[1.76539,42.56533],[1.7696,42.56451],[1.78613,42.57362]],[[1.96006,42.47045],[1.95618,42.4577],[1.96101,42.4529],[1.96935,42.45148],[1.98433,42.44655],[2.00267,42.44674],[2.01269,42.44834],[2.01438,42.45168],[2.01187,42.45288],[2.01059,42.45581],[2.00614,42.4566],[1.99164,42.46268],[1.99144,42.46632],[1.98662,42.47135],[1.98653,42.47576],[1.98937,42.47734],[1.99256,42.48406],[1.99832,42.48516],[1.98953,42.49354],[1.97876,42.49477],[1.97726,42.49081],[1.97831,42.48604],[1.97255,42.48489],[1.97082,42.48047],[1.96299,42.47847],[1.96006,42.47045]]],[[[3.50066,43.2629],[3.50223,43.26419],[3.50355,43.2631],[3.50066,43.2629]]],[[[-0.10308,43.24282],[-0.12134,43.2409],[-0.12615,43.25281],[-0.13585,43.2611],[-0.14062,43.27194],[-0.1383,43.2742],[-0.13849,43.28036],[-0.13475,43.28392],[-0.13735,43.28574],[-0.13059,43.28873],[-0.12514,43.29443],[-0.12636,43.29873],[-0.12126,43.30254],[-0.11998,43.30625],[-0.11149,43.3104],[-0.09912,43.30324],[-0.09203,43.30047],[-0.08934,43.30084],[-0.09618,43.28548],[-0.09179,43.28093],[-0.08628,43.27983],[-0.08467,43.27681],[-0.07929,43.27166],[-0.07967,43.26264],[-0.08397,43.25782],[-0.09211,43.25206],[-0.09432,43.25472],[-0.10383,43.2496],[-0.10413,43.24465],[-0.10308,43.24282]]],[[[-0.10333,43.35858],[-0.10421,43.35892],[-0.10434,43.36134],[-0.10611,43.36172],[-0.10728,43.37073],[-0.10104,43.37358],[-0.0931,43.37388],[-0.08317,43.37135],[-0.08056,43.36907],[-0.08291,43.36636],[-0.07642,43.36457],[-0.07616,43.36303],[-0.072,43.36132],[-0.06926,43.35521],[-0.06493,43.355],[-0.0625,43.34671],[-0.06416,43.34199],[-0.06526,43.34161],[-0.06385,43.33898],[-0.06534,43.33594],[-0.06444,43.33358],[-0.0687,43.32813],[-0.06799,43.32477],[-0.07031,43.3166],[-0.0686,43.3125],[-0.07504,43.30714],[-0.09281,43.31045],[-0.09757,43.31386],[-0.10453,43.31218],[-0.1102,43.31218],[-0.11196,43.31653],[-0.1115,43.31814],[-0.11564,43.32288],[-0.11459,43.32479],[-0.11618,43.32868],[-0.11552,43.33238],[-0.11088,43.33477],[-0.10928,43.33792],[-0.10053,43.33657],[-0.09353,43.33312],[-0.08727,43.33384],[-0.08657,43.33616],[-0.08779,43.34059],[-0.08705,43.34519],[-0.08865,43.34661],[-0.08773,43.35089],[-0.09161,43.35109],[-0.09002,43.35454],[-0.09023,43.35935],[-0.09368,43.35779],[-0.10333,43.35858]]]]}}]}