{"type":"FeatureCollection","features":[{"type":"Feature","properties":{"reg_name":"francia-hdf","source":"IGN Admin Express via france-geojson, Licence Ouverte 2.0"},"geometry":{"type":"Polygon","coordinates":[[[4.1409,49.97876],[4.14636,49.97567],[4.15006,49.977],[4.15211,49.97467],[4.16062,49.9764],[4.16363,49.9758],[4.16659,49.97715],[4.17282,49.9772],[4.17509,49.97622],[4.17885,49.97199],[4.18498,49.97146],[4.19711,49.96772],[4.19861,49.96587],[4.19581,49.96222],[4.19617,49.95904],[4.19486,49.95679],[4.19632,49.9553],[4.20182,49.9571],[4.2112,49.95795],[4.21687,49.95718],[4.22504,49.95929],[4.22829,49.95774],[4.23316,49.95775],[4.22992,49.94619],[4.22462,49.943],[4.22072,49.93721],[4.21967,49.92377],[4.21696,49.91439],[4.2176,49.91268],[4.21981,49.91232],[4.22181,49.91046],[4.23339,49.90939],[4.23312,49.9046],[4.23497,49.90399],[4.2459,49.90217],[4.25354,49.90396],[4.2557,49.90321],[4.2509,49.88886],[4.25398,49.88692],[4.25276,49.86965],[4.24955,49.86241],[4.24876,49.85675],[4.24445,49.85257],[4.23297,49.84841],[4.23154,49.84576],[4.23165,49.84198],[4.22934,49.83896],[4.22971,49.83607],[4.22676,49.83622],[4.22359,49.83411],[4.2235,49.82947],[4.22252,49.82967],[4.2208,49.82539],[4.22052,49.82076],[4.21874,49.81698],[4.21959,49.81426],[4.21427,49.80611],[4.22175,49.80452],[4.21899,49.80025],[4.22087,49.79984],[4.2219,49.79754],[4.22668,49.79303],[4.22236,49.78722],[4.20756,49.78109],[4.20592,49.77819],[4.20742,49.7774],[4.20739,49.77626],[4.21177,49.77492],[4.2139,49.77111],[4.22005,49.77311],[4.22861,49.77311],[4.23396,49.7689],[4.24283,49.76714],[4.24195,49.76249],[4.24488,49.75908],[4.2496,49.75711],[4.24688,49.75482],[4.23831,49.75188],[4.22971,49.74661],[4.2271,49.74251],[4.2259,49.73285],[4.22803,49.73093],[4.23191,49.73045],[4.22716,49.72995],[4.22424,49.72762],[4.21437,49.72368],[4.20647,49.72354],[4.20344,49.72101],[4.19956,49.71983],[4.19905,49.71803],[4.19145,49.71601],[4.19249,49.71198],[4.1902,49.70856],[4.18806,49.7085],[4.18788,49.70558],[4.18649,49.70569],[4.18416,49.70263],[4.18519,49.69888],[4.16505,49.69503],[4.16473,49.69387],[4.15358,49.6919],[4.14418,49.68854],[4.14324,49.68739],[4.14898,49.67939],[4.14859,49.67832],[4.14319,49.67658],[4.14102,49.6766],[4.13982,49.67851],[4.13684,49.67813],[4.13721,49.67593],[4.12702,49.67792],[4.12731,49.67575],[4.12209,49.65822],[4.12303,49.65445],[4.12467,49.6547],[4.12555,49.65107],[4.12017,49.64317],[4.11673,49.64076],[4.11642,49.63903],[4.11906,49.63853],[4.11495,49.6348],[4.11575,49.63292],[4.11158,49.63435],[4.11191,49.63234],[4.10993,49.63174],[4.10808,49.63373],[4.10221,49.6326],[4.09916,49.62835],[4.08716,49.63076],[4.08633,49.62927],[4.08209,49.63152],[4.0824,49.63257],[4.08063,49.63416],[4.07569,49.63528],[4.0735,49.63464],[4.07103,49.63535],[4.06897,49.63751],[4.05531,49.63588],[4.05568,49.63434],[4.05095,49.63453],[4.04807,49.63679],[4.04825,49.63775],[4.04108,49.63827],[4.04043,49.63354],[4.0434,49.63295],[4.04231,49.62974],[4.04038,49.62981],[4.03845,49.62827],[4.03972,49.62593],[4.03791,49.62292],[4.02529,49.62253],[4.02461,49.62126],[4.02617,49.61937],[4.04729,49.59953],[4.05241,49.60004],[4.05433,49.59524],[4.05991,49.59476],[4.06061,49.59637],[4.06648,49.59443],[4.06485,49.59194],[4.05936,49.59288],[4.05793,49.59155],[4.05763,49.58886],[4.06185,49.58897],[4.06238,49.58596],[4.06043,49.58202],[4.06134,49.58035],[4.05971,49.57911],[4.05945,49.57614],[4.06353,49.57255],[4.06333,49.57122],[4.06584,49.57083],[4.06681,49.57235],[4.07053,49.57239],[4.07657,49.57113],[4.07521,49.56566],[4.06679,49.56407],[4.0671,49.56299],[4.06414,49.55962],[4.06246,49.56117],[4.06003,49.55838],[4.06284,49.55793],[4.06257,49.55627],[4.06057,49.55643],[4.06009,49.5545],[4.05808,49.55427],[4.05829,49.55255],[4.05436,49.55266],[4.05263,49.55084],[4.05037,49.5515],[4.04876,49.54527],[4.06683,49.54375],[4.0758,49.54146],[4.07742,49.52451],[4.07364,49.52354],[4.07584,49.51835],[4.07195,49.51645],[4.06548,49.5233],[4.06215,49.52272],[4.05662,49.52104],[4.05839,49.51934],[4.05679,49.51858],[4.06151,49.5145],[4.06186,49.51257],[4.05715,49.51052],[4.05756,49.50818],[4.04071,49.50853],[4.04135,49.47306],[4.04237,49.46869],[4.0441,49.46668],[4.04713,49.46673],[4.04868,49.46315],[4.05079,49.46294],[4.05217,49.46072],[4.05488,49.45924],[4.05385,49.4574],[4.05756,49.45119],[4.06068,49.4515],[4.06278,49.44824],[4.06748,49.44677],[4.06791,49.44488],[4.06025,49.44715],[4.05213,49.44381],[4.05181,49.44655],[4.05033,49.44761],[4.03766,49.43826],[4.03962,49.43315],[4.04174,49.43245],[4.04095,49.42976],[4.04374,49.42874],[4.0423,49.41665],[4.04707,49.41757],[4.0495,49.41561],[4.05027,49.41227],[4.04793,49.40424],[4.0449,49.40447],[4.04457,49.40079],[4.04244,49.40118],[4.04191,49.39759],[4.03991,49.3974],[4.03883,49.38815],[4.03737,49.38781],[4.03695,49.38014],[4.03796,49.37963],[4.0355,49.3599],[4.02791,49.35907],[4.02751,49.35985],[4.01816,49.36034],[4.01769,49.35841],[4.01273,49.3583],[4.01131,49.36296],[4.00691,49.36963],[4.0007,49.36868],[3.99902,49.37236],[3.99632,49.37168],[3.99494,49.3779],[3.9775,49.3795],[3.96131,49.37734],[3.95334,49.38429],[3.9426,49.38894],[3.94472,49.38994],[3.93147,49.40076],[3.93381,49.40187],[3.92523,49.40758],[3.92443,49.40618],[3.91944,49.40414],[3.91472,49.40353],[3.91501,49.39845],[3.91033,49.39483],[3.89574,49.39278],[3.89319,49.39721],[3.89332,49.39913],[3.88576,49.40199],[3.88118,49.40529],[3.8731,49.40477],[3.86958,49.40667],[3.85515,49.40124],[3.84958,49.40194],[3.84832,49.40331],[3.84527,49.40312],[3.84629,49.40057],[3.83319,49.40183],[3.83129,49.40285],[3.82238,49.40238],[3.82349,49.40041],[3.82797,49.40034],[3.83668,49.39671],[3.83961,49.39101],[3.84485,49.39164],[3.84685,49.38865],[3.84971,49.38763],[3.85419,49.3884],[3.85985,49.38615],[3.85799,49.3845],[3.85966,49.3818],[3.85635,49.38116],[3.85983,49.37266],[3.8563,49.36803],[3.85333,49.36735],[3.8526,49.36565],[3.85518,49.36586],[3.8561,49.36424],[3.85065,49.36365],[3.85011,49.36482],[3.84789,49.36457],[3.84833,49.36232],[3.85543,49.35775],[3.85521,49.35688],[3.85874,49.35412],[3.85513,49.3495],[3.85746,49.34886],[3.85284,49.34497],[3.83345,49.35013],[3.82406,49.35404],[3.82406,49.35735],[3.81408,49.35712],[3.80223,49.35891],[3.7969,49.35807],[3.77969,49.35193],[3.77753,49.35582],[3.76485,49.35071],[3.76314,49.35114],[3.75782,49.34761],[3.75074,49.34842],[3.74109,49.34759],[3.74222,49.33651],[3.7324,49.33496],[3.72162,49.33573],[3.7013,49.33251],[3.69314,49.32874],[3.69123,49.32957],[3.6891,49.32685],[3.68455,49.32697],[3.68301,49.3257],[3.67741,49.32456],[3.66916,49.32475],[3.66518,49.31979],[3.65589,49.31748],[3.65504,49.31637],[3.6476,49.31595],[3.64394,49.31272],[3.64347,49.30301],[3.63834,49.30136],[3.6428,49.29605],[3.65732,49.29102],[3.65762,49.2871],[3.65899,49.28682],[3.65264,49.28284],[3.6516,49.27836],[3.66149,49.26996],[3.65541,49.26338],[3.65541,49.26123],[3.6532,49.25756],[3.6548,49.25619],[3.65387,49.25423],[3.6567,49.25518],[3.65565,49.25713],[3.65807,49.26047],[3.66069,49.26008],[3.65959,49.25807],[3.66233,49.25746],[3.66144,49.25549],[3.66497,49.25135],[3.66685,49.24715],[3.66595,49.24636],[3.66999,49.24321],[3.6683,49.24197],[3.66861,49.24089],[3.67078,49.2396],[3.67504,49.24009],[3.67815,49.23533],[3.66998,49.23286],[3.66878,49.23166],[3.67039,49.22804],[3.66357,49.22187],[3.661,49.22307],[3.65592,49.22102],[3.65382,49.22208],[3.65148,49.22156],[3.65627,49.21844],[3.65283,49.21543],[3.656,49.21152],[3.66254,49.20898],[3.66457,49.21071],[3.67044,49.20965],[3.68179,49.20534],[3.67755,49.20346],[3.67611,49.20095],[3.67642,49.19982],[3.68158,49.19747],[3.68391,49.19753],[3.68984,49.20075],[3.69179,49.20239],[3.69291,49.20556],[3.69861,49.2055],[3.70063,49.20125],[3.70465,49.20066],[3.70487,49.19859],[3.70194,49.19439],[3.69992,49.19578],[3.69694,49.19455],[3.69824,49.18972],[3.69731,49.18843],[3.70685,49.18593],[3.70439,49.18137],[3.71161,49.17948],[3.71123,49.17819],[3.7142,49.17869],[3.72544,49.17352],[3.73011,49.17832],[3.7392,49.17762],[3.74212,49.17916],[3.74489,49.17764],[3.75115,49.1777],[3.7525,49.17237],[3.74911,49.17147],[3.74987,49.16917],[3.74834,49.16874],[3.74877,49.15708],[3.73956,49.15693],[3.72523,49.15148],[3.71701,49.14704],[3.70607,49.14528],[3.70759,49.14306],[3.70274,49.14145],[3.69803,49.14982],[3.69335,49.15187],[3.69244,49.15327],[3.68881,49.15313],[3.68726,49.15418],[3.6808,49.15391],[3.6718,49.15064],[3.65344,49.14869],[3.62225,49.1511],[3.61982,49.14754],[3.61882,49.14333],[3.62057,49.13925],[3.61446,49.1391],[3.60964,49.13501],[3.61166,49.12874],[3.60708,49.12389],[3.60002,49.12069],[3.60309,49.11467],[3.6118,49.11809],[3.62229,49.10528],[3.62479,49.09864],[3.62798,49.09488],[3.62743,49.09272],[3.63213,49.0862],[3.63905,49.08131],[3.63847,49.07744],[3.63287,49.07279],[3.6238,49.07087],[3.61798,49.07143],[3.61216,49.07356],[3.60906,49.0731],[3.60461,49.07023],[3.60288,49.06431],[3.59994,49.062],[3.58771,49.05939],[3.58593,49.04354],[3.5867,49.04137],[3.5852,49.03887],[3.58761,49.03381],[3.59912,49.03489],[3.61571,49.03363],[3.61684,49.03648],[3.63133,49.03971],[3.63973,49.03921],[3.64261,49.03701],[3.64557,49.04053],[3.65008,49.04282],[3.65092,49.04079],[3.65541,49.04015],[3.65714,49.0382],[3.66354,49.03731],[3.67406,49.0215],[3.67897,49.0183],[3.67772,49.01397],[3.66516,49.00563],[3.66026,49.00426],[3.63989,49.00409],[3.62334,48.98268],[3.62656,48.97982],[3.62394,48.97414],[3.6222,48.97272],[3.62121,48.96603],[3.61708,48.96486],[3.61037,48.96686],[3.60545,48.96404],[3.60093,48.96634],[3.59156,48.96037],[3.5926,48.9585],[3.60163,48.95348],[3.59918,48.95112],[3.60255,48.94393],[3.59272,48.94461],[3.57444,48.93902],[3.57303,48.92503],[3.57645,48.92325],[3.57385,48.92148],[3.57075,48.91492],[3.56679,48.91396],[3.56418,48.9113],[3.56002,48.91702],[3.54993,48.91365],[3.54781,48.91588],[3.54313,48.91541],[3.5326,48.91057],[3.53093,48.9129],[3.52858,48.91214],[3.52115,48.9052],[3.52012,48.90126],[3.51497,48.89524],[3.51324,48.89519],[3.50832,48.8904],[3.50959,48.88939],[3.50899,48.88529],[3.50134,48.87253],[3.50191,48.87192],[3.4989,48.87023],[3.48183,48.86594],[3.48365,48.86108],[3.48642,48.85811],[3.48519,48.85191],[3.47046,48.851],[3.46617,48.84252],[3.46071,48.83944],[3.46059,48.84077],[3.45909,48.84136],[3.44536,48.84323],[3.44674,48.84834],[3.45053,48.84893],[3.44846,48.853],[3.45223,48.85629],[3.44563,48.86035],[3.43559,48.85955],[3.43035,48.86074],[3.42729,48.86219],[3.42469,48.86493],[3.42399,48.86738],[3.42065,48.86732],[3.41888,48.86558],[3.41513,48.86552],[3.41293,48.86398],[3.40421,48.86398],[3.40068,48.86611],[3.40048,48.86771],[3.40187,48.87043],[3.40594,48.87084],[3.40586,48.87588],[3.39324,48.8754],[3.39334,48.8718],[3.39165,48.87086],[3.3859,48.87233],[3.38143,48.87157],[3.3805,48.87955],[3.38279,48.88057],[3.38107,48.88392],[3.38323,48.88455],[3.38103,48.8869],[3.38432,48.88747],[3.38369,48.88891],[3.37988,48.88871],[3.37472,48.89185],[3.37115,48.89203],[3.36897,48.89368],[3.37148,48.90524],[3.37602,48.90741],[3.3765,48.90968],[3.37139,48.91861],[3.37207,48.92403],[3.36831,48.92766],[3.36677,48.92253],[3.36593,48.92313],[3.36053,48.9184],[3.35358,48.91524],[3.3504,48.91796],[3.3492,48.91552],[3.34649,48.91702],[3.3387,48.91197],[3.33648,48.90919],[3.3343,48.91075],[3.3303,48.90871],[3.3267,48.91283],[3.31308,48.92122],[3.31288,48.93362],[3.30475,48.94876],[3.28453,48.94053],[3.27377,48.93891],[3.27187,48.93755],[3.26487,48.93915],[3.26396,48.94181],[3.26018,48.94479],[3.26297,48.94903],[3.25721,48.95249],[3.2594,48.95333],[3.25521,48.96205],[3.25362,48.96912],[3.24935,48.97436],[3.24419,48.97683],[3.23656,48.97754],[3.23122,48.97675],[3.22994,48.97811],[3.23033,48.98131],[3.22714,48.98191],[3.2272,48.98551],[3.2293,48.98734],[3.22918,48.98842],[3.22484,48.98733],[3.22368,48.99004],[3.22471,48.99102],[3.20932,48.99379],[3.20852,48.99883],[3.20716,49.00069],[3.20309,49.00094],[3.19899,49.00578],[3.19605,49.00482],[3.19754,49.00849],[3.1884,49.00923],[3.18052,49.01298],[3.1674,49.0124],[3.16829,49.01667],[3.1659,49.02069],[3.16301,49.01994],[3.16103,49.02423],[3.16367,49.02663],[3.17126,49.02981],[3.17407,49.02854],[3.17692,49.03075],[3.17649,49.03298],[3.17994,49.03403],[3.17864,49.03813],[3.18076,49.0387],[3.18273,49.04169],[3.1796,49.04271],[3.18046,49.04449],[3.18924,49.04596],[3.1909,49.04762],[3.19075,49.05104],[3.18996,49.05257],[3.18217,49.05236],[3.18064,49.05543],[3.18159,49.06275],[3.17663,49.06958],[3.16658,49.07784],[3.16126,49.07926],[3.15358,49.08328],[3.15859,49.08774],[3.16523,49.09965],[3.15181,49.09993],[3.14397,49.10192],[3.13817,49.10713],[3.12582,49.10599],[3.12146,49.10931],[3.11607,49.10841],[3.11573,49.10731],[3.10264,49.108],[3.0948,49.11169],[3.09403,49.11049],[3.08843,49.11093],[3.08592,49.11229],[3.08098,49.11183],[3.07799,49.11311],[3.0785,49.1145],[3.07533,49.11521],[3.07321,49.11721],[3.06969,49.11752],[3.06994,49.1159],[3.06766,49.11439],[3.06714,49.11134],[3.06334,49.10961],[3.06254,49.10619],[3.05935,49.10365],[3.0594,49.10226],[3.05659,49.10213],[3.05602,49.10048],[3.05562,49.09643],[3.05735,49.09399],[3.0631,49.09058],[3.06511,49.08702],[3.06501,49.08515],[3.05854,49.08855],[3.05737,49.08707],[3.05507,49.08834],[3.05451,49.08579],[3.051,49.08509],[3.04658,49.0866],[3.03966,49.08673],[3.03279,49.08907],[3.03157,49.08561],[3.01555,49.09123],[3.00852,49.09151],[3.00605,49.08645],[3.00396,49.08874],[3.00088,49.08953],[2.99944,49.0874],[2.99641,49.08774],[2.9953,49.0855],[2.99124,49.08401],[2.98884,49.08029],[2.98771,49.07634],[2.9882,49.07268],[2.98689,49.07107],[2.9834,49.07218],[2.98284,49.07132],[2.97972,49.07306],[2.97746,49.07266],[2.97713,49.07442],[2.97535,49.0742],[2.97177,49.08349],[2.97228,49.08519],[2.96961,49.08543],[2.97143,49.08897],[2.96877,49.08916],[2.96873,49.09146],[2.96531,49.09116],[2.95877,49.08774],[2.95674,49.08541],[2.94583,49.08808],[2.94442,49.08485],[2.94459,49.08161],[2.94288,49.0782],[2.94059,49.07713],[2.93408,49.07909],[2.93471,49.08085],[2.93307,49.08095],[2.92331,49.07758],[2.90599,49.08301],[2.90151,49.08537],[2.89495,49.07706],[2.88761,49.07947],[2.88376,49.07612],[2.88053,49.07597],[2.87961,49.07366],[2.87606,49.07407],[2.87032,49.07019],[2.85465,49.07018],[2.85496,49.07338],[2.85014,49.07757],[2.84827,49.08167],[2.84495,49.08488],[2.83363,49.08295],[2.82954,49.08383],[2.81985,49.08737],[2.80925,49.09754],[2.79386,49.0908],[2.78399,49.08864],[2.78854,49.08445],[2.78887,49.08287],[2.76834,49.08326],[2.78708,49.0755],[2.77793,49.07023],[2.775,49.07074],[2.76626,49.06474],[2.75355,49.06074],[2.73501,49.06045],[2.73339,49.0623],[2.73192,49.0681],[2.73242,49.0704],[2.72931,49.07477],[2.72466,49.07537],[2.72436,49.08046],[2.72058,49.07943],[2.72049,49.07488],[2.70523,49.06504],[2.69781,49.0644],[2.68991,49.06757],[2.69115,49.07062],[2.69502,49.07474],[2.67853,49.08545],[2.67739,49.08829],[2.67315,49.09086],[2.66277,49.09369],[2.66129,49.09674],[2.65903,49.09617],[2.65636,49.09851],[2.65021,49.10055],[2.64124,49.09909],[2.64071,49.10103],[2.63584,49.10181],[2.63647,49.1036],[2.63511,49.10455],[2.63655,49.10711],[2.63327,49.10838],[2.63064,49.10245],[2.62729,49.10223],[2.62763,49.10147],[2.62433,49.10036],[2.62488,49.09877],[2.623,49.09559],[2.6169,49.09389],[2.61034,49.09494],[2.61033,49.09305],[2.60818,49.09013],[2.59787,49.08179],[2.59052,49.07965],[2.58302,49.08065],[2.58273,49.08245],[2.57885,49.08445],[2.57989,49.08669],[2.57785,49.08804],[2.5799,49.08971],[2.57868,49.09195],[2.57108,49.09521],[2.56664,49.09419],[2.56289,49.09748],[2.56132,49.09694],[2.55817,49.09839],[2.55813,49.10378],[2.55575,49.10904],[2.55153,49.1126],[2.55602,49.11762],[2.55714,49.12171],[2.55702,49.12382],[2.55329,49.1246],[2.54744,49.12026],[2.54716,49.11621],[2.53976,49.11645],[2.53853,49.11861],[2.54367,49.11972],[2.54348,49.12147],[2.5408,49.12225],[2.53684,49.12],[2.53299,49.11938],[2.53106,49.0996],[2.51053,49.10417],[2.5052,49.10365],[2.48993,49.10636],[2.49159,49.11131],[2.50326,49.11758],[2.49923,49.12227],[2.47547,49.12832],[2.4776,49.13107],[2.47548,49.13116],[2.47158,49.13543],[2.46994,49.13453],[2.46755,49.13504],[2.46762,49.13584],[2.46151,49.13594],[2.46249,49.13912],[2.45823,49.14114],[2.44706,49.13559],[2.4354,49.13394],[2.4409,49.1458],[2.42542,49.14945],[2.41535,49.14993],[2.41536,49.15176],[2.4131,49.15235],[2.39129,49.14935],[2.38045,49.15804],[2.37637,49.15904],[2.37073,49.15865],[2.37023,49.15677],[2.36709,49.15583],[2.36485,49.1523],[2.36223,49.15255],[2.3593,49.14735],[2.35598,49.14869],[2.35348,49.15117],[2.35545,49.15329],[2.34626,49.16182],[2.34105,49.16505],[2.32561,49.17876],[2.31965,49.18232],[2.32178,49.18443],[2.31093,49.18641],[2.31059,49.18488],[2.3012,49.18389],[2.29943,49.17584],[2.29675,49.17619],[2.29421,49.17161],[2.2888,49.17071],[2.2895,49.16803],[2.28697,49.16717],[2.28756,49.16589],[2.28509,49.16571],[2.28641,49.15992],[2.27701,49.15892],[2.26812,49.15571],[2.26221,49.1583],[2.25378,49.15261],[2.24187,49.15342],[2.24158,49.15157],[2.22958,49.15129],[2.22301,49.15187],[2.21656,49.15469],[2.22258,49.15933],[2.22456,49.1623],[2.23541,49.16703],[2.23077,49.1708],[2.22392,49.17395],[2.21865,49.18068],[2.20968,49.17553],[2.20124,49.17417],[2.19905,49.17529],[2.19552,49.17318],[2.18245,49.17442],[2.18195,49.17368],[2.1761,49.17603],[2.17495,49.17501],[2.17983,49.17321],[2.18225,49.17038],[2.17937,49.17066],[2.17124,49.16769],[2.17113,49.16496],[2.16879,49.16395],[2.16393,49.16609],[2.15775,49.1726],[2.16499,49.17846],[2.16457,49.17967],[2.16149,49.17958],[2.15812,49.18214],[2.14829,49.18485],[2.14705,49.1881],[2.14056,49.18574],[2.14076,49.17892],[2.13695,49.17905],[2.13521,49.19118],[2.13185,49.19066],[2.1281,49.19341],[2.12551,49.19242],[2.12598,49.19126],[2.12207,49.18872],[2.11334,49.18654],[2.11104,49.18699],[2.10966,49.19073],[2.10362,49.18892],[2.10205,49.19044],[2.09771,49.18917],[2.09257,49.19411],[2.08946,49.19366],[2.08946,49.19604],[2.09255,49.19564],[2.09219,49.19771],[2.0902,49.19833],[2.09224,49.20121],[2.09073,49.2017],[2.09117,49.20854],[2.08816,49.20898],[2.08597,49.20628],[2.08283,49.20569],[2.08117,49.20681],[2.08089,49.21045],[2.07745,49.20968],[2.07725,49.20851],[2.07491,49.20869],[2.07199,49.20413],[2.05877,49.19997],[2.04753,49.19859],[2.04629,49.19642],[2.03966,49.19316],[2.03356,49.18811],[2.02178,49.18868],[2.00184,49.17594],[1.99039,49.17667],[1.98831,49.17887],[1.98399,49.17966],[1.98239,49.18145],[1.97344,49.1839],[1.97101,49.18079],[1.9627,49.17461],[1.94982,49.17035],[1.94533,49.17147],[1.9424,49.16997],[1.93491,49.17008],[1.93433,49.17356],[1.92451,49.17352],[1.92396,49.17227],[1.91626,49.17142],[1.89453,49.16604],[1.89489,49.16483],[1.88727,49.16435],[1.88742,49.16322],[1.88257,49.16249],[1.88321,49.16631],[1.87704,49.17145],[1.87677,49.17531],[1.86801,49.17187],[1.85822,49.16986],[1.85503,49.17199],[1.84449,49.17043],[1.83647,49.16454],[1.83462,49.16504],[1.83748,49.17318],[1.83493,49.17421],[1.8343,49.17564],[1.82796,49.17804],[1.82691,49.17961],[1.8194,49.17693],[1.81955,49.17598],[1.81567,49.17484],[1.81609,49.17386],[1.81169,49.17361],[1.81134,49.17464],[1.81461,49.17596],[1.81384,49.17802],[1.80355,49.17996],[1.80258,49.18493],[1.79547,49.18526],[1.79368,49.18364],[1.79433,49.18041],[1.79099,49.17986],[1.78979,49.18165],[1.78637,49.18308],[1.7867,49.18416],[1.78481,49.18583],[1.77592,49.1837],[1.75551,49.17459],[1.74083,49.18073],[1.74464,49.18318],[1.74125,49.18554],[1.73989,49.19207],[1.73649,49.19282],[1.73744,49.1946],[1.72682,49.19489],[1.72583,49.19571],[1.72505,49.20078],[1.72253,49.20097],[1.72208,49.2025],[1.71992,49.20154],[1.7184,49.20279],[1.71555,49.20266],[1.71477,49.20734],[1.72012,49.20679],[1.72198,49.21001],[1.72895,49.20957],[1.73369,49.21096],[1.73224,49.2156],[1.73546,49.21595],[1.73411,49.22128],[1.74045,49.22344],[1.72966,49.2292],[1.71534,49.23325],[1.71211,49.23302],[1.71319,49.23506],[1.71264,49.24119],[1.7094,49.24131],[1.71006,49.23907],[1.70885,49.2355],[1.70515,49.23427],[1.70436,49.2322],[1.69904,49.23487],[1.70195,49.23794],[1.70134,49.24387],[1.69874,49.24673],[1.70143,49.25246],[1.70772,49.25497],[1.7085,49.25776],[1.70694,49.2614],[1.70962,49.26217],[1.70917,49.26446],[1.72649,49.26479],[1.73672,49.27023],[1.73859,49.26902],[1.74472,49.26824],[1.74904,49.26868],[1.74988,49.26746],[1.75316,49.26802],[1.75663,49.27164],[1.75869,49.27236],[1.75704,49.26598],[1.75863,49.26563],[1.759,49.2627],[1.76188,49.26293],[1.76184,49.2615],[1.7651,49.26326],[1.767,49.26152],[1.76897,49.25605],[1.7669,49.25204],[1.77895,49.24859],[1.78908,49.24904],[1.79055,49.24657],[1.78981,49.25381],[1.80268,49.27195],[1.80266,49.27343],[1.79323,49.27433],[1.79505,49.27821],[1.79721,49.2801],[1.79444,49.28279],[1.79778,49.28523],[1.79754,49.28845],[1.79149,49.288],[1.78441,49.29323],[1.77791,49.29225],[1.77751,49.28981],[1.77448,49.29146],[1.77249,49.29109],[1.77217,49.29604],[1.77523,49.29789],[1.77577,49.29952],[1.77528,49.30572],[1.77326,49.30719],[1.7733,49.31049],[1.77068,49.31065],[1.77229,49.31407],[1.7676,49.31589],[1.76748,49.32048],[1.76925,49.3221],[1.76827,49.32363],[1.77046,49.32431],[1.77022,49.32745],[1.77234,49.32882],[1.77196,49.33201],[1.77434,49.33449],[1.77424,49.33715],[1.76753,49.34004],[1.7682,49.3413],[1.76557,49.34273],[1.76665,49.34457],[1.7596,49.35353],[1.76011,49.3556],[1.75818,49.35622],[1.75857,49.35866],[1.76152,49.36024],[1.75996,49.36307],[1.76096,49.36621],[1.75888,49.36688],[1.7567,49.37024],[1.75052,49.37053],[1.74759,49.37199],[1.74777,49.37469],[1.74583,49.37576],[1.74636,49.37765],[1.74489,49.38003],[1.73644,49.38358],[1.73022,49.39075],[1.72047,49.39398],[1.72003,49.39527],[1.72332,49.39736],[1.72629,49.3971],[1.72989,49.40077],[1.7338,49.40165],[1.74038,49.40568],[1.73457,49.40732],[1.72114,49.40621],[1.72116,49.40477],[1.71897,49.40345],[1.71601,49.40402],[1.71391,49.40657],[1.71394,49.40922],[1.71586,49.4105],[1.71497,49.41476],[1.71666,49.4172],[1.7201,49.41794],[1.72397,49.42241],[1.72078,49.42374],[1.72357,49.42731],[1.72209,49.42942],[1.72351,49.43109],[1.7226,49.43279],[1.72341,49.43455],[1.72864,49.43606],[1.72883,49.4371],[1.72395,49.43986],[1.72484,49.44139],[1.72738,49.4419],[1.73148,49.44034],[1.73353,49.44126],[1.73365,49.44248],[1.73611,49.44424],[1.73541,49.44549],[1.73642,49.4476],[1.73909,49.44934],[1.75146,49.45254],[1.75108,49.45596],[1.74773,49.4586],[1.75164,49.46108],[1.75618,49.46147],[1.76008,49.46329],[1.76188,49.46587],[1.76635,49.46615],[1.77359,49.47167],[1.77586,49.47133],[1.77581,49.47573],[1.77282,49.47792],[1.77322,49.47986],[1.77522,49.48049],[1.77649,49.48302],[1.77225,49.48493],[1.78061,49.49082],[1.78731,49.48954],[1.78863,49.49014],[1.7875,49.49143],[1.78883,49.49193],[1.78776,49.494],[1.79053,49.49793],[1.78777,49.49863],[1.79022,49.50347],[1.78907,49.50543],[1.77186,49.51285],[1.76807,49.51202],[1.76838,49.51022],[1.76694,49.50941],[1.76361,49.51124],[1.76133,49.51051],[1.75945,49.5114],[1.75686,49.5095],[1.75803,49.50878],[1.75737,49.50648],[1.7507,49.50372],[1.75121,49.50213],[1.74971,49.50104],[1.75264,49.49725],[1.74523,49.48885],[1.74376,49.48942],[1.74419,49.49477],[1.73957,49.49965],[1.73694,49.50031],[1.73117,49.49894],[1.72955,49.50028],[1.72546,49.49979],[1.72602,49.50179],[1.72504,49.50299],[1.71785,49.50296],[1.71639,49.50393],[1.71561,49.5056],[1.71747,49.50601],[1.72649,49.51387],[1.73801,49.51978],[1.74067,49.51836],[1.74134,49.51899],[1.73561,49.52481],[1.74405,49.52904],[1.74341,49.52975],[1.7443,49.53137],[1.74186,49.53294],[1.74721,49.53588],[1.7483,49.53845],[1.73905,49.54317],[1.73298,49.5412],[1.72718,49.54163],[1.7271,49.54261],[1.72348,49.5439],[1.72479,49.54476],[1.72434,49.54642],[1.72701,49.54913],[1.72826,49.55386],[1.72923,49.55383],[1.73037,49.55621],[1.72711,49.5579],[1.72983,49.56129],[1.72278,49.56705],[1.71401,49.57757],[1.71214,49.57693],[1.71088,49.57804],[1.7044,49.57635],[1.70335,49.57769],[1.70095,49.57687],[1.70213,49.57535],[1.69769,49.57221],[1.69455,49.57468],[1.69763,49.57748],[1.6997,49.57767],[1.69952,49.58041],[1.69406,49.57903],[1.69067,49.58],[1.69728,49.58243],[1.69826,49.58134],[1.70136,49.58249],[1.70213,49.58138],[1.70532,49.58117],[1.70574,49.57981],[1.7099,49.57962],[1.71588,49.58217],[1.72004,49.5816],[1.71974,49.58385],[1.72162,49.58881],[1.72015,49.58966],[1.70941,49.58671],[1.7052,49.59093],[1.70846,49.5949],[1.70369,49.59522],[1.70276,49.59774],[1.70114,49.59877],[1.69518,49.59973],[1.69373,49.60107],[1.69986,49.6024],[1.70706,49.60743],[1.71066,49.61231],[1.71747,49.61481],[1.71832,49.61883],[1.72161,49.62199],[1.72136,49.62468],[1.71725,49.63307],[1.71105,49.63511],[1.69868,49.6439],[1.70883,49.64638],[1.71231,49.65143],[1.71302,49.65459],[1.71972,49.6566],[1.72157,49.65855],[1.72313,49.67254],[1.73363,49.67394],[1.74162,49.67812],[1.75218,49.68096],[1.75238,49.68258],[1.75061,49.68526],[1.75084,49.6895],[1.749,49.69214],[1.75112,49.69439],[1.75041,49.69578],[1.74372,49.69921],[1.74354,49.70213],[1.74009,49.70135],[1.73395,49.69921],[1.72423,49.69381],[1.72143,49.69145],[1.71771,49.68437],[1.71474,49.68238],[1.71219,49.68121],[1.70451,49.68093],[1.70471,49.68202],[1.70181,49.68528],[1.68958,49.69479],[1.69688,49.69735],[1.70128,49.70101],[1.70557,49.70702],[1.71161,49.70507],[1.71376,49.70585],[1.71547,49.7086],[1.71426,49.7147],[1.71485,49.71781],[1.71283,49.72481],[1.71277,49.73389],[1.71423,49.73403],[1.71969,49.73047],[1.72323,49.73008],[1.72708,49.7324],[1.73966,49.73673],[1.74095,49.73859],[1.74546,49.73856],[1.74279,49.74709],[1.73915,49.74905],[1.74507,49.75447],[1.74492,49.7555],[1.74773,49.758],[1.74769,49.76096],[1.75029,49.76373],[1.75509,49.76194],[1.76078,49.75739],[1.76745,49.75666],[1.78476,49.75848],[1.78464,49.76357],[1.77919,49.76836],[1.78049,49.77012],[1.77292,49.77611],[1.77332,49.77696],[1.75794,49.7808],[1.75853,49.78337],[1.75752,49.78646],[1.75534,49.78807],[1.75476,49.79045],[1.75194,49.79403],[1.74506,49.7993],[1.74631,49.80003],[1.74662,49.80323],[1.74349,49.80411],[1.74389,49.80523],[1.74079,49.80742],[1.73921,49.80701],[1.73577,49.81031],[1.73411,49.81476],[1.7327,49.81582],[1.73394,49.81674],[1.73014,49.8214],[1.72976,49.82454],[1.72692,49.82839],[1.72766,49.83014],[1.72534,49.8327],[1.72704,49.83562],[1.72557,49.83647],[1.72638,49.83882],[1.72523,49.84173],[1.72567,49.84529],[1.71795,49.84758],[1.71729,49.84884],[1.72074,49.85038],[1.71897,49.85326],[1.72055,49.86027],[1.71873,49.86571],[1.71582,49.86525],[1.71174,49.87372],[1.71442,49.87598],[1.71179,49.88163],[1.71289,49.88298],[1.71284,49.88586],[1.71022,49.88931],[1.70695,49.88965],[1.70566,49.89194],[1.70245,49.89314],[1.69806,49.89276],[1.69196,49.89685],[1.69065,49.9021],[1.68924,49.90331],[1.68546,49.90365],[1.68571,49.90653],[1.68408,49.90859],[1.68462,49.91103],[1.67955,49.91378],[1.67817,49.91827],[1.67476,49.91892],[1.67012,49.92182],[1.66238,49.92199],[1.65958,49.92365],[1.65976,49.92504],[1.64605,49.92878],[1.63989,49.93181],[1.62103,49.93542],[1.61643,49.93916],[1.61454,49.94005],[1.61345,49.93883],[1.61176,49.9399],[1.61245,49.94135],[1.60337,49.94308],[1.59968,49.94702],[1.59478,49.94861],[1.58987,49.95532],[1.58735,49.95598],[1.58595,49.96074],[1.5776,49.96378],[1.57438,49.97001],[1.5761,49.97123],[1.57277,49.97486],[1.57024,49.97601],[1.56542,49.97598],[1.56332,49.97681],[1.56295,49.97812],[1.55827,49.97876],[1.55825,49.98002],[1.54734,49.98741],[1.54033,49.98889],[1.53969,49.99024],[1.53582,49.99134],[1.53237,49.99414],[1.52747,49.9951],[1.523,50.00365],[1.5185,50.00448],[1.51663,50.00634],[1.51654,50.00932],[1.51806,50.01047],[1.51635,50.01208],[1.51195,50.01396],[1.50985,50.01368],[1.49991,50.01935],[1.49658,50.01929],[1.49331,50.01774],[1.49135,50.01831],[1.49053,50.02145],[1.47792,50.02774],[1.47525,50.03209],[1.47081,50.03511],[1.45479,50.03778],[1.45219,50.04023],[1.45322,50.04227],[1.44935,50.04511],[1.44917,50.04687],[1.45558,50.04434],[1.45549,50.0488],[1.45638,50.04983],[1.45487,50.05572],[1.45915,50.0625],[1.45713,50.06257],[1.45484,50.06502],[1.45333,50.06438],[1.44906,50.06889],[1.43212,50.0706],[1.43146,50.07203],[1.42903,50.07058],[1.42651,50.07141],[1.42527,50.07028],[1.4236,50.07085],[1.42005,50.06602],[1.41695,50.06379],[1.41251,50.06253],[1.40926,50.05707],[1.40341,50.0572],[1.40127,50.05862],[1.39732,50.05829],[1.39587,50.06122],[1.3975,50.06351],[1.39632,50.06427],[1.39223,50.06353],[1.3932,50.06163],[1.39248,50.06083],[1.38655,50.06138],[1.38524,50.064],[1.38065,50.06437],[1.3927,50.07551],[1.4319,50.09358],[1.43941,50.09894],[1.44344,50.1005],[1.45252,50.10834],[1.46502,50.13245],[1.48278,50.17237],[1.49168,50.18416],[1.50367,50.19527],[1.51244,50.20171],[1.52713,50.20788],[1.54843,50.21522],[1.56474,50.21722],[1.56673,50.21493],[1.56331,50.21365],[1.56202,50.21203],[1.56005,50.21215],[1.55966,50.21079],[1.575,50.19673],[1.57424,50.19602],[1.58209,50.19188],[1.58362,50.19248],[1.5962,50.1855],[1.6131,50.19136],[1.62268,50.18921],[1.62639,50.1891],[1.62741,50.19],[1.64428,50.18521],[1.64404,50.18287],[1.64622,50.17757],[1.64754,50.1779],[1.64573,50.18243],[1.64679,50.18257],[1.66075,50.17991],[1.67335,50.17468],[1.6838,50.18303],[1.67083,50.1944],[1.67419,50.19577],[1.66758,50.20247],[1.67119,50.20397],[1.66267,50.2136],[1.65316,50.21592],[1.63971,50.21706],[1.63807,50.2183],[1.63199,50.21773],[1.62963,50.21618],[1.62923,50.21443],[1.62329,50.21412],[1.61313,50.22247],[1.60854,50.23027],[1.59842,50.2408],[1.5936,50.24429],[1.59197,50.25012],[1.59481,50.25179],[1.59223,50.25646],[1.58307,50.25483],[1.57701,50.25623],[1.5623,50.25576],[1.55918,50.25759],[1.55074,50.25929],[1.54931,50.26041],[1.54715,50.26871],[1.53968,50.2745],[1.53843,50.27858],[1.53795,50.28267],[1.54113,50.30175],[1.55003,50.34177],[1.55094,50.35032],[1.55583,50.36132],[1.56112,50.36379],[1.56696,50.36373],[1.57077,50.3625],[1.57134,50.35845],[1.61297,50.36029],[1.62426,50.36629],[1.62638,50.36581],[1.62668,50.36002],[1.63775,50.35303],[1.64154,50.35215],[1.6351,50.35598],[1.63138,50.36062],[1.63343,50.36464],[1.62962,50.36942],[1.62523,50.37183],[1.61928,50.37134],[1.61708,50.37218],[1.61171,50.36999],[1.6044,50.37372],[1.6009,50.37797],[1.59834,50.37576],[1.59421,50.37811],[1.58964,50.37849],[1.58425,50.37747],[1.58315,50.3762],[1.57892,50.38076],[1.57652,50.3811],[1.57202,50.38979],[1.5676,50.39453],[1.56581,50.39524],[1.56092,50.39435],[1.5566,50.39625],[1.55566,50.39768],[1.55579,50.40245],[1.56018,50.40909],[1.56402,50.42026],[1.56997,50.44448],[1.57701,50.49379],[1.57742,50.51653],[1.58298,50.5346],[1.58855,50.53935],[1.59381,50.53746],[1.59503,50.53557],[1.59327,50.53533],[1.59245,50.53345],[1.59897,50.52692],[1.60246,50.52964],[1.60941,50.52686],[1.63729,50.50967],[1.65224,50.50872],[1.65869,50.50642],[1.65917,50.50778],[1.64849,50.51117],[1.64235,50.51069],[1.63576,50.51312],[1.6265,50.52004],[1.62609,50.52349],[1.62066,50.5337],[1.61923,50.53496],[1.61527,50.53489],[1.61181,50.53931],[1.60845,50.53866],[1.61038,50.53666],[1.60863,50.5362],[1.60711,50.5387],[1.6034,50.54107],[1.60474,50.54539],[1.60259,50.5482],[1.58127,50.56277],[1.57661,50.57223],[1.57789,50.5854],[1.57957,50.58626],[1.5779,50.58806],[1.57833,50.60662],[1.57623,50.64099],[1.56898,50.67343],[1.56291,50.68544],[1.56217,50.696],[1.56071,50.69968],[1.56978,50.7076],[1.57169,50.71211],[1.57143,50.71529],[1.57325,50.71648],[1.5625,50.7244],[1.57043,50.72464],[1.57214,50.72752],[1.57476,50.7278],[1.57122,50.71969],[1.57436,50.71728],[1.57683,50.71822],[1.57322,50.7188],[1.57932,50.72609],[1.57816,50.72761],[1.58413,50.73116],[1.58632,50.7313],[1.59052,50.7298],[1.59082,50.72863],[1.58294,50.72553],[1.58205,50.72354],[1.59686,50.7275],[1.60134,50.72133],[1.60254,50.7216],[1.59805,50.72792],[1.59129,50.73049],[1.59409,50.73337],[1.59412,50.73935],[1.596,50.7462],[1.59597,50.74876],[1.5941,50.75023],[1.59894,50.75313],[1.60164,50.75715],[1.6056,50.7676],[1.60565,50.77389],[1.60453,50.7764],[1.60523,50.77789],[1.60242,50.78578],[1.60601,50.79192],[1.60331,50.80093],[1.60333,50.80435],[1.59969,50.80585],[1.59361,50.81866],[1.59393,50.82016],[1.58875,50.82525],[1.58997,50.82858],[1.58598,50.83906],[1.5809,50.85014],[1.57787,50.85304],[1.58185,50.87104],[1.58355,50.87182],[1.58873,50.87167],[1.59066,50.87052],[1.59923,50.87174],[1.603,50.87117],[1.6421,50.87887],[1.64992,50.88358],[1.66052,50.8876],[1.66734,50.89227],[1.67907,50.902],[1.69254,50.91538],[1.70586,50.9238],[1.71226,50.92941],[1.72617,50.93694],[1.73813,50.94158],[1.78072,50.95487],[1.83463,50.96337],[1.84435,50.96759],[1.8485,50.96384],[1.84716,50.96279],[1.84838,50.96091],[1.85149,50.96407],[1.85476,50.96324],[1.85404,50.96489],[1.84804,50.96635],[1.84889,50.96721],[1.85445,50.96701],[1.86624,50.96962],[1.8643,50.971],[1.85414,50.96881],[1.8527,50.97095],[1.87116,50.97493],[1.87494,50.97374],[1.88363,50.97463],[1.88655,50.97217],[1.88969,50.97231],[1.90436,50.97852],[1.90705,50.98141],[1.91578,50.98408],[1.92532,50.98457],[1.94172,50.98841],[1.95561,50.98805],[1.95754,50.98711],[1.96416,50.98758],[1.99273,50.99373],[2.02122,50.99516],[2.03606,50.99775],[2.04256,50.99709],[2.04541,50.99832],[2.0495,51.00274],[2.04871,51.00372],[2.07774,51.00792],[2.08451,51.00861],[2.09322,51.00423],[2.10296,51.00604],[2.12206,50.99048],[2.12291,50.99093],[2.1081,51.00416],[2.1147,51.00826],[2.12339,51.01107],[2.12437,51.01174],[2.12352,51.01416],[2.12586,51.01552],[2.14236,51.02238],[2.14336,51.0213],[2.13219,51.01526],[2.13284,51.01481],[2.14456,51.02104],[2.14499,51.02197],[2.14264,51.02449],[2.14291,51.02592],[2.14868,51.0289],[2.14851,51.03403],[2.15036,51.03433],[2.15132,51.0215],[2.15299,51.01992],[2.1549,51.01934],[2.16792,51.02206],[2.1673,51.02012],[2.17737,51.01519],[2.17089,51.01329],[2.17182,51.01159],[2.17481,51.01096],[2.17739,51.00679],[2.17966,51.00738],[2.18044,51.00827],[2.1798,51.00989],[2.18109,51.01093],[2.17892,51.01601],[2.19025,51.01804],[2.18775,51.02091],[2.17984,51.01983],[2.17511,51.02327],[2.19364,51.02779],[2.19182,51.03472],[2.19554,51.03562],[2.19304,51.03718],[2.19317,51.03858],[2.19125,51.04028],[2.18191,51.03992],[2.17056,51.04403],[2.17142,51.04434],[2.18277,51.04023],[2.19132,51.04127],[2.19516,51.04029],[2.19838,51.03827],[2.20046,51.03567],[2.20089,51.03324],[2.2031,51.0322],[2.21401,51.03168],[2.22469,51.03368],[2.23146,51.03642],[2.25902,51.04349],[2.33971,51.057],[2.34954,51.06059],[2.35525,51.05911],[2.36944,51.0503],[2.38105,51.04864],[2.39523,51.05033],[2.42475,51.05563],[2.48248,51.06994],[2.50061,51.07468],[2.54554,51.089],[2.5593,51.07099],[2.5629,51.06461],[2.56244,51.0585],[2.57598,51.01375],[2.57262,51.01323],[2.57141,51.01021],[2.57232,51.00793],[2.57502,51.00621],[2.57399,51.00352],[2.5828,50.99712],[2.59253,50.99293],[2.59595,50.9917],[2.6069,50.99091],[2.60689,50.98871],[2.60986,50.98538],[2.60642,50.98202],[2.60913,50.98067],[2.60854,50.97918],[2.61222,50.97473],[2.61072,50.97356],[2.61915,50.96715],[2.62217,50.96046],[2.62606,50.9565],[2.62852,50.95033],[2.63057,50.94939],[2.63269,50.94601],[2.6299,50.94323],[2.61766,50.94129],[2.61913,50.93696],[2.61791,50.93647],[2.61747,50.93432],[2.60877,50.93096],[2.60306,50.9277],[2.59471,50.9207],[2.59001,50.9191],[2.59219,50.91514],[2.5941,50.91437],[2.60406,50.9161],[2.60504,50.91394],[2.60754,50.91241],[2.60651,50.91075],[2.60795,50.91008],[2.60378,50.90438],[2.60576,50.90303],[2.6064,50.9014],[2.60547,50.90046],[2.60681,50.89853],[2.60944,50.89771],[2.60857,50.89632],[2.60935,50.8942],[2.60606,50.89138],[2.60669,50.88994],[2.60477,50.8877],[2.60482,50.88608],[2.60709,50.88599],[2.60778,50.88167],[2.60962,50.88139],[2.60967,50.87861],[2.60611,50.8739],[2.61103,50.86796],[2.61195,50.86341],[2.6016,50.85576],[2.59959,50.85333],[2.59906,50.84875],[2.60341,50.84924],[2.60418,50.84833],[2.61094,50.85034],[2.61248,50.84881],[2.61541,50.84827],[2.61558,50.84386],[2.61699,50.84116],[2.61627,50.83972],[2.61789,50.83828],[2.62195,50.83818],[2.62561,50.83656],[2.62727,50.82765],[2.63083,50.81861],[2.63498,50.81276],[2.65762,50.81365],[2.66802,50.82],[2.66932,50.82246],[2.67475,50.81931],[2.67882,50.81332],[2.7106,50.8134],[2.71061,50.81435],[2.71274,50.81515],[2.7239,50.81012],[2.72575,50.80872],[2.72144,50.80222],[2.72582,50.79245],[2.72993,50.79186],[2.72921,50.78934],[2.73751,50.78267],[2.73856,50.78059],[2.74118,50.78157],[2.74982,50.77862],[2.75348,50.77663],[2.75431,50.7746],[2.76215,50.77076],[2.75698,50.7631],[2.75817,50.76218],[2.76165,50.76307],[2.76419,50.76141],[2.76189,50.75944],[2.76605,50.75452],[2.77285,50.75472],[2.77487,50.75247],[2.77629,50.75318],[2.77827,50.75048],[2.78336,50.75091],[2.7835,50.74416],[2.78181,50.74331],[2.78674,50.73382],[2.7907,50.73178],[2.78968,50.72873],[2.79108,50.72823],[2.78958,50.72626],[2.79375,50.72624],[2.80342,50.72194],[2.80447,50.72058],[2.80891,50.71975],[2.81131,50.71755],[2.81504,50.71743],[2.81949,50.7154],[2.82262,50.71767],[2.83037,50.71981],[2.84006,50.72053],[2.84838,50.72292],[2.85312,50.71619],[2.87017,50.70291],[2.87366,50.70384],[2.87924,50.70282],[2.88565,50.70661],[2.89838,50.69424],[2.90607,50.69232],[2.91091,50.6945],[2.90879,50.7013],[2.90967,50.70272],[2.9116,50.70384],[2.92233,50.70281],[2.9247,50.70436],[2.92571,50.70746],[2.92993,50.7104],[2.93115,50.71754],[2.92946,50.72371],[2.93165,50.7282],[2.94521,50.73159],[2.94166,50.73718],[2.93863,50.73813],[2.93741,50.74277],[2.93871,50.74492],[2.94455,50.74696],[2.95048,50.75129],[2.95825,50.75345],[2.9612,50.75303],[2.96225,50.752],[2.96201,50.75001],[2.97335,50.75031],[2.97871,50.7533],[2.98109,50.75666],[2.99247,50.75983],[3.0121,50.76911],[3.01538,50.77152],[3.01419,50.77279],[3.0147,50.77404],[3.01712,50.77425],[3.02422,50.7708],[3.03386,50.76974],[3.03714,50.77135],[3.04088,50.77569],[3.05691,50.78063],[3.06138,50.7805],[3.07989,50.77303],[3.08871,50.77337],[3.09019,50.77439],[3.08973,50.77602],[3.10464,50.78181],[3.1068,50.78386],[3.10685,50.78741],[3.11092,50.79412],[3.11393,50.79433],[3.12186,50.7901],[3.12425,50.7886],[3.12499,50.78644],[3.15079,50.79012],[3.15354,50.7858],[3.15169,50.78513],[3.15095,50.7833],[3.154,50.77918],[3.1605,50.77357],[3.16668,50.76584],[3.17122,50.76253],[3.17228,50.75821],[3.17889,50.75542],[3.18167,50.75252],[3.18514,50.74845],[3.18557,50.74459],[3.18783,50.74012],[3.19235,50.73927],[3.19913,50.73473],[3.19678,50.73048],[3.19166,50.72756],[3.19123,50.72441],[3.19831,50.72054],[3.20467,50.72021],[3.20841,50.71866],[3.20958,50.7165],[3.20834,50.7153],[3.20859,50.71381],[3.20511,50.71245],[3.20926,50.71115],[3.21064,50.71271],[3.21848,50.71221],[3.22063,50.70953],[3.22754,50.71237],[3.23578,50.71307],[3.23951,50.71214],[3.24567,50.71317],[3.25207,50.70666],[3.25091,50.70536],[3.26117,50.70128],[3.25935,50.69514],[3.26116,50.69139],[3.25369,50.69114],[3.25371,50.68893],[3.25543,50.68645],[3.25874,50.68525],[3.258,50.68386],[3.26003,50.68232],[3.25937,50.68147],[3.26485,50.67612],[3.25287,50.67424],[3.2413,50.66871],[3.24266,50.66582],[3.24232,50.66227],[3.24011,50.65856],[3.24617,50.65281],[3.24549,50.65066],[3.24872,50.64981],[3.24937,50.64693],[3.24416,50.64054],[3.24948,50.63749],[3.24897,50.6366],[3.25234,50.63568],[3.25224,50.63388],[3.25902,50.63005],[3.2578,50.62592],[3.25623,50.62531],[3.2552,50.62258],[3.26366,50.6177],[3.26293,50.61654],[3.27003,50.61163],[3.27097,50.60497],[3.27393,50.60449],[3.27399,50.60049],[3.27631,50.6003],[3.27455,50.59667],[3.27947,50.59564],[3.2767,50.5913],[3.27809,50.59007],[3.27659,50.58946],[3.27617,50.58168],[3.27923,50.58009],[3.2826,50.57521],[3.28135,50.57256],[3.27851,50.57254],[3.27793,50.56432],[3.28321,50.56321],[3.28537,50.56166],[3.27596,50.55854],[3.27904,50.55523],[3.28115,50.55566],[3.28277,50.55178],[3.27867,50.55137],[3.28071,50.54331],[3.27913,50.53797],[3.28476,50.53483],[3.28521,50.53226],[3.28709,50.53117],[3.28653,50.52758],[3.28874,50.52553],[3.30808,50.51918],[3.32076,50.51871],[3.32059,50.51758],[3.32488,50.51306],[3.32803,50.51249],[3.32705,50.50953],[3.32886,50.50813],[3.33343,50.50751],[3.33732,50.50851],[3.36154,50.50384],[3.36478,50.50004],[3.36902,50.49771],[3.37084,50.49365],[3.37622,50.49108],[3.38642,50.49424],[3.39173,50.49836],[3.39606,50.4964],[3.39794,50.49849],[3.40859,50.49907],[3.40876,50.50041],[3.41651,50.50303],[3.41867,50.50248],[3.42937,50.50471],[3.43511,50.50966],[3.43867,50.51034],[3.43944,50.50723],[3.44242,50.50797],[3.44329,50.50634],[3.44507,50.50696],[3.44682,50.50595],[3.45008,50.50723],[3.45156,50.50978],[3.4506,50.51144],[3.45421,50.51519],[3.45374,50.51924],[3.46706,50.52765],[3.46794,50.52935],[3.47081,50.53093],[3.46993,50.53244],[3.47439,50.53361],[3.4911,50.52796],[3.49998,50.53008],[3.50433,50.52967],[3.50515,50.52836],[3.50882,50.52796],[3.51158,50.52578],[3.51832,50.52463],[3.51991,50.52332],[3.51796,50.52139],[3.51556,50.51216],[3.50947,50.50854],[3.5045,50.50733],[3.50321,50.50631],[3.50397,50.50548],[3.49632,50.49868],[3.49913,50.49511],[3.4976,50.49301],[3.49905,50.48877],[3.50098,50.487],[3.51468,50.49127],[3.52232,50.49497],[3.53193,50.49617],[3.53858,50.49453],[3.54451,50.4973],[3.55592,50.49759],[3.55828,50.4986],[3.56037,50.49782],[3.56892,50.50096],[3.57357,50.49854],[3.57187,50.4977],[3.57338,50.49664],[3.57888,50.49453],[3.57871,50.49272],[3.58534,50.49054],[3.59354,50.49131],[3.60709,50.49728],[3.60835,50.49673],[3.6185,50.48713],[3.63241,50.47988],[3.63014,50.47904],[3.63193,50.47727],[3.63202,50.47561],[3.63732,50.46877],[3.64365,50.46321],[3.6496,50.46445],[3.65444,50.46313],[3.6577,50.45914],[3.66233,50.45617],[3.66414,50.45273],[3.6602,50.44793],[3.65934,50.44496],[3.66382,50.44118],[3.66719,50.44056],[3.66917,50.43865],[3.66904,50.42314],[3.67231,50.4222],[3.67254,50.42053],[3.67048,50.41993],[3.67024,50.41665],[3.6715,50.41578],[3.67142,50.41345],[3.67332,50.41055],[3.67302,50.4048],[3.67484,50.40186],[3.67325,50.4008],[3.6723,50.39419],[3.67367,50.39032],[3.67296,50.38789],[3.66984,50.38649],[3.66563,50.37912],[3.66202,50.37543],[3.65802,50.37345],[3.6583,50.37014],[3.65715,50.36926],[3.65891,50.36688],[3.66427,50.36556],[3.66599,50.36379],[3.66728,50.36027],[3.6669,50.3564],[3.66773,50.35631],[3.66737,50.35055],[3.66676,50.34894],[3.66464,50.34847],[3.66552,50.34694],[3.66897,50.34694],[3.66925,50.3446],[3.67357,50.34345],[3.67315,50.34271],[3.67741,50.34028],[3.67368,50.33492],[3.67481,50.33303],[3.67847,50.33284],[3.67977,50.32892],[3.6843,50.32806],[3.68568,50.3271],[3.68527,50.32495],[3.69403,50.32148],[3.69283,50.31879],[3.68541,50.3196],[3.69466,50.3167],[3.69395,50.31411],[3.70104,50.31142],[3.71043,50.30317],[3.71966,50.30481],[3.71593,50.30652],[3.71568,50.30782],[3.71754,50.30893],[3.71561,50.31264],[3.71013,50.31477],[3.70948,50.31634],[3.71056,50.31765],[3.70912,50.31897],[3.71209,50.31961],[3.71863,50.3175],[3.72048,50.31596],[3.72105,50.31132],[3.728,50.30943],[3.7284,50.3105],[3.73056,50.31012],[3.73161,50.31235],[3.72945,50.31274],[3.72812,50.31545],[3.7317,50.31803],[3.73099,50.31987],[3.73209,50.32126],[3.72963,50.32394],[3.73022,50.33004],[3.73409,50.33004],[3.7348,50.3374],[3.73355,50.3381],[3.73827,50.34119],[3.73657,50.34318],[3.73945,50.34567],[3.73923,50.34765],[3.74211,50.34761],[3.74243,50.34887],[3.74691,50.34818],[3.74515,50.35022],[3.7474,50.35093],[3.75433,50.34976],[3.75417,50.34891],[3.75792,50.3495],[3.76355,50.34807],[3.76701,50.35316],[3.77046,50.351],[3.77566,50.35323],[3.78332,50.35354],[3.79878,50.35133],[3.80311,50.35263],[3.80546,50.3557],[3.81367,50.35317],[3.81524,50.3496],[3.81166,50.34488],[3.81546,50.34479],[3.82194,50.34564],[3.82411,50.34778],[3.82423,50.35344],[3.83304,50.35243],[3.83699,50.35297],[3.83859,50.35438],[3.84741,50.3531],[3.85276,50.35159],[3.85744,50.34825],[3.85903,50.34513],[3.85741,50.34286],[3.86234,50.34365],[3.86221,50.34149],[3.87229,50.33794],[3.88101,50.33819],[3.88762,50.34107],[3.8885,50.33741],[3.88615,50.33646],[3.88795,50.33571],[3.88952,50.33637],[3.8898,50.32998],[3.88606,50.32706],[3.89699,50.32876],[3.90005,50.32728],[3.91098,50.32903],[3.9679,50.35037],[3.96847,50.34676],[3.96676,50.34382],[3.96856,50.34294],[3.96583,50.34127],[3.96736,50.34057],[3.97144,50.34357],[3.97229,50.34766],[3.98595,50.34207],[3.98839,50.34356],[3.98731,50.34461],[3.98895,50.34549],[3.9887,50.34657],[3.99356,50.34866],[3.99901,50.3476],[4.00148,50.35026],[4.01166,50.35025],[4.01713,50.35214],[4.01544,50.35375],[4.01738,50.35664],[4.02196,50.35689],[4.02371,50.35889],[4.02783,50.35834],[4.02701,50.35687],[4.03025,50.35519],[4.03101,50.35293],[4.03397,50.35087],[4.03494,50.34848],[4.03355,50.34715],[4.03953,50.34149],[4.04257,50.33982],[4.05503,50.33856],[4.05378,50.33512],[4.0556,50.33478],[4.0558,50.3324],[4.06515,50.33064],[4.06619,50.32823],[4.07061,50.32426],[4.07764,50.32101],[4.07898,50.31699],[4.07889,50.30975],[4.08157,50.30895],[4.08786,50.31191],[4.09343,50.31276],[4.0951,50.31198],[4.09717,50.31321],[4.10284,50.31061],[4.10974,50.30178],[4.11411,50.30216],[4.11712,50.30405],[4.11917,50.30213],[4.11788,50.30161],[4.1188,50.29993],[4.12272,50.29785],[4.1252,50.28922],[4.12589,50.28499],[4.12472,50.28001],[4.12163,50.27768],[4.1247,50.27331],[4.13666,50.2743],[4.13445,50.26606],[4.13778,50.26493],[4.13876,50.2633],[4.13843,50.25993],[4.13496,50.25909],[4.13538,50.25719],[4.1466,50.25868],[4.15046,50.257],[4.15612,50.2566],[4.16366,50.25729],[4.16535,50.25979],[4.16761,50.2597],[4.16847,50.26612],[4.16443,50.26852],[4.1639,50.2715],[4.14956,50.27466],[4.14973,50.27679],[4.1554,50.28012],[4.1553,50.28489],[4.16104,50.28467],[4.16268,50.28892],[4.16987,50.288],[4.16897,50.28472],[4.17667,50.28443],[4.17608,50.27967],[4.1747,50.27843],[4.17649,50.27728],[4.17683,50.2757],[4.18129,50.27446],[4.1865,50.27523],[4.19325,50.27387],[4.2011,50.27482],[4.20796,50.273],[4.21247,50.26808],[4.216,50.26141],[4.22,50.25973],[4.22185,50.25695],[4.2207,50.2522],[4.21231,50.24587],[4.20511,50.24265],[4.20429,50.24002],[4.19906,50.24046],[4.19775,50.2394],[4.19393,50.24027],[4.18174,50.23156],[4.18034,50.22762],[4.1725,50.22005],[4.17195,50.21898],[4.17317,50.21807],[4.17165,50.21692],[4.16929,50.2175],[4.16624,50.2162],[4.16613,50.21485],[4.15164,50.21346],[4.15275,50.20817],[4.15557,50.20467],[4.16012,50.20254],[4.16077,50.19781],[4.15986,50.19225],[4.15625,50.19284],[4.15775,50.18989],[4.15652,50.18761],[4.15663,50.18371],[4.15145,50.17982],[4.1481,50.1734],[4.15581,50.17198],[4.15567,50.16425],[4.15377,50.16076],[4.15103,50.15856],[4.1463,50.15746],[4.13775,50.15162],[4.13467,50.14177],[4.13167,50.14029],[4.12693,50.13501],[4.13059,50.13379],[4.132,50.1321],[4.14371,50.12904],[4.15488,50.12842],[4.15751,50.13553],[4.17984,50.13356],[4.19704,50.13531],[4.20073,50.13292],[4.19783,50.12878],[4.19825,50.1268],[4.20342,50.12118],[4.20249,50.11718],[4.20354,50.11524],[4.19707,50.10873],[4.19763,50.10702],[4.2064,50.10602],[4.20727,50.10489],[4.20124,50.10076],[4.20684,50.09572],[4.21002,50.09648],[4.21298,50.09544],[4.21513,50.09316],[4.21711,50.08832],[4.22128,50.0859],[4.2249,50.08562],[4.22547,50.08184],[4.22754,50.07968],[4.23112,50.07127],[4.228,50.06637],[4.21783,50.06081],[4.19851,50.0564],[4.19398,50.04921],[4.18982,50.05043],[4.18954,50.04927],[4.18585,50.04932],[4.18404,50.04769],[4.17391,50.0456],[4.17311,50.04674],[4.16421,50.04783],[4.16222,50.04898],[4.15428,50.03991],[4.15222,50.03902],[4.14895,50.03219],[4.14429,50.03073],[4.14443,50.02879],[4.13578,50.01939],[4.13578,50.01341],[4.14066,50.00974],[4.1448,50.00847],[4.14208,50.00662],[4.14295,50.00574],[4.1448,50.00675],[4.14769,50.00581],[4.14568,50.00391],[4.1548,49.9999],[4.15836,50.00178],[4.16086,50.00137],[4.16208,50.00037],[4.16313,49.99477],[4.16005,49.99293],[4.15452,49.98479],[4.14863,49.98394],[4.1447,49.97955],[4.1409,49.97876]]]}}]}