{"type":"FeatureCollection","features":[{"type":"Feature","properties":{"reg_name":"francia-grandest","source":"IGN Admin Express via france-geojson, Licence Ouverte 2.0"},"geometry":{"type":"Polygon","coordinates":[[[4.23316,49.95775],[4.23955,49.9588],[4.24148,49.96124],[4.26931,49.96531],[4.29051,49.96371],[4.2973,49.96458],[4.30874,49.9697],[4.31342,49.96651],[4.3229,49.96312],[4.32664,49.96256],[4.33365,49.96356],[4.33742,49.96206],[4.35012,49.95203],[4.36428,49.95251],[4.37107,49.95136],[4.3815,49.95423],[4.38346,49.95123],[4.38919,49.94942],[4.38968,49.9481],[4.39169,49.94744],[4.39375,49.94853],[4.40408,49.94906],[4.41561,49.94666],[4.41843,49.94698],[4.4357,49.94069],[4.44053,49.94108],[4.44449,49.93751],[4.44694,49.9375],[4.48161,49.94785],[4.48619,49.94596],[4.48735,49.94702],[4.49522,49.9485],[4.51041,49.94668],[4.51919,49.95152],[4.52326,49.95041],[4.52464,49.95325],[4.53157,49.96015],[4.53073,49.96142],[4.54224,49.9693],[4.54952,49.96821],[4.56425,49.97014],[4.57218,49.97448],[4.57384,49.9771],[4.5737,49.9803],[4.58208,49.98357],[4.59757,49.98623],[4.60512,49.98545],[4.62436,49.98639],[4.62957,49.98771],[4.63318,49.98706],[4.63725,49.98924],[4.64194,49.98955],[4.64374,49.99078],[4.65818,49.99377],[4.66363,49.99389],[4.66622,49.99666],[4.67118,49.99714],[4.67672,49.99542],[4.68441,49.99648],[4.69358,49.99552],[4.69461,49.99668],[4.68783,50.00078],[4.68646,50.00287],[4.68673,50.00544],[4.68498,50.00704],[4.68854,50.01137],[4.68639,50.01303],[4.68591,50.01579],[4.68578,50.02047],[4.68717,50.02454],[4.68465,50.02724],[4.68751,50.02849],[4.68885,50.0321],[4.69112,50.03433],[4.69184,50.03766],[4.69664,50.04269],[4.69552,50.04546],[4.69582,50.04892],[4.69894,50.05124],[4.69967,50.05356],[4.69796,50.05409],[4.6959,50.05908],[4.69134,50.05747],[4.68631,50.05752],[4.68449,50.063],[4.68018,50.06645],[4.68041,50.06807],[4.68516,50.0695],[4.68846,50.07259],[4.68841,50.07637],[4.69302,50.08482],[4.69466,50.08533],[4.70208,50.09553],[4.71341,50.09701],[4.71562,50.10069],[4.75135,50.11174],[4.753,50.11675],[4.74781,50.12229],[4.75596,50.12164],[4.76275,50.13445],[4.76216,50.1364],[4.77975,50.14143],[4.80581,50.15261],[4.82258,50.16832],[4.82507,50.16912],[4.82391,50.1669],[4.82429,50.16073],[4.82951,50.15729],[4.83224,50.15323],[4.84437,50.15383],[4.85164,50.15214],[4.87601,50.15391],[4.87953,50.15154],[4.8786,50.14971],[4.88245,50.14307],[4.88124,50.14134],[4.88797,50.14015],[4.89497,50.14036],[4.89708,50.13779],[4.89489,50.1346],[4.89101,50.13415],[4.88484,50.13006],[4.87838,50.13087],[4.8784,50.12723],[4.87064,50.12465],[4.87085,50.12343],[4.86718,50.1187],[4.87366,50.10754],[4.87035,50.1031],[4.86792,50.09673],[4.87596,50.09417],[4.87213,50.08773],[4.8686,50.0884],[4.8605,50.09266],[4.86,50.0935],[4.86171,50.09705],[4.8585,50.09991],[4.85089,50.10132],[4.84853,50.09787],[4.83908,50.09466],[4.83765,50.09289],[4.84212,50.09139],[4.84632,50.08492],[4.8463,50.08312],[4.84055,50.08287],[4.84287,50.07748],[4.83793,50.06711],[4.82959,50.06775],[4.81931,50.06588],[4.82133,50.06494],[4.81876,50.06108],[4.82128,50.05963],[4.82738,50.05909],[4.82903,50.05713],[4.82652,50.0517],[4.82727,50.05011],[4.83178,50.04668],[4.8383,50.04713],[4.84042,50.04632],[4.84132,50.04],[4.84039,50.03759],[4.83458,50.03461],[4.82959,50.03401],[4.82788,50.03048],[4.81938,50.0258],[4.822,50.0222],[4.81813,50.02012],[4.817,50.01564],[4.82112,50.01173],[4.81598,50.00271],[4.81595,49.99789],[4.81894,49.99514],[4.81311,49.98914],[4.81006,49.98808],[4.80702,49.98432],[4.80378,49.98264],[4.7933,49.9821],[4.79535,49.97702],[4.79011,49.97002],[4.79092,49.9584],[4.79641,49.95824],[4.80724,49.95441],[4.81497,49.95406],[4.82187,49.95144],[4.8275,49.95128],[4.83024,49.94892],[4.84044,49.95074],[4.84711,49.94902],[4.85019,49.94647],[4.85391,49.93879],[4.85905,49.93185],[4.87033,49.92768],[4.88078,49.92229],[4.88152,49.92048],[4.88042,49.91662],[4.88998,49.90927],[4.88631,49.90557],[4.88082,49.90563],[4.87741,49.9045],[4.8762,49.90137],[4.88517,49.90208],[4.88727,49.89866],[4.8846,49.89664],[4.87737,49.89425],[4.8766,49.89161],[4.86922,49.88367],[4.8714,49.87994],[4.87084,49.87865],[4.86629,49.87824],[4.86346,49.87453],[4.86182,49.87123],[4.86308,49.86726],[4.85914,49.86509],[4.8512,49.86499],[4.85159,49.85373],[4.85522,49.84805],[4.85761,49.84641],[4.8576,49.84182],[4.86729,49.84195],[4.86902,49.83424],[4.8664,49.8334],[4.86912,49.83104],[4.86879,49.82309],[4.87693,49.8194],[4.87571,49.81709],[4.86514,49.81318],[4.86606,49.8106],[4.86266,49.80167],[4.85939,49.79994],[4.85959,49.79738],[4.85148,49.79355],[4.85792,49.79189],[4.86353,49.78901],[4.87085,49.78935],[4.86954,49.79343],[4.87912,49.79299],[4.88726,49.78805],[4.89844,49.7892],[4.90051,49.7864],[4.90574,49.78548],[4.92174,49.78859],[4.93093,49.78685],[4.93222,49.78975],[4.93886,49.79284],[4.94403,49.79228],[4.94613,49.79498],[4.94671,49.79797],[4.95712,49.8017],[4.95829,49.8],[4.96261,49.79785],[4.96802,49.79889],[4.96894,49.80176],[4.97753,49.80137],[4.98454,49.79973],[4.99536,49.80061],[4.99878,49.79963],[4.99916,49.79661],[4.99751,49.79557],[4.99796,49.7947],[5.00029,49.79424],[5.00431,49.78924],[5.00722,49.78767],[5.00702,49.78346],[5.01355,49.78009],[5.03667,49.77172],[5.06138,49.76687],[5.06318,49.76193],[5.07168,49.76114],[5.07844,49.76282],[5.08358,49.76257],[5.08585,49.76349],[5.08758,49.76589],[5.0935,49.76373],[5.11851,49.73834],[5.11849,49.73546],[5.12468,49.7274],[5.12307,49.71731],[5.12562,49.71585],[5.12564,49.71238],[5.13,49.7135],[5.1393,49.71359],[5.14107,49.71301],[5.14364,49.7093],[5.14989,49.71436],[5.15132,49.71752],[5.15331,49.71838],[5.15822,49.71682],[5.1653,49.71197],[5.16585,49.70714],[5.16446,49.70475],[5.16385,49.699],[5.16494,49.69601],[5.16437,49.69368],[5.16621,49.69292],[5.19247,49.69489],[5.19607,49.69362],[5.19569,49.69193],[5.19882,49.69212],[5.20517,49.69614],[5.20882,49.69457],[5.21817,49.68746],[5.23162,49.69099],[5.24294,49.68863],[5.24285,49.68598],[5.2494,49.68784],[5.25581,49.69407],[5.26314,49.69484],[5.26727,49.69652],[5.27067,49.69532],[5.28076,49.68903],[5.28167,49.68802],[5.28117,49.68569],[5.28396,49.68594],[5.28656,49.68181],[5.28979,49.68138],[5.29525,49.67642],[5.30888,49.67153],[5.31141,49.66863],[5.31394,49.66789],[5.32541,49.65927],[5.32853,49.65825],[5.332,49.65478],[5.33277,49.65279],[5.31762,49.64637],[5.31827,49.64456],[5.31207,49.63847],[5.30879,49.63689],[5.30807,49.63417],[5.30491,49.63006],[5.30493,49.62457],[5.31121,49.61739],[5.31208,49.61166],[5.3135,49.6108],[5.31815,49.6133],[5.31847,49.61441],[5.32591,49.61632],[5.33036,49.61681],[5.33334,49.61569],[5.3402,49.61686],[5.33859,49.61767],[5.34279,49.62188],[5.34352,49.62812],[5.34725,49.63135],[5.35151,49.63079],[5.357,49.62659],[5.35936,49.62681],[5.36259,49.62506],[5.36351,49.62301],[5.37521,49.62315],[5.38157,49.61952],[5.39354,49.61709],[5.39833,49.61507],[5.40089,49.61078],[5.41099,49.6083],[5.41848,49.59974],[5.42361,49.59879],[5.42855,49.59587],[5.43099,49.59278],[5.42878,49.5897],[5.42927,49.58748],[5.43366,49.58034],[5.43797,49.56974],[5.44386,49.5676],[5.45681,49.56667],[5.44829,49.55673],[5.44721,49.55387],[5.44135,49.55214],[5.44197,49.55082],[5.44864,49.54826],[5.46507,49.53887],[5.46604,49.53586],[5.46503,49.53297],[5.46679,49.5259],[5.46043,49.5249],[5.45538,49.52144],[5.45496,49.52014],[5.4472,49.51788],[5.44914,49.51585],[5.45402,49.51441],[5.45378,49.51258],[5.46113,49.51097],[5.46562,49.5087],[5.46413,49.50383],[5.46519,49.4989],[5.47091,49.49721],[5.47472,49.49756],[5.47857,49.49984],[5.48035,49.50207],[5.47949,49.5036],[5.48384,49.50712],[5.50191,49.50677],[5.51707,49.50922],[5.53273,49.51298],[5.53526,49.51467],[5.54118,49.51526],[5.5436,49.51735],[5.54529,49.52325],[5.54951,49.52651],[5.55605,49.52925],[5.56077,49.52736],[5.56071,49.52646],[5.56487,49.52568],[5.56653,49.52762],[5.57103,49.52784],[5.58819,49.52164],[5.59075,49.52288],[5.59345,49.52191],[5.6023,49.51559],[5.60104,49.51328],[5.60385,49.51212],[5.60362,49.50866],[5.61098,49.50593],[5.61242,49.50999],[5.6159,49.51241],[5.62136,49.51955],[5.61951,49.52477],[5.61593,49.52713],[5.61712,49.52939],[5.62463,49.53633],[5.62959,49.53906],[5.6328,49.53956],[5.63053,49.54192],[5.63469,49.54297],[5.63416,49.54425],[5.64359,49.5469],[5.64298,49.54997],[5.64781,49.54989],[5.65012,49.55126],[5.65178,49.55018],[5.65654,49.55108],[5.66051,49.55361],[5.66413,49.55293],[5.66923,49.54851],[5.67887,49.54899],[5.68167,49.54828],[5.68129,49.54569],[5.69004,49.54638],[5.70208,49.53932],[5.70676,49.53991],[5.70752,49.53897],[5.71421,49.54059],[5.71493,49.53926],[5.71743,49.54031],[5.71876,49.5395],[5.72192,49.54023],[5.72448,49.54434],[5.72734,49.5438],[5.73328,49.54547],[5.73257,49.54406],[5.73613,49.54268],[5.73884,49.53986],[5.73861,49.53865],[5.74738,49.53943],[5.75732,49.54305],[5.75566,49.54607],[5.75776,49.55042],[5.75563,49.5561],[5.75953,49.55802],[5.75832,49.56121],[5.76508,49.56124],[5.77145,49.56325],[5.77581,49.56218],[5.77882,49.55853],[5.78069,49.55969],[5.79197,49.5517],[5.8004,49.54965],[5.80778,49.55055],[5.81233,49.54723],[5.81572,49.54825],[5.81748,49.54563],[5.80815,49.54257],[5.80855,49.54089],[5.81278,49.54179],[5.8172,49.537],[5.83696,49.54247],[5.83887,49.53733],[5.84588,49.52995],[5.83442,49.5263],[5.83456,49.52336],[5.83657,49.51962],[5.8412,49.51682],[5.84857,49.51439],[5.84898,49.51065],[5.85062,49.50826],[5.85882,49.50599],[5.86385,49.50083],[5.86909,49.49878],[5.87106,49.49982],[5.87368,49.49838],[5.88485,49.49902],[5.88952,49.49671],[5.8956,49.49643],[5.90325,49.49827],[5.90883,49.50161],[5.91189,49.50202],[5.92112,49.5006],[5.92758,49.49822],[5.93055,49.50068],[5.93243,49.49964],[5.93399,49.50064],[5.93994,49.50097],[5.94311,49.50023],[5.94195,49.49834],[5.94873,49.49641],[5.95193,49.49397],[5.97238,49.49112],[5.97382,49.48901],[5.96859,49.48652],[5.97117,49.48306],[5.97285,49.48332],[5.97492,49.4806],[5.97463,49.47782],[5.97143,49.47549],[5.97175,49.46953],[5.97383,49.46781],[5.97417,49.46482],[5.97865,49.46122],[5.98153,49.46158],[5.98255,49.46343],[5.98765,49.46241],[5.98794,49.46056],[5.98559,49.45586],[5.98229,49.45705],[5.97896,49.45499],[5.979,49.45292],[5.98254,49.45106],[5.99745,49.45652],[6.0009,49.45659],[6.00759,49.45175],[6.01094,49.45345],[6.01391,49.45249],[6.0159,49.45387],[6.02171,49.45499],[6.02637,49.45456],[6.02783,49.45573],[6.02973,49.45514],[6.02706,49.45275],[6.02643,49.44984],[6.02748,49.44823],[6.03067,49.44939],[6.04215,49.4478],[6.05264,49.46412],[6.05777,49.46621],[6.06733,49.46478],[6.07215,49.46543],[6.07353,49.46358],[6.07969,49.46374],[6.08,49.45896],[6.08729,49.45495],[6.0921,49.45434],[6.09237,49.45307],[6.10081,49.45289],[6.1014,49.45782],[6.0986,49.46089],[6.09813,49.46463],[6.09951,49.46752],[6.10269,49.46921],[6.10208,49.47022],[6.10838,49.47209],[6.11162,49.47251],[6.11377,49.47066],[6.11819,49.47118],[6.12347,49.47344],[6.12233,49.47576],[6.12678,49.48153],[6.1264,49.49001],[6.12786,49.49374],[6.13275,49.48998],[6.14167,49.49184],[6.14098,49.48642],[6.15285,49.49152],[6.15274,49.49278],[6.15541,49.49345],[6.15702,49.49164],[6.16217,49.49323],[6.15382,49.50138],[6.15525,49.50381],[6.16104,49.5053],[6.1622,49.50413],[6.17654,49.50991],[6.1762,49.5083],[6.17808,49.50648],[6.18079,49.50774],[6.19575,49.5054],[6.20153,49.50674],[6.2147,49.50639],[6.21673,49.50682],[6.2162,49.50911],[6.21706,49.50986],[6.2198,49.50878],[6.22682,49.51017],[6.23564,49.50807],[6.23894,49.51372],[6.24071,49.51451],[6.24093,49.51185],[6.24437,49.5116],[6.24637,49.50896],[6.25641,49.51002],[6.25747,49.50778],[6.26189,49.50682],[6.26242,49.50472],[6.26484,49.50397],[6.27072,49.50472],[6.2791,49.50336],[6.28031,49.50032],[6.27889,49.49638],[6.27978,49.49454],[6.28242,49.49311],[6.28799,49.49449],[6.28955,49.49322],[6.28817,49.49152],[6.28445,49.49155],[6.28637,49.48816],[6.28886,49.48735],[6.28755,49.48632],[6.28901,49.48469],[6.29087,49.48458],[6.29242,49.48746],[6.29605,49.48724],[6.29824,49.4887],[6.29881,49.48724],[6.29514,49.48119],[6.29616,49.48016],[6.29879,49.48022],[6.30561,49.47731],[6.31276,49.48027],[6.31499,49.47714],[6.31894,49.47807],[6.32484,49.4749],[6.32963,49.47014],[6.33283,49.4695],[6.33378,49.46689],[6.34247,49.46916],[6.34794,49.466],[6.35294,49.46722],[6.36439,49.45949],[6.36886,49.45982],[6.36667,49.46692],[6.36768,49.46942],[6.37199,49.46863],[6.37214,49.46619],[6.37428,49.46612],[6.37519,49.4646],[6.38042,49.46523],[6.37981,49.46623],[6.39326,49.46428],[6.40762,49.46752],[6.4153,49.4717],[6.42051,49.47633],[6.42625,49.47546],[6.42809,49.47692],[6.43457,49.47255],[6.43345,49.47168],[6.44043,49.46667],[6.44298,49.46828],[6.45122,49.46597],[6.45225,49.46426],[6.45588,49.46301],[6.46474,49.46648],[6.46578,49.4649],[6.46847,49.4649],[6.47008,49.46276],[6.48697,49.45163],[6.49815,49.45068],[6.50897,49.44539],[6.5162,49.43963],[6.52536,49.43529],[6.53456,49.43549],[6.53805,49.43275],[6.53902,49.43358],[6.5419,49.43244],[6.54149,49.43178],[6.54387,49.42967],[6.5522,49.42467],[6.55214,49.42225],[6.55364,49.42057],[6.55612,49.42102],[6.55704,49.41909],[6.55236,49.41679],[6.54701,49.41712],[6.53789,49.41065],[6.53739,49.40801],[6.54053,49.40115],[6.54465,49.40176],[6.5479,49.40002],[6.55185,49.39982],[6.55118,49.39722],[6.55205,49.39453],[6.55959,49.39252],[6.56342,49.38815],[6.57673,49.38973],[6.58003,49.38551],[6.58707,49.38494],[6.58768,49.38298],[6.58602,49.38142],[6.58462,49.37647],[6.58389,49.36863],[6.59508,49.37144],[6.5985,49.36961],[6.59965,49.36665],[6.60183,49.36647],[6.59646,49.35946],[6.59172,49.35806],[6.59268,49.35559],[6.59013,49.35475],[6.58967,49.35102],[6.58796,49.34973],[6.58498,49.35106],[6.58543,49.35293],[6.58169,49.35613],[6.57678,49.35676],[6.57424,49.35853],[6.56376,49.35589],[6.56584,49.34735],[6.57087,49.34338],[6.57536,49.34182],[6.57845,49.33838],[6.57731,49.33648],[6.57795,49.3352],[6.5811,49.33414],[6.58584,49.33707],[6.59445,49.33144],[6.5956,49.32951],[6.58888,49.32209],[6.59098,49.31994],[6.60527,49.31216],[6.60996,49.30669],[6.61275,49.30591],[6.61574,49.30168],[6.61768,49.30263],[6.62525,49.30284],[6.62805,49.29857],[6.63222,49.29766],[6.63176,49.29603],[6.63653,49.29612],[6.6397,49.29458],[6.64371,49.29003],[6.648,49.28789],[6.6504,49.28837],[6.6521,49.28652],[6.6514,49.28583],[6.65323,49.28112],[6.65623,49.28127],[6.66032,49.28369],[6.66289,49.2818],[6.67037,49.28029],[6.66853,49.27752],[6.66604,49.27669],[6.66787,49.27134],[6.66607,49.26759],[6.66033,49.26097],[6.66153,49.25733],[6.66444,49.25456],[6.67549,49.25726],[6.67751,49.25541],[6.68371,49.25334],[6.68787,49.24914],[6.68976,49.24969],[6.69055,49.24764],[6.68783,49.2446],[6.6851,49.24374],[6.68462,49.24232],[6.68526,49.24022],[6.68865,49.23802],[6.68929,49.23219],[6.69039,49.23129],[6.68814,49.22445],[6.68849,49.22227],[6.69593,49.21501],[6.7114,49.2181],[6.71966,49.22138],[6.72334,49.21905],[6.7315,49.20609],[6.71136,49.18854],[6.72028,49.17583],[6.72522,49.17342],[6.73851,49.16366],[6.74965,49.16656],[6.76206,49.16469],[6.77379,49.16765],[6.78456,49.16809],[6.79019,49.16628],[6.79515,49.16306],[6.80255,49.16192],[6.81107,49.15794],[6.81704,49.15773],[6.83454,49.15147],[6.84765,49.1573],[6.8453,49.16001],[6.84436,49.16339],[6.84512,49.1679],[6.84387,49.17313],[6.85868,49.17488],[6.85967,49.17765],[6.86177,49.17944],[6.86183,49.18157],[6.85894,49.18393],[6.85856,49.18638],[6.84978,49.19416],[6.85218,49.19865],[6.85154,49.20048],[6.84215,49.20855],[6.83538,49.21132],[6.83778,49.21332],[6.85745,49.22228],[6.86313,49.22197],[6.87005,49.21876],[6.87133,49.21548],[6.87324,49.21454],[6.89244,49.20883],[6.90026,49.21373],[6.91069,49.21513],[6.9143,49.21683],[6.91882,49.21972],[6.91816,49.22203],[6.9199,49.22309],[6.92545,49.22359],[6.92907,49.22191],[6.9379,49.2222],[6.94039,49.21642],[6.95173,49.20727],[6.9597,49.20299],[6.96552,49.20662],[6.97497,49.20976],[6.99151,49.20139],[6.99653,49.19785],[6.99881,49.19428],[7.00915,49.19392],[7.0107,49.18812],[7.014,49.18861],[7.01553,49.19153],[7.02099,49.19324],[7.02336,49.18923],[7.02783,49.19094],[7.03503,49.19064],[7.03319,49.18797],[7.03358,49.18188],[7.02828,49.17543],[7.02765,49.17008],[7.02893,49.16702],[7.03328,49.16293],[7.03167,49.15762],[7.04111,49.14701],[7.04585,49.13912],[7.04685,49.13592],[7.04462,49.12195],[7.04521,49.11941],[7.04976,49.11453],[7.0543,49.11263],[7.06609,49.11458],[7.06786,49.116],[7.06784,49.12011],[7.07194,49.12475],[7.08888,49.13022],[7.09002,49.13226],[7.0819,49.14123],[7.08403,49.14416],[7.08085,49.14682],[7.08028,49.14877],[7.08332,49.1532],[7.09116,49.15184],[7.10093,49.15562],[7.10558,49.15538],[7.10683,49.1547],[7.10728,49.15244],[7.11327,49.15169],[7.10406,49.14608],[7.10278,49.14415],[7.10278,49.1405],[7.10391,49.13892],[7.11664,49.13987],[7.12247,49.14185],[7.12626,49.14187],[7.13205,49.13361],[7.13159,49.13182],[7.13449,49.13057],[7.13602,49.12853],[7.14077,49.12806],[7.14384,49.12577],[7.15033,49.12532],[7.1588,49.12078],[7.1636,49.12706],[7.16645,49.12869],[7.16822,49.12727],[7.17495,49.12941],[7.17696,49.12829],[7.17809,49.12852],[7.17792,49.13024],[7.18372,49.12995],[7.18415,49.13151],[7.18643,49.13019],[7.18744,49.1279],[7.1904,49.128],[7.19188,49.12632],[7.1908,49.12572],[7.19668,49.12211],[7.19799,49.11515],[7.20063,49.11612],[7.20383,49.12008],[7.20405,49.12224],[7.20868,49.12466],[7.23041,49.12639],[7.23572,49.12873],[7.2453,49.12981],[7.24911,49.12739],[7.26635,49.12259],[7.26777,49.1237],[7.27291,49.12429],[7.27787,49.12246],[7.28172,49.1245],[7.28389,49.12359],[7.2826,49.11693],[7.29374,49.1151],[7.2982,49.11711],[7.30421,49.1229],[7.3042,49.12474],[7.30611,49.1275],[7.31048,49.12983],[7.31487,49.13812],[7.32371,49.14269],[7.32984,49.14494],[7.34093,49.14523],[7.34533,49.14323],[7.35995,49.14377],[7.36326,49.14525],[7.36141,49.15272],[7.36311,49.1571],[7.36904,49.16154],[7.36593,49.16405],[7.3648,49.16644],[7.36508,49.17184],[7.36609,49.17247],[7.44478,49.18423],[7.44618,49.18308],[7.43626,49.18],[7.43571,49.17832],[7.4367,49.17647],[7.43937,49.17582],[7.44154,49.17292],[7.44067,49.17048],[7.4333,49.16821],[7.43264,49.16588],[7.43646,49.16423],[7.43942,49.16433],[7.44729,49.16871],[7.45523,49.16633],[7.45784,49.163],[7.45951,49.16257],[7.46408,49.16417],[7.46742,49.16722],[7.47313,49.16868],[7.48311,49.17017],[7.494,49.16964],[7.49256,49.16447],[7.49299,49.16072],[7.49578,49.15508],[7.49769,49.15577],[7.5064,49.15492],[7.50571,49.15027],[7.5016,49.14906],[7.49701,49.14525],[7.49566,49.1436],[7.4969,49.1422],[7.49553,49.14103],[7.49028,49.14204],[7.48958,49.13653],[7.49674,49.1354],[7.50568,49.12251],[7.51147,49.12257],[7.51725,49.11955],[7.52035,49.115],[7.52176,49.10817],[7.52506,49.10437],[7.52871,49.10367],[7.5299,49.10195],[7.52898,49.09721],[7.53822,49.09625],[7.53601,49.09346],[7.54539,49.08808],[7.56319,49.08046],[7.56901,49.07979],[7.59998,49.08333],[7.60485,49.08193],[7.62015,49.0742],[7.62935,49.07368],[7.63084,49.07281],[7.63143,49.07003],[7.6307,49.06569],[7.63287,49.0636],[7.63302,49.05855],[7.63163,49.05524],[7.63529,49.05416],[7.67449,49.04504],[7.68136,49.04896],[7.68411,49.04833],[7.68607,49.04937],[7.69708,49.04975],[7.69727,49.05142],[7.69269,49.05474],[7.69611,49.05782],[7.6979,49.05611],[7.70061,49.05702],[7.70486,49.05637],[7.70656,49.05549],[7.70784,49.05285],[7.71783,49.05392],[7.72024,49.05146],[7.72275,49.0513],[7.72666,49.05499],[7.73182,49.05561],[7.73136,49.04774],[7.73223,49.04436],[7.73574,49.04392],[7.74082,49.0472],[7.74646,49.04648],[7.75072,49.04795],[7.75818,49.04534],[7.76943,49.04774],[7.77027,49.05045],[7.77681,49.05685],[7.78069,49.05857],[7.78826,49.05812],[7.79213,49.06144],[7.79459,49.06579],[7.81037,49.06139],[7.81426,49.05574],[7.82577,49.05249],[7.83103,49.04732],[7.834,49.04759],[7.84229,49.04565],[7.84328,49.04349],[7.84603,49.04282],[7.8494,49.04419],[7.85144,49.0421],[7.85213,49.03788],[7.85549,49.03542],[7.86068,49.03526],[7.8663,49.0334],[7.86879,49.03416],[7.87247,49.03825],[7.8803,49.04327],[7.88218,49.04603],[7.88823,49.04862],[7.90178,49.04462],[7.91034,49.04511],[7.91216,49.04232],[7.9167,49.04097],[7.92315,49.04431],[7.92729,49.05055],[7.93139,49.05422],[7.9318,49.05782],[7.93376,49.05803],[7.94025,49.05615],[7.94062,49.05449],[7.9456,49.05547],[7.94579,49.04983],[7.94983,49.04846],[7.94959,49.04712],[7.95766,49.0451],[7.95675,49.0432],[7.96502,49.04275],[7.96685,49.04144],[7.96697,49.03639],[7.97219,49.03594],[7.97362,49.03218],[7.97296,49.03073],[7.97525,49.02971],[7.9747,49.02697],[7.98337,49.02607],[7.99449,49.02894],[8.0005,49.02823],[8.00248,49.02619],[8.00647,49.0258],[8.00824,49.0243],[8.0102,49.02525],[8.01304,49.02338],[8.01258,49.02117],[8.01915,49.02025],[8.02445,49.01809],[8.03318,49.01802],[8.04491,49.0139],[8.04922,49.01418],[8.05181,49.01296],[8.05254,49.01103],[8.05498,49.0107],[8.05678,49.00783],[8.06331,49.00546],[8.06496,49.00238],[8.06415,49.00131],[8.06474,48.99997],[8.06849,48.99916],[8.06871,48.99749],[8.07067,48.99593],[8.08459,48.99294],[8.08714,48.9919],[8.08691,48.99054],[8.09757,48.98857],[8.10176,48.98945],[8.10903,48.98698],[8.11663,48.98637],[8.11975,48.98472],[8.12339,48.9855],[8.1285,48.98249],[8.13123,48.98309],[8.13269,48.98118],[8.13538,48.98109],[8.13639,48.97941],[8.13945,48.9783],[8.14352,48.97868],[8.15281,48.97695],[8.16053,48.97841],[8.17032,48.97625],[8.17015,48.97935],[8.17873,48.97877],[8.18037,48.97736],[8.1847,48.97851],[8.18841,48.97656],[8.19441,48.97743],[8.19786,48.97243],[8.196,48.96896],[8.19857,48.96748],[8.20681,48.97043],[8.21434,48.97509],[8.22274,48.97597],[8.22773,48.9731],[8.23006,48.96847],[8.23334,48.96668],[8.20303,48.95994],[8.1958,48.95621],[8.17678,48.93201],[8.16153,48.91815],[8.14794,48.90381],[8.13588,48.88847],[8.12259,48.86714],[8.10877,48.83699],[8.10606,48.82369],[8.10387,48.81965],[8.09155,48.8057],[8.07711,48.7953],[8.06513,48.78977],[8.05894,48.78881],[8.03956,48.79056],[8.03479,48.78945],[8.02913,48.78648],[8.02548,48.78139],[8.02283,48.76836],[8.01895,48.76376],[8.01471,48.76118],[8.00495,48.75878],[7.98176,48.76101],[7.97176,48.75763],[7.96972,48.75544],[7.96761,48.74873],[7.96726,48.72702],[7.96314,48.72135],[7.89089,48.6631],[7.86748,48.65275],[7.84828,48.64696],[7.84249,48.64395],[7.83788,48.6385],[7.83326,48.6256],[7.82871,48.61771],[7.80417,48.59233],[7.80176,48.58827],[7.79999,48.58141],[7.80545,48.55928],[7.80556,48.55039],[7.80304,48.53608],[7.80642,48.52542],[7.80655,48.51725],[7.80114,48.50755],[7.7947,48.50209],[7.77557,48.49454],[7.7682,48.48966],[7.76667,48.48495],[7.76589,48.46155],[7.76303,48.45141],[7.73598,48.40416],[7.73185,48.3929],[7.73085,48.38358],[7.73146,48.37806],[7.74503,48.33567],[7.74466,48.32784],[7.7422,48.32381],[7.7358,48.31906],[7.70684,48.3104],[7.69989,48.30681],[7.69338,48.30153],[7.68934,48.29328],[7.68919,48.28059],[7.67616,48.24497],[7.66602,48.22088],[7.66152,48.21707],[7.64973,48.21129],[7.64346,48.20649],[7.62947,48.18337],[7.60115,48.15838],[7.59907,48.15243],[7.60082,48.1423],[7.59916,48.13576],[7.59237,48.12989],[7.58288,48.12652],[7.57731,48.12037],[7.57718,48.11669],[7.57996,48.10602],[7.57967,48.10234],[7.5774,48.09596],[7.56994,48.08511],[7.56923,48.0814],[7.57381,48.05304],[7.57269,48.04728],[7.56912,48.039],[7.56869,48.03411],[7.57162,48.03038],[7.60878,48.00027],[7.61359,47.99456],[7.61862,47.9859],[7.62143,47.9778],[7.62209,47.97227],[7.61732,47.96356],[7.60883,47.95318],[7.58921,47.93802],[7.58329,47.93112],[7.58052,47.92403],[7.58351,47.90358],[7.58187,47.89649],[7.57694,47.89148],[7.56567,47.88667],[7.56006,47.8834],[7.5567,47.87994],[7.55547,47.87351],[7.55592,47.86795],[7.56355,47.85213],[7.56311,47.84379],[7.56147,47.83868],[7.54971,47.82257],[7.54532,47.81128],[7.53126,47.78676],[7.52963,47.77891],[7.53011,47.77293],[7.53224,47.7681],[7.54808,47.73959],[7.54866,47.73668],[7.54767,47.72992],[7.54347,47.72195],[7.54026,47.7184],[7.51375,47.70282],[7.51248,47.70139],[7.51185,47.69704],[7.51952,47.68471],[7.5193,47.67017],[7.52114,47.66373],[7.53842,47.64881],[7.55868,47.63843],[7.56647,47.6329],[7.57031,47.62709],[7.57361,47.61667],[7.59103,47.60474],[7.5928,47.60178],[7.59217,47.59536],[7.58606,47.58419],[7.58457,47.57862],[7.58489,47.57563],[7.56709,47.57761],[7.55671,47.57231],[7.55632,47.57102],[7.55907,47.56918],[7.5572,47.56503],[7.54776,47.56185],[7.53579,47.55513],[7.5307,47.55423],[7.52497,47.55151],[7.52553,47.55095],[7.51926,47.54614],[7.50611,47.54434],[7.5,47.53979],[7.49804,47.53599],[7.50166,47.53218],[7.50079,47.53006],[7.5014,47.52872],[7.50739,47.52814],[7.51108,47.52906],[7.51926,47.53455],[7.52452,47.53188],[7.52739,47.53261],[7.53143,47.52829],[7.52771,47.52155],[7.52393,47.51893],[7.52405,47.5155],[7.52294,47.51424],[7.52054,47.51561],[7.51914,47.51482],[7.51762,47.51696],[7.51126,47.51652],[7.5057,47.51425],[7.50348,47.51461],[7.4993,47.52084],[7.4978,47.52123],[7.49876,47.51667],[7.50817,47.51089],[7.50974,47.50843],[7.51089,47.50257],[7.50866,47.50212],[7.51098,47.49666],[7.50233,47.49376],[7.5013,47.49285],[7.50247,47.49077],[7.49987,47.491],[7.4981,47.48894],[7.49394,47.48831],[7.49106,47.48402],[7.48686,47.48173],[7.47612,47.48],[7.47091,47.48042],[7.46211,47.4891],[7.45786,47.48856],[7.4509,47.49008],[7.44637,47.49353],[7.43476,47.49797],[7.43185,47.49607],[7.42196,47.48379],[7.42111,47.48045],[7.42955,47.48242],[7.43184,47.4807],[7.43609,47.4806],[7.44623,47.47686],[7.44827,47.47385],[7.45021,47.47533],[7.45563,47.47298],[7.45566,47.4705],[7.4496,47.46689],[7.44538,47.46171],[7.43007,47.45928],[7.42792,47.45711],[7.42843,47.45331],[7.42278,47.45054],[7.42421,47.44957],[7.42103,47.44611],[7.4142,47.44208],[7.40837,47.4409],[7.40287,47.4382],[7.40341,47.43552],[7.39272,47.43482],[7.38558,47.43162],[7.38244,47.43293],[7.38115,47.43186],[7.36814,47.43418],[7.35569,47.43378],[7.34508,47.43603],[7.34487,47.43731],[7.33902,47.44089],[7.33071,47.44157],[7.32078,47.43839],[7.30288,47.43871],[7.29977,47.436],[7.29613,47.43531],[7.29389,47.43346],[7.28346,47.43481],[7.26949,47.42671],[7.25437,47.42406],[7.24618,47.42022],[7.24541,47.42629],[7.24378,47.42803],[7.23895,47.42823],[7.23755,47.43036],[7.23866,47.43374],[7.23281,47.43881],[7.22365,47.43961],[7.20668,47.43482],[7.19972,47.43503],[7.19631,47.43535],[7.19383,47.43803],[7.18906,47.43967],[7.17077,47.44305],[7.17823,47.4585],[7.17739,47.45949],[7.17874,47.46046],[7.17926,47.46337],[7.17725,47.4676],[7.19142,47.48877],[7.1957,47.48918],[7.20231,47.49169],[7.20105,47.49391],[7.17161,47.48951],[7.16175,47.49005],[7.15895,47.49076],[7.15222,47.49635],[7.13791,47.50213],[7.13035,47.50303],[7.13595,47.50698],[7.13788,47.5106],[7.13946,47.51937],[7.14346,47.52461],[7.13981,47.52606],[7.13788,47.53065],[7.13656,47.53143],[7.13594,47.53713],[7.13363,47.53896],[7.12224,47.54423],[7.11878,47.54759],[7.11007,47.54897],[7.10687,47.55054],[7.10809,47.55211],[7.10712,47.55611],[7.10842,47.56303],[7.10553,47.56889],[7.09904,47.57303],[7.09417,47.57364],[7.09232,47.57835],[7.09067,47.57919],[7.0897,47.58313],[7.08715,47.58433],[7.08599,47.58699],[7.0875,47.58846],[7.08627,47.59256],[7.08089,47.59423],[7.08107,47.59612],[7.07403,47.59887],[7.07367,47.59771],[7.07016,47.59633],[7.07041,47.60071],[7.06686,47.59976],[7.06587,47.60128],[7.05437,47.59855],[7.05186,47.60049],[7.04758,47.59868],[7.04774,47.60083],[7.03978,47.60115],[7.03393,47.59411],[7.02542,47.59268],[7.02464,47.58922],[7.01956,47.58854],[7.01944,47.59012],[7.01574,47.59179],[7.01635,47.59266],[7.02014,47.59253],[7.02158,47.5938],[7.01932,47.5961],[7.01217,47.60044],[7.00921,47.59939],[7.00594,47.60236],[7.0105,47.60502],[7.00738,47.60654],[7.00876,47.60937],[7.00607,47.61289],[7.00718,47.61496],[7.00498,47.61938],[7.00757,47.61938],[7.00791,47.62302],[7.00593,47.62892],[7.01128,47.63039],[7.0142,47.62567],[7.01693,47.62719],[7.01263,47.63141],[7.01396,47.63199],[7.01275,47.63362],[7.01355,47.63494],[7.01591,47.63601],[7.01463,47.63742],[7.01218,47.63765],[7.01207,47.63932],[7.01917,47.64125],[7.01688,47.64413],[7.0176,47.64986],[7.01981,47.65068],[7.03489,47.64944],[7.03919,47.65057],[7.03418,47.66109],[7.03553,47.66338],[7.0404,47.66494],[7.04168,47.66745],[7.04506,47.66935],[7.04631,47.6715],[7.04237,47.67207],[7.03791,47.6745],[7.03895,47.67854],[7.04135,47.67855],[7.04296,47.6795],[7.04288,47.68092],[7.04771,47.68199],[7.04803,47.6841],[7.04011,47.68572],[7.03641,47.69137],[7.03634,47.69222],[7.03865,47.69258],[7.03764,47.69469],[7.03316,47.69528],[7.03367,47.69963],[7.02649,47.701],[7.02927,47.70873],[7.03381,47.71548],[7.03674,47.71699],[7.03573,47.72126],[7.03742,47.72164],[7.03412,47.72506],[7.02155,47.73327],[7.01596,47.74323],[7.01305,47.74128],[7.00041,47.74557],[6.98818,47.74782],[6.98136,47.75155],[6.97227,47.75147],[6.97046,47.75437],[6.96428,47.75602],[6.95995,47.75957],[6.95474,47.76099],[6.95247,47.76405],[6.94352,47.76653],[6.94043,47.77157],[6.93466,47.77159],[6.93165,47.76971],[6.92678,47.7695],[6.92452,47.76987],[6.92216,47.77281],[6.91398,47.77719],[6.91063,47.77791],[6.90209,47.77645],[6.89262,47.77745],[6.88009,47.78248],[6.87139,47.7817],[6.86699,47.78331],[6.86244,47.78637],[6.86074,47.78981],[6.86217,47.79097],[6.86009,47.79436],[6.85441,47.79564],[6.84845,47.80187],[6.84855,47.80448],[6.85025,47.80714],[6.84268,47.81216],[6.84102,47.819],[6.84618,47.82295],[6.84308,47.82505],[6.83932,47.82478],[6.83424,47.81868],[6.82384,47.81426],[6.82354,47.81305],[6.81633,47.81887],[6.81109,47.81997],[6.81121,47.82149],[6.8036,47.82404],[6.80035,47.82587],[6.79992,47.82741],[6.79268,47.82946],[6.78843,47.83449],[6.79255,47.8405],[6.79223,47.84222],[6.78261,47.85128],[6.77016,47.85198],[6.76447,47.85346],[6.76386,47.85731],[6.76066,47.85828],[6.75605,47.85918],[6.75464,47.85842],[6.74724,47.85956],[6.7453,47.86112],[6.73784,47.86167],[6.73525,47.86492],[6.7306,47.86622],[6.73022,47.86809],[6.71073,47.87525],[6.70924,47.87752],[6.70618,47.87858],[6.70284,47.88172],[6.69689,47.88271],[6.68359,47.89032],[6.67642,47.89027],[6.67175,47.89288],[6.66693,47.89378],[6.66298,47.89712],[6.65808,47.89851],[6.6548,47.90107],[6.64642,47.90323],[6.63929,47.91029],[6.64191,47.91776],[6.63308,47.92142],[6.62904,47.92516],[6.6303,47.92836],[6.62737,47.93009],[6.61855,47.93141],[6.6125,47.93604],[6.60752,47.94167],[6.60737,47.94379],[6.60289,47.94472],[6.58977,47.94245],[6.57781,47.93703],[6.56828,47.93449],[6.56342,47.93139],[6.55943,47.92432],[6.55203,47.91549],[6.55225,47.91157],[6.54396,47.90845],[6.54401,47.90309],[6.5212,47.90017],[6.50321,47.89622],[6.47826,47.88544],[6.47409,47.891],[6.47761,47.8919],[6.47798,47.89304],[6.47247,47.89353],[6.46552,47.89711],[6.46229,47.89943],[6.4583,47.90582],[6.45596,47.90677],[6.46044,47.91345],[6.46343,47.91407],[6.46113,47.9164],[6.46274,47.91733],[6.45883,47.91855],[6.45778,47.92052],[6.45291,47.92002],[6.44916,47.92173],[6.44755,47.92341],[6.44809,47.92613],[6.44125,47.93115],[6.44093,47.93301],[6.4363,47.9365],[6.43473,47.94285],[6.43192,47.94381],[6.41823,47.94267],[6.40842,47.94319],[6.40536,47.95311],[6.39933,47.95495],[6.39451,47.95502],[6.39219,47.95622],[6.39034,47.95921],[6.39103,47.96036],[6.38893,47.96079],[6.38516,47.95899],[6.38057,47.95852],[6.36616,47.96194],[6.36155,47.96134],[6.36093,47.95852],[6.3588,47.95783],[6.35635,47.95913],[6.35364,47.95868],[6.34528,47.95447],[6.33897,47.95446],[6.33532,47.95584],[6.32969,47.95392],[6.32327,47.94883],[6.31907,47.95014],[6.30729,47.95013],[6.29596,47.95552],[6.28908,47.95584],[6.27733,47.95381],[6.25077,47.93907],[6.24324,47.93964],[6.2387,47.93709],[6.23799,47.93284],[6.21917,47.93576],[6.21442,47.93038],[6.20522,47.93205],[6.20535,47.93541],[6.20833,47.93959],[6.2083,47.94198],[6.20702,47.94355],[6.20806,47.94676],[6.20057,47.94804],[6.19712,47.94744],[6.19654,47.94957],[6.19737,47.95179],[6.19089,47.95395],[6.18664,47.95354],[6.18202,47.9563],[6.17388,47.95225],[6.16798,47.95235],[6.16208,47.95678],[6.16075,47.95871],[6.16069,47.96448],[6.15706,47.96793],[6.15527,47.96654],[6.15557,47.96505],[6.14981,47.96592],[6.14945,47.96854],[6.15094,47.97056],[6.16455,47.97311],[6.16375,47.97527],[6.16489,47.97613],[6.16447,47.97773],[6.16186,47.97862],[6.15758,47.98448],[6.16049,47.98938],[6.15956,47.99229],[6.15733,47.99209],[6.15265,47.99414],[6.15242,47.99838],[6.15516,48.00288],[6.15606,48.00694],[6.15209,48.00955],[6.14836,48.01445],[6.13861,48.01719],[6.13439,48.02007],[6.1314,48.02408],[6.12309,48.02058],[6.11735,48.01995],[6.1137,48.01773],[6.10923,48.01247],[6.09774,48.01504],[6.08081,48.01279],[6.07277,48.0158],[6.05571,48.00882],[6.04118,48.00442],[6.03251,47.99862],[6.03089,47.99453],[6.03216,47.99062],[6.02492,47.99157],[6.02468,47.98712],[6.019,47.98748],[6.01817,47.98422],[6.02267,47.98151],[6.02373,47.9822],[6.02609,47.98145],[6.01729,47.9725],[6.01896,47.9697],[6.01214,47.97185],[6.00947,47.96707],[6.00624,47.96402],[6.00897,47.96087],[6.00527,47.95784],[6.00226,47.95609],[5.99697,47.95702],[5.99579,47.95832],[5.98937,47.95663],[5.98734,47.95823],[5.98398,47.95621],[5.98189,47.95785],[5.97078,47.95721],[5.9689,47.94741],[5.96371,47.94581],[5.96032,47.94354],[5.96054,47.94258],[5.95697,47.93936],[5.94939,47.93545],[5.9375,47.93682],[5.93543,47.93593],[5.93404,47.93724],[5.92839,47.93781],[5.93241,47.94179],[5.93193,47.94374],[5.93329,47.94383],[5.93731,47.94793],[5.9379,47.95157],[5.94183,47.95239],[5.94645,47.95517],[5.94665,47.95701],[5.94806,47.9571],[5.95182,47.96108],[5.95382,47.96102],[5.95952,47.96584],[5.96013,47.96803],[5.95848,47.96848],[5.95882,47.97049],[5.94955,47.97294],[5.94976,47.97609],[5.94749,47.97922],[5.9442,47.98004],[5.94347,47.97921],[5.93947,47.97946],[5.93689,47.979],[5.93403,47.97644],[5.93249,47.97729],[5.92254,47.97198],[5.91738,47.96623],[5.9194,47.96428],[5.92048,47.9566],[5.91881,47.95674],[5.9173,47.95021],[5.91804,47.94736],[5.90011,47.94475],[5.8929,47.93714],[5.89626,47.93429],[5.89718,47.93098],[5.88358,47.92491],[5.8834,47.92145],[5.88957,47.92059],[5.88639,47.91591],[5.89086,47.91083],[5.8873,47.90364],[5.88278,47.90004],[5.88069,47.90178],[5.86997,47.90071],[5.86509,47.90279],[5.8563,47.90379],[5.85132,47.90599],[5.84839,47.90433],[5.84817,47.90091],[5.84578,47.89931],[5.84285,47.89441],[5.83748,47.89124],[5.83687,47.8881],[5.83863,47.88539],[5.83668,47.88528],[5.83488,47.88231],[5.83115,47.88049],[5.8207,47.8691],[5.82452,47.8652],[5.82247,47.86455],[5.82529,47.85865],[5.82806,47.85803],[5.82732,47.85711],[5.82241,47.85748],[5.82463,47.85571],[5.81785,47.85325],[5.81857,47.85197],[5.82661,47.85416],[5.82568,47.85536],[5.82646,47.85615],[5.82967,47.85623],[5.82949,47.85336],[5.82798,47.85187],[5.82367,47.85232],[5.81602,47.84885],[5.79608,47.84675],[5.79579,47.84923],[5.79724,47.85009],[5.79888,47.8557],[5.78468,47.85528],[5.77476,47.85804],[5.76732,47.85565],[5.76513,47.85805],[5.76119,47.85933],[5.75606,47.85332],[5.75341,47.85178],[5.74965,47.85247],[5.7442,47.84885],[5.7455,47.84413],[5.74359,47.84235],[5.74473,47.84042],[5.74675,47.84068],[5.74808,47.83839],[5.74588,47.8375],[5.74716,47.83149],[5.74563,47.8295],[5.75056,47.83031],[5.75108,47.82903],[5.74723,47.82842],[5.74525,47.82668],[5.74422,47.82225],[5.74076,47.8192],[5.73626,47.81771],[5.7303,47.81773],[5.72465,47.82021],[5.72326,47.81949],[5.72168,47.82174],[5.72067,47.82068],[5.70418,47.82207],[5.70108,47.82364],[5.69224,47.82133],[5.68989,47.8191],[5.68975,47.81681],[5.68686,47.8133],[5.68153,47.80911],[5.68218,47.80479],[5.68123,47.79734],[5.67895,47.79296],[5.67715,47.7835],[5.6784,47.78315],[5.67661,47.77916],[5.67956,47.77822],[5.68213,47.77553],[5.67997,47.76997],[5.68985,47.76888],[5.69656,47.77039],[5.70509,47.76911],[5.70753,47.76755],[5.70921,47.76372],[5.70752,47.76112],[5.70926,47.75711],[5.70611,47.75153],[5.70958,47.7453],[5.70646,47.74247],[5.69334,47.73754],[5.69039,47.73515],[5.68869,47.73047],[5.69522,47.726],[5.69404,47.72442],[5.68706,47.72246],[5.68833,47.71936],[5.68342,47.71671],[5.68584,47.71507],[5.68412,47.71197],[5.68785,47.71096],[5.69353,47.70481],[5.69276,47.6988],[5.69387,47.69535],[5.69504,47.69487],[5.69464,47.69159],[5.69106,47.68463],[5.68752,47.68567],[5.68589,47.68293],[5.68123,47.68626],[5.67536,47.68193],[5.67105,47.68223],[5.66772,47.68543],[5.66444,47.68417],[5.66348,47.68493],[5.65924,47.68311],[5.65931,47.68113],[5.65341,47.67738],[5.64796,47.67533],[5.64404,47.67679],[5.64032,47.67586],[5.63026,47.67696],[5.61692,47.6735],[5.61164,47.67321],[5.60878,47.67347],[5.60609,47.6752],[5.60123,47.67525],[5.59668,47.67169],[5.59416,47.67523],[5.59432,47.67666],[5.59256,47.67743],[5.59178,47.68083],[5.59278,47.68189],[5.58464,47.69066],[5.58509,47.70015],[5.58209,47.70112],[5.58206,47.70293],[5.56739,47.70712],[5.5672,47.70523],[5.55887,47.69872],[5.55824,47.69715],[5.55042,47.69237],[5.54067,47.68418],[5.53881,47.68099],[5.53092,47.67523],[5.52978,47.67283],[5.51203,47.67358],[5.5078,47.67645],[5.50323,47.67684],[5.48277,47.68463],[5.47419,47.68046],[5.47257,47.67672],[5.47027,47.67503],[5.46207,47.67273],[5.45443,47.67307],[5.4475,47.67083],[5.43381,47.67133],[5.42952,47.67432],[5.42018,47.67767],[5.41816,47.6762],[5.40634,47.6734],[5.40264,47.65672],[5.39905,47.65325],[5.39906,47.64992],[5.40017,47.64846],[5.40431,47.64875],[5.40575,47.64687],[5.39959,47.64302],[5.39643,47.64234],[5.38582,47.63511],[5.38624,47.63451],[5.38302,47.63163],[5.38329,47.63049],[5.38067,47.62912],[5.3817,47.6282],[5.37743,47.62479],[5.3726,47.61839],[5.37405,47.61791],[5.37173,47.61473],[5.37408,47.60454],[5.37193,47.6041],[5.36974,47.60541],[5.36704,47.60472],[5.36403,47.59863],[5.36263,47.59867],[5.35929,47.59372],[5.35677,47.59378],[5.35557,47.59147],[5.34404,47.59574],[5.34211,47.59466],[5.34073,47.59623],[5.34547,47.60474],[5.34426,47.60554],[5.3427,47.60495],[5.33983,47.60723],[5.34103,47.60837],[5.33306,47.61114],[5.32234,47.61236],[5.31926,47.61073],[5.31809,47.60766],[5.31455,47.60621],[5.30636,47.60728],[5.29821,47.60434],[5.29925,47.60269],[5.294,47.59788],[5.28477,47.59469],[5.27783,47.58978],[5.2779,47.58136],[5.27122,47.58063],[5.26854,47.58146],[5.25663,47.57668],[5.25312,47.57685],[5.25322,47.5787],[5.25081,47.58222],[5.25085,47.58407],[5.24882,47.58583],[5.249,47.58785],[5.24764,47.58977],[5.23802,47.59654],[5.2586,47.62221],[5.25565,47.62305],[5.25054,47.62215],[5.23923,47.61613],[5.23694,47.61678],[5.23744,47.62095],[5.22923,47.62556],[5.23024,47.62954],[5.22127,47.63224],[5.21141,47.64189],[5.19815,47.64437],[5.18859,47.64956],[5.17974,47.65001],[5.1736,47.65257],[5.17456,47.6563],[5.17327,47.66648],[5.17539,47.66668],[5.17775,47.67723],[5.17924,47.67908],[5.17834,47.68095],[5.16186,47.6805],[5.16002,47.6773],[5.16055,47.67455],[5.15496,47.66721],[5.14918,47.66375],[5.14282,47.65567],[5.14016,47.65578],[5.13533,47.65373],[5.1385,47.65213],[5.13857,47.65086],[5.13319,47.65122],[5.12866,47.64985],[5.12918,47.64821],[5.12537,47.64677],[5.12259,47.64707],[5.12125,47.64822],[5.12139,47.64966],[5.11686,47.65202],[5.10888,47.64968],[5.10338,47.6541],[5.10396,47.65885],[5.09905,47.65919],[5.0947,47.65754],[5.08612,47.65662],[5.08332,47.66037],[5.07825,47.66008],[5.07849,47.66341],[5.07606,47.66541],[5.07153,47.66421],[5.06916,47.66858],[5.06794,47.66816],[5.06899,47.66521],[5.06738,47.66502],[5.06699,47.66782],[5.06248,47.66703],[5.0535,47.66827],[5.05095,47.67202],[5.04359,47.67652],[5.05043,47.68009],[5.05316,47.68659],[5.0525,47.68801],[5.05737,47.69054],[5.06065,47.69479],[5.05551,47.69734],[5.05355,47.6942],[5.03746,47.69245],[5.02877,47.69328],[5.02912,47.69746],[5.03393,47.70162],[5.03196,47.70351],[5.03365,47.70789],[5.02915,47.70992],[5.0248,47.70935],[5.02261,47.70702],[5.0177,47.70488],[5.01623,47.70613],[5.01341,47.7057],[5.01321,47.70309],[5.01087,47.70305],[5.00774,47.70025],[5.00465,47.70122],[5.00254,47.6964],[5.00361,47.69373],[5.00004,47.69318],[4.99675,47.68997],[4.99228,47.68831],[4.98256,47.68853],[4.9797,47.68626],[4.97455,47.6871],[4.96909,47.68583],[4.96857,47.68733],[4.97244,47.69016],[4.97198,47.69157],[4.95984,47.69697],[4.95733,47.70013],[4.95414,47.70146],[4.95381,47.70692],[4.9644,47.71343],[4.96583,47.71524],[4.96366,47.71884],[4.96349,47.72218],[4.97166,47.72941],[4.97003,47.73553],[4.96476,47.73546],[4.9605,47.73281],[4.9568,47.73245],[4.96615,47.74056],[4.96493,47.74437],[4.96331,47.74544],[4.96393,47.74695],[4.95994,47.75155],[4.95899,47.76187],[4.95082,47.76264],[4.94741,47.76659],[4.94452,47.76602],[4.94442,47.764],[4.94222,47.7626],[4.93074,47.76134],[4.92268,47.75895],[4.92268,47.76034],[4.9267,47.76484],[4.91714,47.7669],[4.92089,47.76722],[4.92076,47.77281],[4.9238,47.77342],[4.92388,47.77534],[4.91796,47.77709],[4.92203,47.7797],[4.93707,47.78292],[4.95645,47.79005],[4.96358,47.79511],[4.97765,47.80023],[4.98226,47.80009],[4.98236,47.80206],[4.98442,47.80192],[4.98876,47.80462],[4.99134,47.80806],[4.98886,47.80794],[4.98817,47.80895],[4.99129,47.81104],[4.99193,47.81319],[4.99386,47.81291],[4.99318,47.81563],[4.99144,47.81549],[4.99187,47.81732],[4.98907,47.81748],[4.98879,47.81865],[4.99413,47.81975],[4.98598,47.82254],[4.98469,47.82887],[4.96835,47.83194],[4.96865,47.8367],[4.96618,47.83937],[4.96043,47.8394],[4.96119,47.84394],[4.96014,47.84557],[4.96302,47.84848],[4.9634,47.85221],[4.95565,47.86277],[4.95409,47.86677],[4.9402,47.86703],[4.9369,47.86927],[4.92746,47.87155],[4.93003,47.87504],[4.92936,47.87749],[4.92715,47.87885],[4.92858,47.88623],[4.92581,47.8912],[4.91954,47.89431],[4.91542,47.89782],[4.91375,47.90181],[4.91401,47.90559],[4.90586,47.91431],[4.90596,47.91647],[4.90369,47.91769],[4.90409,47.91921],[4.90291,47.92104],[4.89275,47.9227],[4.8763,47.92022],[4.86934,47.91745],[4.87085,47.91531],[4.85922,47.90179],[4.8616,47.89989],[4.86043,47.89631],[4.85678,47.89563],[4.83404,47.90679],[4.82947,47.91228],[4.82894,47.91513],[4.83094,47.91629],[4.83122,47.91787],[4.83494,47.91891],[4.8394,47.92259],[4.84228,47.92119],[4.84677,47.92131],[4.84639,47.9274],[4.85551,47.93206],[4.85642,47.9342],[4.86004,47.93713],[4.8661,47.94051],[4.85774,47.95207],[4.84518,47.96125],[4.82749,47.96086],[4.81982,47.96449],[4.81778,47.96386],[4.82006,47.96111],[4.81942,47.96036],[4.81101,47.95933],[4.80876,47.96149],[4.80064,47.96265],[4.79359,47.9623],[4.79112,47.96537],[4.78651,47.9642],[4.78506,47.96887],[4.78571,47.97146],[4.78772,47.97138],[4.79497,47.98446],[4.80515,47.98563],[4.81024,47.98858],[4.80919,47.99009],[4.79325,47.99654],[4.79341,48.00288],[4.78908,48.00783],[4.78614,48.00659],[4.77858,48.00702],[4.77307,48.00497],[4.76727,48.00576],[4.74214,48.00462],[4.71994,48.0089],[4.72221,48.01011],[4.71551,48.01155],[4.70037,48.02374],[4.68676,48.02072],[4.67323,48.01505],[4.67069,48.01542],[4.66551,48.02079],[4.65584,48.01747],[4.65525,48.02095],[4.64768,48.02568],[4.63454,48.02424],[4.62331,48.02522],[4.62195,48.02435],[4.61783,48.02834],[4.61681,48.03137],[4.60683,48.02846],[4.60007,48.03048],[4.58507,48.0301],[4.58262,48.02847],[4.57863,48.02909],[4.5754,48.02583],[4.57029,48.02377],[4.56732,48.01874],[4.56328,48.01522],[4.56074,48.01549],[4.55564,48.01356],[4.54942,48.00446],[4.53577,48.00657],[4.53582,48.00121],[4.54093,47.99212],[4.5456,47.98829],[4.55489,47.98601],[4.55706,47.98187],[4.55997,47.97142],[4.55424,47.96748],[4.53156,47.96993],[4.515,47.9662],[4.49331,47.96818],[4.483,47.96319],[4.47311,47.96229],[4.46994,47.95983],[4.46335,47.959],[4.45588,47.95973],[4.44696,47.9562],[4.44594,47.95753],[4.43941,47.95823],[4.43559,47.95996],[4.42805,47.96581],[4.4179,47.96846],[4.40272,47.96554],[4.3971,47.96231],[4.38766,47.96212],[4.38381,47.95966],[4.38173,47.96113],[4.37577,47.96151],[4.374,47.96046],[4.37238,47.9617],[4.37091,47.96084],[4.36859,47.96195],[4.36785,47.96137],[4.36962,47.95995],[4.36635,47.95825],[4.36558,47.95899],[4.36108,47.95713],[4.34321,47.95586],[4.34101,47.9578],[4.3345,47.9589],[4.31979,47.95946],[4.31474,47.9608],[4.3128,47.9625],[4.309,47.96117],[4.30795,47.95633],[4.30272,47.95075],[4.29792,47.9497],[4.3005,47.94683],[4.30037,47.9435],[4.30287,47.93851],[4.30261,47.93717],[4.29749,47.93262],[4.29342,47.92568],[4.28851,47.92693],[4.27811,47.92404],[4.26973,47.92368],[4.25678,47.92672],[4.25652,47.92849],[4.24546,47.92975],[4.24272,47.93196],[4.23714,47.94068],[4.23214,47.94265],[4.22964,47.94584],[4.22215,47.9497],[4.2281,47.96102],[4.22695,47.96613],[4.22846,47.96915],[4.22596,47.97194],[4.22297,47.97105],[4.2158,47.97251],[4.21033,47.97161],[4.20242,47.973],[4.19395,47.96675],[4.19281,47.9646],[4.19727,47.96413],[4.20201,47.96158],[4.20268,47.95981],[4.21271,47.96307],[4.21307,47.9619],[4.2091,47.9616],[4.20312,47.95917],[4.20725,47.95281],[4.20527,47.94987],[4.20783,47.9466],[4.20591,47.94329],[4.20188,47.94116],[4.1941,47.94038],[4.19299,47.93932],[4.18539,47.94025],[4.18584,47.94713],[4.18425,47.95542],[4.18176,47.95704],[4.17695,47.95739],[4.1726,47.95926],[4.16945,47.95724],[4.16633,47.9598],[4.156,47.95569],[4.14904,47.94815],[4.14582,47.94797],[4.14017,47.94275],[4.14242,47.93863],[4.14184,47.93711],[4.13397,47.93795],[4.13038,47.93679],[4.12782,47.93422],[4.12212,47.93165],[4.12047,47.93244],[4.11693,47.92885],[4.11452,47.9288],[4.10961,47.92604],[4.10831,47.92751],[4.10904,47.92902],[4.10706,47.92981],[4.09836,47.92995],[4.09403,47.9266],[4.09209,47.9282],[4.09193,47.9318],[4.09381,47.93401],[4.09,47.93619],[4.0917,47.93706],[4.09298,47.94298],[4.09033,47.94374],[4.0897,47.94501],[4.08535,47.94503],[4.07791,47.94285],[4.06094,47.9457],[4.05668,47.94221],[4.05635,47.94065],[4.05695,47.93856],[4.05595,47.9366],[4.05715,47.93636],[4.05888,47.93171],[4.04639,47.92685],[4.04481,47.92512],[4.04146,47.92706],[4.03992,47.92955],[4.03128,47.93318],[4.02565,47.92832],[4.02386,47.92915],[4.01814,47.92847],[4.01616,47.92936],[4.0166,47.93043],[4.01257,47.9321],[4.01361,47.93682],[4.00386,47.94203],[3.99427,47.93718],[3.99179,47.93528],[3.99123,47.93241],[3.98563,47.93051],[3.98417,47.93134],[3.98145,47.93021],[3.97521,47.9312],[3.96257,47.93596],[3.95955,47.93569],[3.94809,47.9309],[3.94539,47.93467],[3.93534,47.93197],[3.93147,47.93234],[3.9305,47.93357],[3.92645,47.93457],[3.91849,47.92802],[3.9138,47.93024],[3.91172,47.93009],[3.90685,47.928],[3.90535,47.92505],[3.89536,47.9286],[3.89403,47.9293],[3.90355,47.93834],[3.89946,47.94073],[3.90371,47.94629],[3.90387,47.94935],[3.90256,47.95068],[3.9051,47.95257],[3.90604,47.95521],[3.90466,47.95807],[3.90646,47.95989],[3.9071,47.96343],[3.91331,47.96938],[3.91469,47.97569],[3.91092,47.98182],[3.90681,47.9852],[3.90028,47.99788],[3.89793,47.99765],[3.89343,48.0017],[3.89158,48.00025],[3.88166,48.00029],[3.88146,47.99782],[3.88536,47.99147],[3.88295,47.99146],[3.87766,47.98703],[3.8833,47.9852],[3.87997,47.97917],[3.87227,47.97914],[3.87282,47.97742],[3.8618,47.97644],[3.86592,47.9844],[3.85003,47.98366],[3.85052,47.9846],[3.84672,47.99251],[3.84698,47.99458],[3.8416,47.99586],[3.84133,47.99821],[3.83928,47.99913],[3.83981,48.00389],[3.85488,48.00352],[3.85791,48.00604],[3.86369,48.00705],[3.86799,48.00501],[3.86827,48.00303],[3.87068,48.00295],[3.87053,48.00718],[3.87183,48.01022],[3.86995,48.01461],[3.87109,48.01496],[3.87061,48.01681],[3.86828,48.01935],[3.86278,48.01965],[3.85659,48.02301],[3.8534,48.02647],[3.84718,48.0293],[3.84255,48.03619],[3.84159,48.03553],[3.83726,48.03649],[3.83644,48.03568],[3.83462,48.03773],[3.83215,48.03623],[3.82198,48.04392],[3.82389,48.04524],[3.82695,48.04444],[3.83019,48.04709],[3.82406,48.05311],[3.82955,48.05772],[3.82376,48.06188],[3.82635,48.06361],[3.81977,48.06769],[3.81004,48.07786],[3.81101,48.07835],[3.80548,48.08224],[3.80693,48.08415],[3.79808,48.0865],[3.80002,48.08863],[3.79784,48.09234],[3.80109,48.09567],[3.79978,48.0969],[3.80565,48.10051],[3.80497,48.10255],[3.80124,48.10597],[3.80166,48.10673],[3.79245,48.11377],[3.79169,48.11764],[3.77988,48.12062],[3.77636,48.1243],[3.77735,48.12853],[3.77494,48.12882],[3.76802,48.13376],[3.76213,48.13181],[3.7614,48.12957],[3.75691,48.12531],[3.75076,48.12605],[3.74786,48.12883],[3.73972,48.13275],[3.73939,48.13807],[3.74287,48.14288],[3.75482,48.15024],[3.7519,48.16129],[3.74747,48.16625],[3.74029,48.16971],[3.71847,48.17537],[3.71352,48.17394],[3.71417,48.17061],[3.72114,48.16243],[3.72135,48.15995],[3.72216,48.15989],[3.72157,48.15527],[3.71822,48.15288],[3.71292,48.15115],[3.70502,48.14431],[3.70033,48.14504],[3.69783,48.14961],[3.69546,48.15149],[3.69442,48.15505],[3.69298,48.15462],[3.69362,48.148],[3.69092,48.14502],[3.66787,48.13921],[3.66064,48.15885],[3.65066,48.16823],[3.64689,48.17376],[3.64714,48.17596],[3.64516,48.17953],[3.6415,48.18394],[3.63494,48.18792],[3.62166,48.19198],[3.59418,48.17888],[3.57985,48.18434],[3.57519,48.18874],[3.59269,48.19831],[3.59348,48.2002],[3.59991,48.20233],[3.60207,48.20527],[3.61116,48.21193],[3.61221,48.21555],[3.61544,48.21803],[3.61408,48.22012],[3.62162,48.22574],[3.61477,48.2318],[3.60792,48.23255],[3.60468,48.22989],[3.60079,48.23307],[3.59985,48.23591],[3.60325,48.24101],[3.60815,48.24352],[3.61535,48.25086],[3.62433,48.25453],[3.62376,48.25929],[3.6168,48.27134],[3.6091,48.27529],[3.60191,48.27592],[3.60044,48.27949],[3.58718,48.28017],[3.58412,48.28119],[3.58384,48.28354],[3.57993,48.28331],[3.5778,48.28459],[3.57805,48.28698],[3.58574,48.29009],[3.58743,48.29285],[3.58797,48.30081],[3.58577,48.30195],[3.58264,48.30118],[3.58008,48.30601],[3.57628,48.30507],[3.57145,48.30588],[3.56807,48.30809],[3.56657,48.30743],[3.56109,48.31194],[3.56503,48.31333],[3.56556,48.31895],[3.5634,48.32144],[3.55391,48.31908],[3.5439,48.31979],[3.54405,48.33284],[3.54511,48.33454],[3.53415,48.3388],[3.52477,48.34726],[3.52044,48.34933],[3.52164,48.35148],[3.51354,48.36002],[3.50449,48.36578],[3.50134,48.36653],[3.49763,48.36958],[3.47488,48.36926],[3.47048,48.37467],[3.46857,48.3741],[3.46747,48.37568],[3.46528,48.37472],[3.45083,48.37392],[3.44796,48.37246],[3.44833,48.36837],[3.44156,48.36686],[3.42739,48.35809],[3.42675,48.36187],[3.42384,48.36515],[3.42168,48.37172],[3.41328,48.3763],[3.41298,48.3812],[3.41519,48.39571],[3.42224,48.41286],[3.4221,48.41619],[3.41528,48.41563],[3.41355,48.41416],[3.4025,48.41517],[3.40175,48.41622],[3.40241,48.41767],[3.40764,48.41556],[3.4087,48.41763],[3.41146,48.41742],[3.41183,48.42131],[3.40477,48.4235],[3.40048,48.42249],[3.40097,48.42394],[3.39748,48.42452],[3.39167,48.42325],[3.39207,48.4269],[3.39477,48.42801],[3.39562,48.43072],[3.3946,48.43173],[3.39663,48.43274],[3.39698,48.43457],[3.39515,48.43682],[3.40159,48.43575],[3.40148,48.43765],[3.40494,48.43941],[3.40406,48.44276],[3.40628,48.44811],[3.40648,48.45245],[3.40049,48.45757],[3.40064,48.45954],[3.39438,48.46274],[3.39414,48.46454],[3.39718,48.46631],[3.40024,48.46646],[3.39964,48.46768],[3.39677,48.4686],[3.39581,48.47057],[3.39115,48.47047],[3.3885,48.47719],[3.38616,48.47728],[3.38336,48.47944],[3.39245,48.48156],[3.39348,48.48434],[3.39933,48.48361],[3.40056,48.48453],[3.39811,48.4863],[3.39997,48.48738],[3.40398,48.48602],[3.40507,48.48855],[3.40756,48.48866],[3.40847,48.48595],[3.40966,48.48569],[3.41093,48.48746],[3.41469,48.48722],[3.41683,48.49032],[3.41944,48.48994],[3.42044,48.49174],[3.42258,48.49202],[3.42361,48.4904],[3.43464,48.49025],[3.43338,48.49329],[3.4351,48.49602],[3.43486,48.49751],[3.42735,48.50649],[3.42355,48.51481],[3.4054,48.52801],[3.41424,48.53347],[3.41548,48.53233],[3.42344,48.53356],[3.42658,48.53085],[3.43031,48.53138],[3.43331,48.52915],[3.44003,48.5284],[3.44675,48.52892],[3.44948,48.53046],[3.45071,48.52867],[3.45695,48.52963],[3.46722,48.53539],[3.46969,48.53853],[3.47566,48.5414],[3.48175,48.54145],[3.47909,48.54552],[3.48576,48.54521],[3.48589,48.54727],[3.48374,48.55015],[3.47889,48.55054],[3.47638,48.55208],[3.47548,48.55469],[3.47694,48.55541],[3.47696,48.55753],[3.47453,48.56011],[3.47423,48.56449],[3.47196,48.56387],[3.46552,48.57049],[3.47338,48.57688],[3.48528,48.58043],[3.49318,48.59025],[3.51586,48.58978],[3.51231,48.5962],[3.50321,48.60456],[3.53462,48.61035],[3.54011,48.61264],[3.54084,48.61604],[3.55703,48.61586],[3.55851,48.61696],[3.55847,48.61844],[3.55482,48.62201],[3.55125,48.62308],[3.54784,48.62679],[3.53798,48.63162],[3.53196,48.63319],[3.52228,48.63259],[3.51907,48.63347],[3.51738,48.63719],[3.52107,48.6378],[3.52821,48.64319],[3.52969,48.64321],[3.52938,48.6449],[3.53324,48.64651],[3.5175,48.64337],[3.49288,48.64762],[3.48964,48.64678],[3.48596,48.64224],[3.47602,48.63805],[3.47657,48.63733],[3.46802,48.63694],[3.46184,48.6349],[3.45797,48.6348],[3.45788,48.63391],[3.45109,48.63465],[3.4533,48.63614],[3.45203,48.63789],[3.45364,48.64071],[3.45637,48.64225],[3.45543,48.64419],[3.45698,48.64698],[3.45571,48.64735],[3.45882,48.64986],[3.45797,48.65022],[3.46043,48.65301],[3.45815,48.65493],[3.45096,48.65753],[3.44568,48.66221],[3.44257,48.66228],[3.44061,48.66365],[3.44618,48.6669],[3.4427,48.67251],[3.44949,48.67576],[3.44755,48.67725],[3.45456,48.68212],[3.46268,48.68545],[3.46939,48.68644],[3.47168,48.68567],[3.47354,48.68865],[3.47143,48.69027],[3.47251,48.69119],[3.47064,48.69395],[3.47256,48.69786],[3.47778,48.69792],[3.47281,48.70185],[3.47035,48.70144],[3.4695,48.70333],[3.4643,48.70738],[3.46726,48.70857],[3.46531,48.71187],[3.46807,48.7169],[3.46675,48.72877],[3.46747,48.73522],[3.46973,48.73787],[3.4674,48.73863],[3.45304,48.73806],[3.45182,48.73603],[3.44407,48.73663],[3.43628,48.74368],[3.43782,48.74658],[3.43659,48.75318],[3.42852,48.75839],[3.42586,48.75452],[3.42383,48.75519],[3.42335,48.75393],[3.41433,48.75471],[3.4091,48.7523],[3.40062,48.75548],[3.39911,48.755],[3.39583,48.75925],[3.40738,48.7778],[3.40892,48.7839],[3.41285,48.78314],[3.41466,48.78449],[3.4241,48.78412],[3.42739,48.77985],[3.42945,48.77943],[3.43387,48.78079],[3.4348,48.78319],[3.43817,48.78511],[3.43992,48.78438],[3.44069,48.78225],[3.44186,48.78241],[3.44395,48.79139],[3.44254,48.79182],[3.44163,48.7935],[3.44255,48.79488],[3.43994,48.79812],[3.44212,48.80358],[3.43814,48.80435],[3.43045,48.80177],[3.42304,48.80075],[3.42013,48.80338],[3.41113,48.8037],[3.40417,48.80927],[3.41661,48.81783],[3.43217,48.81226],[3.44126,48.81302],[3.44136,48.81157],[3.44666,48.81233],[3.44815,48.81115],[3.4515,48.81312],[3.46059,48.81511],[3.45938,48.81804],[3.47038,48.82089],[3.47485,48.81938],[3.47421,48.81829],[3.48092,48.81218],[3.4872,48.81519],[3.48496,48.82501],[3.49131,48.83467],[3.48519,48.85191],[3.48642,48.85811],[3.48365,48.86108],[3.48183,48.86594],[3.4989,48.87023],[3.50191,48.87192],[3.50134,48.87253],[3.50899,48.88529],[3.50959,48.88939],[3.50832,48.8904],[3.51324,48.89519],[3.51497,48.89524],[3.52012,48.90126],[3.52115,48.9052],[3.52858,48.91214],[3.53093,48.9129],[3.5326,48.91057],[3.54313,48.91541],[3.54781,48.91588],[3.54993,48.91365],[3.56002,48.91702],[3.56418,48.9113],[3.56679,48.91396],[3.57075,48.91492],[3.57385,48.92148],[3.57645,48.92325],[3.57303,48.92503],[3.57444,48.93902],[3.59272,48.94461],[3.60255,48.94393],[3.59918,48.95112],[3.60163,48.95348],[3.5926,48.9585],[3.59156,48.96037],[3.60093,48.96634],[3.60545,48.96404],[3.61037,48.96686],[3.61708,48.96486],[3.62121,48.96603],[3.6222,48.97272],[3.62394,48.97414],[3.62656,48.97982],[3.62334,48.98268],[3.63989,49.00409],[3.66026,49.00426],[3.66516,49.00563],[3.67772,49.01397],[3.67897,49.0183],[3.67406,49.0215],[3.66354,49.03731],[3.65714,49.0382],[3.65541,49.04015],[3.65092,49.04079],[3.65008,49.04282],[3.64557,49.04053],[3.64261,49.03701],[3.63973,49.03921],[3.63133,49.03971],[3.61684,49.03648],[3.61571,49.03363],[3.59912,49.03489],[3.58761,49.03381],[3.5852,49.03887],[3.5867,49.04137],[3.58593,49.04354],[3.58771,49.05939],[3.59994,49.062],[3.60288,49.06431],[3.60461,49.07023],[3.60906,49.0731],[3.61216,49.07356],[3.61798,49.07143],[3.6238,49.07087],[3.63287,49.07279],[3.63847,49.07744],[3.63905,49.08131],[3.63213,49.0862],[3.62743,49.09272],[3.62798,49.09488],[3.62479,49.09864],[3.62229,49.10528],[3.6118,49.11809],[3.60309,49.11467],[3.60002,49.12069],[3.60708,49.12389],[3.61166,49.12874],[3.60964,49.13501],[3.61446,49.1391],[3.62057,49.13925],[3.61882,49.14333],[3.61982,49.14754],[3.62225,49.1511],[3.65344,49.14869],[3.6718,49.15064],[3.6808,49.15391],[3.68726,49.15418],[3.68881,49.15313],[3.69244,49.15327],[3.69335,49.15187],[3.69803,49.14982],[3.70274,49.14145],[3.70759,49.14306],[3.70607,49.14528],[3.71701,49.14704],[3.72523,49.15148],[3.73956,49.15693],[3.74877,49.15708],[3.74834,49.16874],[3.74987,49.16917],[3.74911,49.17147],[3.7525,49.17237],[3.75115,49.1777],[3.74489,49.17764],[3.74212,49.17916],[3.7392,49.17762],[3.73011,49.17832],[3.72544,49.17352],[3.7142,49.17869],[3.71123,49.17819],[3.71161,49.17948],[3.70439,49.18137],[3.70685,49.18593],[3.69731,49.18843],[3.69824,49.18972],[3.69694,49.19455],[3.69992,49.19578],[3.70194,49.19439],[3.70487,49.19859],[3.70465,49.20066],[3.70063,49.20125],[3.69861,49.2055],[3.69291,49.20556],[3.69179,49.20239],[3.68984,49.20075],[3.68391,49.19753],[3.68158,49.19747],[3.67642,49.19982],[3.67611,49.20095],[3.67755,49.20346],[3.68179,49.20534],[3.67044,49.20965],[3.66457,49.21071],[3.66254,49.20898],[3.656,49.21152],[3.65283,49.21543],[3.65627,49.21844],[3.65148,49.22156],[3.65382,49.22208],[3.65592,49.22102],[3.661,49.22307],[3.66357,49.22187],[3.67039,49.22804],[3.66878,49.23166],[3.66998,49.23286],[3.67815,49.23533],[3.67504,49.24009],[3.67078,49.2396],[3.66861,49.24089],[3.6683,49.24197],[3.66999,49.24321],[3.66595,49.24636],[3.66685,49.24715],[3.66497,49.25135],[3.66144,49.25549],[3.66233,49.25746],[3.65959,49.25807],[3.66069,49.26008],[3.65807,49.26047],[3.65565,49.25713],[3.6567,49.25518],[3.65387,49.25423],[3.6548,49.25619],[3.6532,49.25756],[3.65541,49.26123],[3.65541,49.26338],[3.66149,49.26996],[3.6516,49.27836],[3.65264,49.28284],[3.65899,49.28682],[3.65762,49.2871],[3.65732,49.29102],[3.6428,49.29605],[3.63834,49.30136],[3.64347,49.30301],[3.64394,49.31272],[3.6476,49.31595],[3.65504,49.31637],[3.65589,49.31748],[3.66518,49.31979],[3.66916,49.32475],[3.67741,49.32456],[3.68301,49.3257],[3.68455,49.32697],[3.6891,49.32685],[3.69123,49.32957],[3.69314,49.32874],[3.7013,49.33251],[3.72162,49.33573],[3.7324,49.33496],[3.74222,49.33651],[3.74109,49.34759],[3.75074,49.34842],[3.75782,49.34761],[3.76314,49.35114],[3.76485,49.35071],[3.77753,49.35582],[3.77969,49.35193],[3.7969,49.35807],[3.80223,49.35891],[3.81408,49.35712],[3.82406,49.35735],[3.82406,49.35404],[3.83345,49.35013],[3.85284,49.34497],[3.85746,49.34886],[3.85513,49.3495],[3.85874,49.35412],[3.85521,49.35688],[3.85543,49.35775],[3.84833,49.36232],[3.84789,49.36457],[3.85011,49.36482],[3.85065,49.36365],[3.8561,49.36424],[3.85518,49.36586],[3.8526,49.36565],[3.85333,49.36735],[3.8563,49.36803],[3.85983,49.37266],[3.85635,49.38116],[3.85966,49.3818],[3.85799,49.3845],[3.85985,49.38615],[3.85419,49.3884],[3.84971,49.38763],[3.84685,49.38865],[3.84485,49.39164],[3.83961,49.39101],[3.83668,49.39671],[3.82797,49.40034],[3.82349,49.40041],[3.82238,49.40238],[3.83129,49.40285],[3.83319,49.40183],[3.84629,49.40057],[3.84527,49.40312],[3.84832,49.40331],[3.84958,49.40194],[3.85515,49.40124],[3.86958,49.40667],[3.8731,49.40477],[3.88118,49.40529],[3.88576,49.40199],[3.89332,49.39913],[3.89319,49.39721],[3.89574,49.39278],[3.91033,49.39483],[3.91501,49.39845],[3.91472,49.40353],[3.91944,49.40414],[3.92443,49.40618],[3.92523,49.40758],[3.93381,49.40187],[3.93147,49.40076],[3.94472,49.38994],[3.9426,49.38894],[3.95334,49.38429],[3.96131,49.37734],[3.9775,49.3795],[3.99494,49.3779],[3.99632,49.37168],[3.99902,49.37236],[4.0007,49.36868],[4.00691,49.36963],[4.01131,49.36296],[4.01273,49.3583],[4.01769,49.35841],[4.01816,49.36034],[4.02751,49.35985],[4.02791,49.35907],[4.0355,49.3599],[4.03796,49.37963],[4.03695,49.38014],[4.03737,49.38781],[4.03883,49.38815],[4.03991,49.3974],[4.04191,49.39759],[4.04244,49.40118],[4.04457,49.40079],[4.0449,49.40447],[4.04793,49.40424],[4.05027,49.41227],[4.0495,49.41561],[4.04707,49.41757],[4.0423,49.41665],[4.04374,49.42874],[4.04095,49.42976],[4.04174,49.43245],[4.03962,49.43315],[4.03766,49.43826],[4.05033,49.44761],[4.05181,49.44655],[4.05213,49.44381],[4.06025,49.44715],[4.06791,49.44488],[4.06748,49.44677],[4.06278,49.44824],[4.06068,49.4515],[4.05756,49.45119],[4.05385,49.4574],[4.05488,49.45924],[4.05217,49.46072],[4.05079,49.46294],[4.04868,49.46315],[4.04713,49.46673],[4.0441,49.46668],[4.04237,49.46869],[4.04135,49.47306],[4.04071,49.50853],[4.05756,49.50818],[4.05715,49.51052],[4.06186,49.51257],[4.06151,49.5145],[4.05679,49.51858],[4.05839,49.51934],[4.05662,49.52104],[4.06215,49.52272],[4.06548,49.5233],[4.07195,49.51645],[4.07584,49.51835],[4.07364,49.52354],[4.07742,49.52451],[4.0758,49.54146],[4.06683,49.54375],[4.04876,49.54527],[4.05037,49.5515],[4.05263,49.55084],[4.05436,49.55266],[4.05829,49.55255],[4.05808,49.55427],[4.06009,49.5545],[4.06057,49.55643],[4.06257,49.55627],[4.06284,49.55793],[4.06003,49.55838],[4.06246,49.56117],[4.06414,49.55962],[4.0671,49.56299],[4.06679,49.56407],[4.07521,49.56566],[4.07657,49.57113],[4.07053,49.57239],[4.06681,49.57235],[4.06584,49.57083],[4.06333,49.57122],[4.06353,49.57255],[4.05945,49.57614],[4.05971,49.57911],[4.06134,49.58035],[4.06043,49.58202],[4.06238,49.58596],[4.06185,49.58897],[4.05763,49.58886],[4.05793,49.59155],[4.05936,49.59288],[4.06485,49.59194],[4.06648,49.59443],[4.06061,49.59637],[4.05991,49.59476],[4.05433,49.59524],[4.05241,49.60004],[4.04729,49.59953],[4.02461,49.62126],[4.02529,49.62253],[4.03791,49.62292],[4.03972,49.62593],[4.03845,49.62827],[4.04038,49.62981],[4.04231,49.62974],[4.0434,49.63295],[4.04043,49.63354],[4.04108,49.63827],[4.04825,49.63775],[4.04807,49.63679],[4.05095,49.63453],[4.05568,49.63434],[4.05531,49.63588],[4.06897,49.63751],[4.07103,49.63535],[4.0735,49.63464],[4.07569,49.63528],[4.08063,49.63416],[4.0824,49.63257],[4.08209,49.63152],[4.08633,49.62927],[4.08716,49.63076],[4.09916,49.62835],[4.10221,49.6326],[4.10808,49.63373],[4.10993,49.63174],[4.11191,49.63234],[4.11158,49.63435],[4.11575,49.63292],[4.11495,49.6348],[4.11906,49.63853],[4.11642,49.63903],[4.11673,49.64076],[4.12017,49.64317],[4.12555,49.65107],[4.12467,49.6547],[4.12303,49.65445],[4.12209,49.65822],[4.12731,49.67575],[4.12702,49.67792],[4.13721,49.67593],[4.13684,49.67813],[4.13982,49.67851],[4.14102,49.6766],[4.14319,49.67658],[4.14859,49.67832],[4.14898,49.67939],[4.14324,49.68739],[4.14418,49.68854],[4.15358,49.6919],[4.16473,49.69387],[4.16505,49.69503],[4.18519,49.69888],[4.18416,49.70263],[4.18649,49.70569],[4.18788,49.70558],[4.18806,49.7085],[4.1902,49.70856],[4.19249,49.71198],[4.19145,49.71601],[4.19905,49.71803],[4.19956,49.71983],[4.20344,49.72101],[4.20647,49.72354],[4.21437,49.72368],[4.22424,49.72762],[4.22716,49.72995],[4.23191,49.73045],[4.22803,49.73093],[4.2259,49.73285],[4.2271,49.74251],[4.22971,49.74661],[4.23831,49.75188],[4.24688,49.75482],[4.2496,49.75711],[4.24488,49.75908],[4.24195,49.76249],[4.24283,49.76714],[4.23396,49.7689],[4.22861,49.77311],[4.22005,49.77311],[4.2139,49.77111],[4.21177,49.77492],[4.20739,49.77626],[4.20742,49.7774],[4.20592,49.77819],[4.20756,49.78109],[4.22236,49.78722],[4.22668,49.79303],[4.2219,49.79754],[4.22087,49.79984],[4.21899,49.80025],[4.22175,49.80452],[4.21427,49.80611],[4.21959,49.81426],[4.21874,49.81698],[4.22052,49.82076],[4.2208,49.82539],[4.22252,49.82967],[4.2235,49.82947],[4.22359,49.83411],[4.22676,49.83622],[4.22971,49.83607],[4.22934,49.83896],[4.23165,49.84198],[4.23154,49.84576],[4.23297,49.84841],[4.24445,49.85257],[4.24876,49.85675],[4.24955,49.86241],[4.25276,49.86965],[4.25398,49.88692],[4.2509,49.88886],[4.2557,49.90321],[4.25354,49.90396],[4.2459,49.90217],[4.23497,49.90399],[4.23312,49.9046],[4.23339,49.90939],[4.22181,49.91046],[4.21981,49.91232],[4.2176,49.91268],[4.21696,49.91439],[4.21967,49.92377],[4.22072,49.93721],[4.22462,49.943],[4.22992,49.94619],[4.23316,49.95775]]]}}]}