{"type":"FeatureCollection","features":[{"type":"Feature","properties":{"reg_name":"francia-provenza","source":"IGN Admin Express via france-geojson, Licence Ouverte 2.0"},"geometry":{"type":"MultiPolygon","coordinates":[[[[6.94834,44.65482],[6.948,44.65222],[6.95145,44.64865],[6.95366,44.64384],[6.95375,44.63703],[6.96234,44.62658],[6.96831,44.62472],[6.96741,44.62205],[6.96837,44.6198],[6.96381,44.61882],[6.95958,44.62115],[6.94926,44.61918],[6.94838,44.61745],[6.94897,44.61455],[6.95039,44.61336],[6.95031,44.61004],[6.94596,44.60597],[6.93768,44.60338],[6.93683,44.60129],[6.93825,44.59921],[6.93375,44.59686],[6.93273,44.59271],[6.93364,44.58654],[6.93474,44.58609],[6.93127,44.5819],[6.93309,44.57944],[6.93287,44.57337],[6.92014,44.56937],[6.91358,44.56927],[6.91317,44.56559],[6.91622,44.56038],[6.91498,44.55884],[6.90731,44.55753],[6.90192,44.55391],[6.89863,44.55536],[6.89473,44.55546],[6.89175,44.55449],[6.89038,44.55234],[6.88385,44.55183],[6.87856,44.55434],[6.87606,44.55061],[6.87681,44.54629],[6.87236,44.54566],[6.86984,44.53684],[6.8579,44.53402],[6.85554,44.53186],[6.85523,44.52965],[6.8534,44.52881],[6.85741,44.52259],[6.85644,44.51663],[6.8594,44.50981],[6.85816,44.50698],[6.86123,44.50342],[6.85967,44.50279],[6.86446,44.49875],[6.86567,44.495],[6.86816,44.49288],[6.87684,44.48871],[6.87742,44.48652],[6.87591,44.48248],[6.87737,44.48079],[6.88071,44.47927],[6.88234,44.47677],[6.89165,44.47189],[6.90086,44.47048],[6.90618,44.46766],[6.90767,44.46084],[6.91154,44.45487],[6.91107,44.45214],[6.91278,44.45049],[6.92097,44.44571],[6.92511,44.44487],[6.93253,44.44151],[6.93331,44.44026],[6.93637,44.43992],[6.93889,44.43688],[6.93936,44.43385],[6.94415,44.43248],[6.94809,44.4297],[6.94608,44.42727],[6.93331,44.42975],[6.93255,44.42727],[6.93332,44.42508],[6.92643,44.42372],[6.92475,44.42235],[6.922,44.4235],[6.91796,44.4274],[6.90288,44.42045],[6.89946,44.42218],[6.89747,44.42087],[6.89287,44.42078],[6.89409,44.40978],[6.89765,44.4055],[6.89475,44.40214],[6.89452,44.39751],[6.8968,44.39444],[6.89478,44.38862],[6.89598,44.38451],[6.89493,44.38072],[6.89685,44.37559],[6.89518,44.37016],[6.89245,44.36824],[6.88837,44.36737],[6.88695,44.36526],[6.88743,44.36105],[6.8998,44.35758],[6.90612,44.35811],[6.91234,44.35322],[6.91827,44.35293],[6.92257,44.35073],[6.92211,44.34623],[6.92089,44.34516],[6.92207,44.34192],[6.92418,44.34088],[6.92724,44.33242],[6.93687,44.32856],[6.93862,44.32453],[6.94188,44.3244],[6.94645,44.32029],[6.95318,44.31876],[6.95308,44.31679],[6.95462,44.31479],[6.96053,44.31085],[6.96072,44.30864],[6.95796,44.30537],[6.95858,44.3021],[6.95586,44.29706],[6.95753,44.29511],[6.96281,44.29345],[6.96672,44.29541],[6.97022,44.29441],[6.97152,44.29174],[6.96899,44.28679],[6.97188,44.28362],[6.98135,44.28675],[6.9834,44.28486],[6.99004,44.28315],[6.99572,44.27988],[6.99468,44.27741],[6.99722,44.27384],[6.99552,44.26905],[6.99638,44.26645],[6.99534,44.26499],[6.99843,44.25883],[6.99663,44.25209],[6.99845,44.24881],[7.0011,44.24682],[7.00098,44.24372],[7.0042,44.24237],[7.00852,44.23524],[7.01162,44.23544],[7.01676,44.23221],[7.01926,44.2322],[7.02251,44.23426],[7.02716,44.2306],[7.03035,44.23138],[7.031,44.22761],[7.03302,44.22541],[7.03884,44.22373],[7.05582,44.22934],[7.06159,44.22671],[7.06514,44.22809],[7.0653,44.22999],[7.07022,44.23298],[7.07681,44.23221],[7.08654,44.22928],[7.09048,44.22507],[7.09103,44.22181],[7.09254,44.22025],[7.10009,44.22147],[7.10758,44.21804],[7.1139,44.21782],[7.11882,44.21514],[7.12141,44.21228],[7.12559,44.21125],[7.13058,44.20712],[7.1436,44.20012],[7.14844,44.20005],[7.14886,44.20153],[7.15692,44.20421],[7.16274,44.20801],[7.16573,44.20631],[7.16747,44.20236],[7.17532,44.20014],[7.17766,44.19725],[7.18305,44.199],[7.18613,44.20135],[7.18874,44.2003],[7.18942,44.19544],[7.19377,44.18976],[7.19361,44.1871],[7.19677,44.18629],[7.20068,44.18698],[7.20463,44.1824],[7.20479,44.17905],[7.21386,44.17502],[7.21591,44.17105],[7.2194,44.16847],[7.22445,44.16902],[7.22832,44.16818],[7.23307,44.17185],[7.23556,44.17544],[7.2409,44.17336],[7.24351,44.17157],[7.24336,44.16825],[7.24524,44.16371],[7.24706,44.16227],[7.24819,44.15907],[7.25169,44.15608],[7.25657,44.15537],[7.26278,44.14803],[7.27178,44.14764],[7.28136,44.14087],[7.28568,44.14253],[7.28792,44.14523],[7.29595,44.14402],[7.30333,44.14605],[7.30805,44.14422],[7.31084,44.14748],[7.31754,44.14313],[7.32121,44.14275],[7.32831,44.14469],[7.33261,44.14379],[7.34187,44.14585],[7.34467,44.14474],[7.34646,44.14024],[7.3467,44.13779],[7.34573,44.13649],[7.34735,44.13574],[7.35186,44.12625],[7.35436,44.12471],[7.358,44.11602],[7.36439,44.1175],[7.36786,44.1164],[7.38893,44.12479],[7.39289,44.12503],[7.40661,44.11793],[7.40938,44.11947],[7.4145,44.11866],[7.41758,44.11519],[7.42475,44.11193],[7.42695,44.11288],[7.42764,44.11641],[7.42626,44.11868],[7.42688,44.12149],[7.429,44.12279],[7.42979,44.12975],[7.43246,44.13022],[7.4432,44.12783],[7.44823,44.12884],[7.46068,44.12579],[7.47226,44.13299],[7.48275,44.13341],[7.49039,44.137],[7.49313,44.14044],[7.507,44.1444],[7.50903,44.14251],[7.51186,44.14202],[7.51504,44.13827],[7.51776,44.13924],[7.52019,44.13767],[7.52709,44.13993],[7.53086,44.14648],[7.53456,44.14798],[7.53822,44.14551],[7.54319,44.1451],[7.55459,44.14638],[7.55911,44.14871],[7.5613,44.14857],[7.56541,44.15122],[7.56415,44.15474],[7.56482,44.15517],[7.57244,44.15148],[7.57656,44.15332],[7.58545,44.15052],[7.58994,44.15035],[7.5947,44.15253],[7.5981,44.15256],[7.60306,44.15003],[7.62005,44.14951],[7.62183,44.15318],[7.62727,44.15869],[7.62789,44.16069],[7.62687,44.16341],[7.6299,44.16489],[7.63135,44.16726],[7.63006,44.17024],[7.63662,44.1771],[7.64614,44.17843],[7.65226,44.17683],[7.65464,44.17745],[7.6698,44.17539],[7.67278,44.17719],[7.67783,44.17682],[7.68459,44.17402],[7.68399,44.17153],[7.68095,44.16426],[7.67179,44.15839],[7.67084,44.15293],[7.67524,44.15015],[7.67646,44.14779],[7.67946,44.14715],[7.67632,44.14081],[7.66715,44.13343],[7.66656,44.13112],[7.67031,44.12827],[7.67181,44.12194],[7.67412,44.11827],[7.68285,44.11384],[7.68517,44.11117],[7.68999,44.10837],[7.69639,44.09991],[7.69661,44.09774],[7.70139,44.09395],[7.70876,44.09085],[7.71508,44.08405],[7.71881,44.08253],[7.71615,44.0813],[7.71564,44.0778],[7.71285,44.07461],[7.71417,44.07202],[7.71408,44.06543],[7.71288,44.06256],[7.71444,44.06122],[7.71117,44.06025],[7.70508,44.05458],[7.70259,44.04915],[7.70359,44.04767],[7.70277,44.0435],[7.70046,44.04073],[7.69554,44.03966],[7.69082,44.04001],[7.67611,44.03204],[7.67543,44.02946],[7.66561,44.03144],[7.66465,44.02915],[7.66225,44.02822],[7.66152,44.02212],[7.6632,44.0206],[7.66183,44.01791],[7.66368,44.01277],[7.66556,44.01133],[7.665,44.00934],[7.66774,44.0065],[7.66898,43.99994],[7.67044,43.99826],[7.66384,43.99234],[7.66374,43.98693],[7.65566,43.98519],[7.65525,43.97655],[7.65267,43.9755],[7.65244,43.97371],[7.64346,43.97395],[7.64019,43.97157],[7.64007,43.97013],[7.63641,43.96908],[7.63135,43.96423],[7.62034,43.96036],[7.61142,43.95545],[7.61081,43.95422],[7.60877,43.95603],[7.59847,43.95736],[7.59722,43.95597],[7.58764,43.95493],[7.58318,43.95179],[7.58143,43.94818],[7.57876,43.94971],[7.57439,43.94766],[7.57461,43.94655],[7.56938,43.94742],[7.56917,43.94433],[7.56664,43.94326],[7.56984,43.94064],[7.57074,43.93813],[7.5729,43.93779],[7.57365,43.93573],[7.57145,43.93475],[7.57033,43.93125],[7.57115,43.92918],[7.56744,43.92623],[7.56822,43.92304],[7.55795,43.9176],[7.56237,43.90955],[7.56179,43.90452],[7.56282,43.90191],[7.56195,43.89974],[7.55922,43.89729],[7.55019,43.89379],[7.53854,43.89324],[7.53475,43.89039],[7.53073,43.89017],[7.52684,43.88625],[7.51984,43.88621],[7.51714,43.88227],[7.51292,43.88526],[7.5115,43.88487],[7.51278,43.88305],[7.50988,43.88206],[7.51034,43.87942],[7.50643,43.87642],[7.50136,43.87501],[7.49788,43.87165],[7.49754,43.86986],[7.50022,43.86703],[7.49831,43.86423],[7.49544,43.86435],[7.49496,43.85586],[7.49667,43.84978],[7.49913,43.84517],[7.5079,43.8413],[7.50703,43.83773],[7.50951,43.83468],[7.51035,43.82652],[7.51431,43.81913],[7.51438,43.8148],[7.51775,43.80784],[7.51872,43.8025],[7.52373,43.79782],[7.53016,43.78805],[7.5292,43.784],[7.52189,43.78446],[7.51483,43.78271],[7.51526,43.78193],[7.52067,43.78262],[7.52018,43.78188],[7.51218,43.78017],[7.51056,43.78098],[7.50834,43.77818],[7.5094,43.77535],[7.50628,43.77323],[7.50488,43.77419],[7.50203,43.77356],[7.49021,43.7672],[7.48828,43.76502],[7.48861,43.76379],[7.48497,43.76202],[7.48209,43.75688],[7.48776,43.75242],[7.48809,43.75002],[7.48683,43.749],[7.47464,43.75117],[7.46798,43.75697],[7.46584,43.75734],[7.46222,43.76026],[7.45782,43.7596],[7.45305,43.75841],[7.44491,43.74986],[7.44195,43.75076],[7.43907,43.74927],[7.4382,43.75132],[7.43082,43.74873],[7.42451,43.74086],[7.42297,43.74169],[7.41227,43.73439],[7.41304,43.73192],[7.40911,43.72959],[7.41564,43.72592],[7.41096,43.7236],[7.4106,43.72154],[7.40575,43.71937],[7.4006,43.72091],[7.39903,43.71863],[7.39342,43.71997],[7.38873,43.71963],[7.39044,43.72128],[7.38902,43.723],[7.38156,43.72217],[7.37272,43.71778],[7.36448,43.72183],[7.36073,43.72228],[7.35587,43.72073],[7.35115,43.71779],[7.35065,43.71478],[7.3376,43.71172],[7.33916,43.70971],[7.33611,43.71033],[7.33534,43.70853],[7.3373,43.70676],[7.33409,43.70295],[7.33214,43.70403],[7.3298,43.70247],[7.33114,43.69693],[7.33364,43.69358],[7.33388,43.68961],[7.34051,43.68769],[7.34135,43.68616],[7.347,43.6875],[7.34974,43.68701],[7.34868,43.6853],[7.34161,43.68259],[7.33999,43.6855],[7.33875,43.68569],[7.33836,43.68372],[7.33736,43.68368],[7.33724,43.68607],[7.33522,43.68639],[7.33452,43.68326],[7.33534,43.67821],[7.3333,43.67534],[7.3313,43.67452],[7.32637,43.67411],[7.32412,43.67695],[7.32378,43.68026],[7.3248,43.68148],[7.32254,43.68406],[7.32337,43.68501],[7.32235,43.68705],[7.32048,43.6878],[7.31989,43.69031],[7.32479,43.69311],[7.32432,43.69502],[7.32647,43.69615],[7.32519,43.69796],[7.32534,43.70016],[7.32135,43.70024],[7.32058,43.70441],[7.31472,43.70653],[7.31295,43.70549],[7.3118,43.70122],[7.30693,43.69813],[7.30723,43.69438],[7.30877,43.69259],[7.30754,43.68742],[7.30402,43.68483],[7.29361,43.68663],[7.29411,43.68878],[7.29303,43.6908],[7.28985,43.69298],[7.28526,43.69381],[7.28565,43.69775],[7.28417,43.69782],[7.28327,43.69443],[7.28493,43.69274],[7.28074,43.6926],[7.27685,43.69436],[7.26243,43.69426],[7.24794,43.69105],[7.24065,43.68777],[7.23064,43.67855],[7.23161,43.67671],[7.22934,43.67342],[7.22897,43.66893],[7.2303,43.66544],[7.22588,43.66226],[7.22526,43.6594],[7.21841,43.65604],[7.21811,43.65461],[7.21342,43.65283],[7.21158,43.64984],[7.21301,43.64843],[7.21162,43.64732],[7.20816,43.64751],[7.20646,43.64564],[7.20072,43.64521],[7.19921,43.64739],[7.20249,43.64965],[7.20288,43.6513],[7.19866,43.65598],[7.19454,43.65792],[7.17566,43.65557],[7.16767,43.6574],[7.15698,43.65349],[7.14681,43.64517],[7.14566,43.64332],[7.14617,43.64182],[7.14424,43.64162],[7.14272,43.63994],[7.14017,43.635],[7.13729,43.63634],[7.13702,43.63463],[7.13941,43.6334],[7.13701,43.6321],[7.13009,43.6178],[7.12647,43.60528],[7.12581,43.59458],[7.12644,43.59234],[7.12925,43.59254],[7.13025,43.59029],[7.12941,43.5891],[7.123,43.5883],[7.1218,43.58704],[7.12279,43.58469],[7.12951,43.58343],[7.12946,43.58135],[7.12501,43.57382],[7.12744,43.57306],[7.1299,43.56979],[7.13171,43.56913],[7.13372,43.57031],[7.13948,43.57011],[7.14056,43.56893],[7.13806,43.56706],[7.13939,43.5629],[7.13527,43.55802],[7.13465,43.55553],[7.13701,43.55407],[7.142,43.55458],[7.14507,43.55165],[7.13878,43.54913],[7.13744,43.54787],[7.13861,43.54702],[7.13637,43.54458],[7.12989,43.54351],[7.12917,43.54592],[7.12334,43.54595],[7.1209,43.54425],[7.12315,43.54271],[7.12113,43.54157],[7.119,43.54289],[7.11917,43.54491],[7.12021,43.54545],[7.11693,43.54789],[7.1193,43.55121],[7.12165,43.55192],[7.12175,43.5595],[7.11725,43.56135],[7.11294,43.56703],[7.10467,43.56995],[7.09626,43.57089],[7.08431,43.56954],[7.06941,43.563],[7.05465,43.54712],[7.04839,43.54656],[7.04092,43.5421],[7.03874,43.53719],[7.03913,43.53596],[7.03773,43.53471],[7.03597,43.53582],[7.03656,43.53709],[7.03543,43.53841],[7.03296,43.53933],[7.0343,43.54225],[7.03222,43.54418],[7.03253,43.54584],[7.02365,43.54945],[7.01872,43.54987],[7.01694,43.54842],[7.01657,43.55077],[7.01276,43.55048],[7.01214,43.54726],[7.00401,43.54863],[6.98725,43.54842],[6.97183,43.54545],[6.96333,43.54216],[6.95515,43.53717],[6.94816,43.53101],[6.95028,43.52934],[6.95007,43.52764],[6.94594,43.52622],[6.94167,43.52153],[6.94062,43.51752],[6.93837,43.51639],[6.93783,43.50947],[6.94673,43.50591],[6.95245,43.50622],[6.95455,43.50523],[6.95477,43.50256],[6.95705,43.5008],[6.95495,43.49854],[6.95619,43.49696],[6.95127,43.49644],[6.9497,43.49465],[6.94707,43.48864],[6.94868,43.48546],[6.94626,43.48466],[6.94583,43.48296],[6.94282,43.48484],[6.93109,43.48364],[6.9315,43.48101],[6.93373,43.48007],[6.9317,43.48029],[6.9313,43.47914],[6.93329,43.4777],[6.93241,43.4767],[6.92995,43.47694],[6.93071,43.47465],[6.927,43.47466],[6.9246,43.47255],[6.92392,43.46924],[6.9249,43.46822],[6.92478,43.46362],[6.92231,43.45957],[6.9223,43.45695],[6.92373,43.45635],[6.92072,43.45333],[6.92398,43.4505],[6.91966,43.45018],[6.92055,43.44937],[6.91843,43.44765],[6.91556,43.44808],[6.91035,43.44654],[6.90906,43.44479],[6.90479,43.44496],[6.90563,43.4437],[6.90107,43.44307],[6.89623,43.43714],[6.89289,43.43738],[6.89317,43.43529],[6.89655,43.43402],[6.89167,43.42845],[6.88879,43.42802],[6.88701,43.42891],[6.88488,43.42706],[6.88214,43.42839],[6.87894,43.42784],[6.87917,43.42603],[6.87034,43.42534],[6.86987,43.42645],[6.87131,43.42841],[6.86887,43.42964],[6.86781,43.43275],[6.86525,43.43393],[6.85974,43.43325],[6.857,43.43047],[6.85973,43.42821],[6.85669,43.42553],[6.85853,43.42207],[6.86043,43.42106],[6.85942,43.41754],[6.86055,43.41704],[6.85975,43.41527],[6.85678,43.41435],[6.85631,43.41152],[6.85242,43.41073],[6.84543,43.41557],[6.83814,43.41654],[6.83464,43.41595],[6.82908,43.41851],[6.82088,43.41555],[6.8147,43.41562],[6.80956,43.41316],[6.80658,43.41445],[6.79904,43.41295],[6.7977,43.4139],[6.79436,43.41241],[6.79478,43.41042],[6.78898,43.40807],[6.78411,43.40903],[6.78219,43.41261],[6.78029,43.41251],[6.77412,43.41781],[6.7698,43.41951],[6.76963,43.42069],[6.76567,43.42133],[6.76627,43.42375],[6.76341,43.42449],[6.75346,43.422],[6.74549,43.41789],[6.73598,43.40871],[6.72951,43.39725],[6.7284,43.39305],[6.73264,43.39013],[6.72595,43.38313],[6.72607,43.38137],[6.72152,43.38016],[6.72021,43.3757],[6.71716,43.37289],[6.71407,43.37179],[6.71493,43.36856],[6.71309,43.36701],[6.71382,43.36428],[6.71719,43.3623],[6.7189,43.35677],[6.71297,43.35268],[6.71527,43.35192],[6.71655,43.3475],[6.71111,43.34483],[6.70296,43.34414],[6.6957,43.3411],[6.68892,43.34212],[6.68003,43.3403],[6.67192,43.33584],[6.66858,43.33223],[6.66818,43.32769],[6.66535,43.32523],[6.66595,43.31822],[6.67029,43.31409],[6.6725,43.314],[6.67131,43.3126],[6.65924,43.31391],[6.6449,43.306],[6.63501,43.3075],[6.63179,43.30475],[6.62932,43.30484],[6.62687,43.30313],[6.62431,43.29601],[6.62268,43.2964],[6.61472,43.29372],[6.61279,43.29172],[6.60167,43.28646],[6.60108,43.28504],[6.58998,43.28244],[6.58521,43.27951],[6.58387,43.2773],[6.5868,43.26899],[6.58653,43.26779],[6.5835,43.26831],[6.58201,43.26746],[6.58533,43.26558],[6.58607,43.26393],[6.58908,43.26445],[6.59347,43.26226],[6.59757,43.26341],[6.60331,43.26266],[6.61231,43.26434],[6.6207,43.2642],[6.62504,43.26728],[6.62949,43.26742],[6.63583,43.27223],[6.63748,43.27117],[6.63875,43.2718],[6.63777,43.27369],[6.64017,43.27436],[6.64616,43.27369],[6.64781,43.27073],[6.65356,43.27025],[6.66212,43.26491],[6.66521,43.26489],[6.66953,43.26847],[6.66917,43.27609],[6.6758,43.27849],[6.67858,43.27851],[6.68242,43.27445],[6.68913,43.27235],[6.69532,43.26684],[6.69763,43.26647],[6.69561,43.26146],[6.69385,43.26103],[6.69023,43.25532],[6.69106,43.25235],[6.68481,43.25115],[6.67656,43.24479],[6.66857,43.24555],[6.66443,43.24135],[6.66233,43.22313],[6.66429,43.21183],[6.66928,43.20934],[6.66776,43.20786],[6.66978,43.20594],[6.67658,43.2037],[6.68109,43.19982],[6.67694,43.19773],[6.67696,43.19616],[6.67529,43.19531],[6.6742,43.19648],[6.67034,43.19655],[6.66976,43.19544],[6.66416,43.19462],[6.65997,43.19622],[6.65661,43.19508],[6.65147,43.19028],[6.64671,43.18763],[6.64305,43.1871],[6.64198,43.18601],[6.64331,43.18303],[6.64076,43.18191],[6.64091,43.17523],[6.63974,43.1737],[6.63998,43.17261],[6.64402,43.17155],[6.64681,43.16919],[6.64664,43.16771],[6.64479,43.16761],[6.6389,43.17215],[6.63411,43.17233],[6.62749,43.16853],[6.62674,43.16658],[6.62216,43.16445],[6.62139,43.16237],[6.62253,43.16097],[6.62092,43.15927],[6.61829,43.15942],[6.61797,43.16182],[6.61423,43.16553],[6.60979,43.16637],[6.61033,43.16784],[6.60811,43.17036],[6.60858,43.17178],[6.60271,43.17416],[6.60447,43.1755],[6.60173,43.18209],[6.59073,43.1858],[6.58099,43.18656],[6.57784,43.18574],[6.57502,43.18765],[6.56961,43.18677],[6.562,43.18909],[6.54843,43.18604],[6.53691,43.17881],[6.53467,43.17592],[6.53408,43.17279],[6.53503,43.17149],[6.54,43.17013],[6.53984,43.16873],[6.53542,43.1671],[6.53509,43.16603],[6.5366,43.16467],[6.5346,43.16334],[6.5298,43.16537],[6.5279,43.16436],[6.52462,43.16597],[6.52072,43.16486],[6.51856,43.162],[6.51524,43.16118],[6.51224,43.15882],[6.50959,43.15864],[6.50842,43.15512],[6.50119,43.15557],[6.5009,43.15411],[6.4967,43.15313],[6.49664,43.15119],[6.49171,43.1511],[6.49059,43.15297],[6.48678,43.15201],[6.4869,43.15115],[6.47764,43.15608],[6.47441,43.1557],[6.47222,43.15408],[6.46818,43.1545],[6.4678,43.15613],[6.46415,43.15753],[6.45575,43.15454],[6.45341,43.15531],[6.44921,43.15339],[6.44713,43.15162],[6.44873,43.14908],[6.43866,43.14224],[6.4401,43.14512],[6.43938,43.14731],[6.43575,43.14992],[6.42907,43.15143],[6.42264,43.14998],[6.42055,43.1483],[6.42062,43.14659],[6.41332,43.14942],[6.4097,43.14794],[6.40362,43.14915],[6.39902,43.14686],[6.39792,43.14418],[6.39564,43.1438],[6.39552,43.14523],[6.39402,43.14553],[6.38888,43.14396],[6.38757,43.1449],[6.38445,43.14402],[6.38127,43.14058],[6.38121,43.13896],[6.37912,43.13791],[6.37467,43.13653],[6.37344,43.13757],[6.36872,43.13697],[6.36582,43.13326],[6.36381,43.12706],[6.36484,43.12396],[6.36327,43.12252],[6.3665,43.12123],[6.36356,43.11958],[6.36261,43.1212],[6.35976,43.1199],[6.35938,43.11596],[6.36148,43.11259],[6.36403,43.11101],[6.36002,43.10985],[6.35876,43.10665],[6.36154,43.10407],[6.36723,43.10274],[6.36635,43.09605],[6.36461,43.09572],[6.36395,43.09325],[6.36625,43.09188],[6.36841,43.09265],[6.37076,43.09135],[6.3676,43.09001],[6.36506,43.09043],[6.36435,43.08631],[6.35907,43.08916],[6.34772,43.08852],[6.3451,43.09078],[6.34114,43.08862],[6.33926,43.08995],[6.33648,43.0896],[6.33515,43.09095],[6.33253,43.08951],[6.33202,43.09188],[6.3307,43.09166],[6.32944,43.09301],[6.32152,43.09139],[6.3208,43.09246],[6.32154,43.09346],[6.32493,43.09438],[6.32537,43.0954],[6.32456,43.09913],[6.32282,43.10072],[6.32083,43.10033],[6.3187,43.10252],[6.31953,43.10386],[6.31759,43.10446],[6.31667,43.10617],[6.30924,43.10832],[6.30299,43.10777],[6.29944,43.10605],[6.29946,43.10835],[6.29701,43.11015],[6.29505,43.10968],[6.29378,43.10788],[6.29243,43.109],[6.28933,43.10672],[6.28858,43.10932],[6.28631,43.1113],[6.28832,43.11185],[6.28816,43.1142],[6.28581,43.11564],[6.28348,43.11513],[6.28231,43.11679],[6.27825,43.11689],[6.27756,43.11948],[6.27494,43.12074],[6.26667,43.12027],[6.26223,43.1211],[6.23946,43.11325],[6.23023,43.1132],[6.20808,43.11644],[6.20103,43.11606],[6.19579,43.1135],[6.19202,43.10993],[6.18185,43.10784],[6.17384,43.10081],[6.17045,43.09975],[6.16045,43.08929],[6.1592,43.0869],[6.16003,43.08575],[6.15808,43.08486],[6.15827,43.08292],[6.15688,43.08237],[6.15629,43.08002],[6.15475,43.07984],[6.15028,43.06446],[6.1494,43.05655],[6.14996,43.04585],[6.15204,43.03718],[6.15315,43.03525],[6.15715,43.03435],[6.16942,43.03497],[6.16954,43.03402],[6.17266,43.03282],[6.16578,43.03189],[6.15481,43.02736],[6.15048,43.02791],[6.14877,43.0259],[6.14202,43.0299],[6.13695,43.03039],[6.13709,43.03161],[6.13526,43.03288],[6.13616,43.03551],[6.13466,43.03619],[6.1296,43.03461],[6.12664,43.03556],[6.12692,43.03407],[6.12528,43.03354],[6.12544,43.03191],[6.12377,43.03174],[6.12291,43.03285],[6.12004,43.03204],[6.11672,43.03476],[6.11256,43.0351],[6.11007,43.03266],[6.10807,43.03222],[6.10707,43.0301],[6.10338,43.03085],[6.10318,43.02752],[6.10083,43.02913],[6.09702,43.02727],[6.09517,43.02922],[6.09765,43.03261],[6.09342,43.03352],[6.09126,43.03536],[6.09122,43.03676],[6.09304,43.03719],[6.09378,43.04036],[6.1013,43.0407],[6.10482,43.04211],[6.1102,43.03967],[6.11777,43.03892],[6.12456,43.04054],[6.12819,43.04267],[6.13161,43.04801],[6.13303,43.05495],[6.13233,43.05952],[6.12545,43.07827],[6.11399,43.08366],[6.09978,43.08332],[6.08619,43.08724],[6.08528,43.08651],[6.07878,43.08771],[6.07647,43.08694],[6.07492,43.08496],[6.07087,43.0851],[6.06867,43.0831],[6.05744,43.08253],[6.05667,43.08106],[6.05126,43.07894],[6.03749,43.07886],[6.03213,43.07751],[6.02715,43.07879],[6.02154,43.07826],[6.01791,43.0813],[6.01682,43.08364],[6.02145,43.08596],[6.02105,43.08724],[6.0241,43.09011],[6.02481,43.09162],[6.02347,43.09481],[6.01988,43.09642],[6.01918,43.09806],[6.0144,43.09819],[6.01384,43.10018],[6.00546,43.10396],[6.00185,43.10332],[5.99936,43.1048],[5.99328,43.10499],[5.99219,43.10319],[5.9851,43.10661],[5.97951,43.10697],[5.97765,43.10563],[5.97682,43.10724],[5.97482,43.10767],[5.9716,43.10619],[5.97221,43.10428],[5.96812,43.10356],[5.96764,43.10488],[5.96315,43.10692],[5.95579,43.10823],[5.95472,43.10674],[5.95054,43.10656],[5.94899,43.10756],[5.94407,43.10649],[5.94094,43.10776],[5.93777,43.10697],[5.93024,43.10229],[5.92568,43.10231],[5.93079,43.11173],[5.93023,43.1136],[5.93445,43.11324],[5.93233,43.11782],[5.93433,43.1186],[5.92851,43.12082],[5.92611,43.11558],[5.92264,43.11521],[5.9221,43.11846],[5.92733,43.11955],[5.92708,43.1215],[5.92318,43.12325],[5.92144,43.12186],[5.92063,43.12391],[5.91757,43.12185],[5.91963,43.12128],[5.9198,43.12002],[5.9139,43.11935],[5.91466,43.12276],[5.91271,43.12294],[5.91082,43.11922],[5.90748,43.11888],[5.90766,43.11662],[5.91129,43.11677],[5.91095,43.11508],[5.89921,43.11301],[5.89574,43.11466],[5.89743,43.11622],[5.89604,43.11672],[5.89494,43.11473],[5.88581,43.11631],[5.88467,43.11374],[5.88629,43.11293],[5.88543,43.11092],[5.89165,43.10911],[5.89172,43.10798],[5.88123,43.10944],[5.88156,43.10794],[5.88668,43.10725],[5.88577,43.10524],[5.88301,43.10726],[5.88054,43.105],[5.88316,43.10257],[5.901,43.104],[5.90999,43.09992],[5.90763,43.09847],[5.90802,43.09575],[5.91104,43.09481],[5.91038,43.0932],[5.90585,43.09338],[5.90132,43.0916],[5.89477,43.08171],[5.89679,43.08048],[5.90017,43.08145],[5.90065,43.0791],[5.90957,43.0794],[5.91239,43.08318],[5.91709,43.08583],[5.921,43.08443],[5.92462,43.07824],[5.9274,43.07748],[5.92801,43.0784],[5.92621,43.08021],[5.92895,43.08292],[5.93025,43.08189],[5.9382,43.08456],[5.94936,43.07884],[5.95096,43.07677],[5.9511,43.07203],[5.94704,43.06775],[5.94389,43.06641],[5.93664,43.07173],[5.93058,43.07188],[5.91246,43.06597],[5.90729,43.07001],[5.90666,43.07278],[5.90103,43.07313],[5.89932,43.07432],[5.89973,43.07611],[5.89846,43.07759],[5.8902,43.07804],[5.88674,43.07697],[5.88285,43.07222],[5.8806,43.07261],[5.87527,43.06868],[5.87229,43.06918],[5.87228,43.06571],[5.86877,43.06353],[5.86324,43.05753],[5.86215,43.05562],[5.86279,43.05168],[5.859,43.04802],[5.85373,43.04809],[5.84963,43.04985],[5.84394,43.04759],[5.83455,43.04991],[5.83112,43.04898],[5.82881,43.04936],[5.82699,43.05208],[5.82168,43.0536],[5.81957,43.0574],[5.81974,43.05948],[5.8169,43.06104],[5.81575,43.06365],[5.81224,43.06371],[5.80644,43.06741],[5.8019,43.0684],[5.7957,43.06963],[5.79239,43.06869],[5.79653,43.0747],[5.79973,43.07455],[5.80371,43.07668],[5.8034,43.07863],[5.80628,43.08043],[5.80666,43.08195],[5.80468,43.08273],[5.80585,43.08381],[5.80597,43.08607],[5.808,43.087],[5.80787,43.08998],[5.80892,43.09102],[5.80824,43.09239],[5.81127,43.09266],[5.8125,43.09587],[5.81176,43.098],[5.80526,43.0997],[5.80599,43.10112],[5.80914,43.10142],[5.81394,43.10677],[5.81118,43.11235],[5.80821,43.11519],[5.80456,43.11485],[5.80229,43.11604],[5.80321,43.11705],[5.80072,43.11753],[5.79834,43.11477],[5.79102,43.11242],[5.78869,43.11367],[5.79004,43.11458],[5.78867,43.11638],[5.77702,43.11696],[5.76734,43.11554],[5.76665,43.11624],[5.77543,43.12052],[5.77721,43.12245],[5.77347,43.12374],[5.77341,43.12599],[5.78096,43.13012],[5.77908,43.13478],[5.77125,43.13893],[5.76628,43.13904],[5.76258,43.13772],[5.76131,43.13604],[5.75456,43.13526],[5.75271,43.13382],[5.7523,43.13014],[5.7494,43.13095],[5.74816,43.13293],[5.74981,43.13284],[5.75035,43.13462],[5.74928,43.13546],[5.74719,43.13426],[5.74199,43.13488],[5.7405,43.13352],[5.7372,43.13596],[5.72805,43.13516],[5.72688,43.13627],[5.72411,43.13618],[5.72089,43.14122],[5.71996,43.14661],[5.71604,43.14804],[5.71222,43.14465],[5.7093,43.14522],[5.70981,43.14661],[5.70734,43.14636],[5.70743,43.14465],[5.70469,43.14519],[5.70194,43.14347],[5.69488,43.14359],[5.69344,43.14755],[5.69474,43.14878],[5.69172,43.15211],[5.68219,43.15545],[5.68391,43.15779],[5.68279,43.16079],[5.69255,43.16487],[5.6941,43.16622],[5.69511,43.16989],[5.69244,43.17487],[5.68674,43.17968],[5.67401,43.17781],[5.66883,43.1798],[5.66673,43.18218],[5.66015,43.18186],[5.65113,43.18817],[5.64635,43.1874],[5.64287,43.18905],[5.63832,43.18918],[5.63342,43.18841],[5.62898,43.18612],[5.62417,43.18698],[5.61517,43.18233],[5.61461,43.18095],[5.6132,43.18108],[5.61156,43.17821],[5.61077,43.1726],[5.60704,43.1741],[5.60627,43.1725],[5.61034,43.17134],[5.60813,43.16935],[5.61007,43.16753],[5.61349,43.17067],[5.61464,43.1692],[5.61051,43.16557],[5.6081,43.16646],[5.60578,43.16567],[5.60758,43.16359],[5.60722,43.1604],[5.60414,43.16035],[5.59875,43.16421],[5.59445,43.16442],[5.58849,43.16685],[5.58821,43.16857],[5.58575,43.16837],[5.56929,43.17488],[5.56902,43.17665],[5.55292,43.1899],[5.54797,43.19603],[5.54731,43.19893],[5.54977,43.20674],[5.54921,43.20802],[5.54512,43.20844],[5.54514,43.21034],[5.5394,43.20878],[5.53806,43.21234],[5.53519,43.21296],[5.53569,43.21417],[5.53122,43.21258],[5.53021,43.21072],[5.51576,43.20303],[5.51396,43.20406],[5.51598,43.2049],[5.51516,43.2057],[5.51258,43.20469],[5.5134,43.20128],[5.50921,43.19781],[5.50834,43.20129],[5.50536,43.19944],[5.50277,43.20073],[5.50221,43.19953],[5.50439,43.19875],[5.49987,43.19689],[5.49444,43.20052],[5.49486,43.20257],[5.49288,43.20353],[5.49152,43.20245],[5.48339,43.20582],[5.47807,43.20395],[5.47367,43.20587],[5.47023,43.20592],[5.47079,43.20739],[5.46896,43.2087],[5.46438,43.20834],[5.45893,43.21119],[5.45354,43.20954],[5.4452,43.21116],[5.44772,43.2088],[5.44697,43.20742],[5.45422,43.20357],[5.4545,43.20204],[5.44899,43.20258],[5.44679,43.20522],[5.4444,43.20429],[5.43882,43.20711],[5.43675,43.20617],[5.4325,43.20737],[5.42796,43.21006],[5.42662,43.20919],[5.42091,43.21053],[5.4203,43.20964],[5.423,43.20826],[5.42689,43.20347],[5.41196,43.20893],[5.40817,43.21191],[5.40545,43.21184],[5.40446,43.21292],[5.38988,43.21205],[5.38739,43.21026],[5.38223,43.20951],[5.37996,43.21046],[5.36864,43.20726],[5.3634,43.20718],[5.36043,43.2091],[5.35676,43.20835],[5.35284,43.21129],[5.34713,43.2127],[5.34182,43.21257],[5.34053,43.21373],[5.34252,43.21684],[5.3458,43.21688],[5.34467,43.22146],[5.34637,43.22596],[5.34797,43.22709],[5.34797,43.22948],[5.35006,43.23203],[5.35572,43.23292],[5.35943,43.23574],[5.36216,43.23973],[5.36253,43.24307],[5.36691,43.24242],[5.36862,43.2441],[5.36705,43.24518],[5.37252,43.24508],[5.37473,43.24844],[5.37518,43.25131],[5.37332,43.25208],[5.37482,43.25519],[5.37605,43.25516],[5.37473,43.25952],[5.37148,43.25992],[5.37225,43.26144],[5.3677,43.26431],[5.3687,43.266],[5.37088,43.26597],[5.37019,43.26747],[5.36308,43.27037],[5.36167,43.27401],[5.35326,43.27869],[5.35326,43.27996],[5.3476,43.28024],[5.34546,43.28161],[5.34798,43.28275],[5.34969,43.28595],[5.35442,43.28926],[5.35499,43.29103],[5.35328,43.29252],[5.35415,43.29375],[5.35753,43.29507],[5.3613,43.29277],[5.36475,43.29265],[5.37348,43.29418],[5.37266,43.29605],[5.36316,43.29477],[5.36024,43.29567],[5.35942,43.29764],[5.36248,43.29902],[5.36248,43.30132],[5.36076,43.30138],[5.36134,43.30319],[5.36408,43.30425],[5.36224,43.30511],[5.36441,43.31214],[5.36123,43.31133],[5.36034,43.31239],[5.36406,43.3141],[5.36075,43.31628],[5.3588,43.31531],[5.35808,43.31636],[5.36132,43.31774],[5.35725,43.31811],[5.35652,43.31905],[5.36214,43.32093],[5.35867,43.32574],[5.35738,43.3251],[5.35883,43.32321],[5.35507,43.32082],[5.35434,43.32165],[5.35693,43.32293],[5.35577,43.32446],[5.35239,43.32309],[5.35167,43.32414],[5.35329,43.32501],[5.3498,43.32948],[5.34803,43.32873],[5.34731,43.32968],[5.35037,43.33107],[5.34587,43.3319],[5.34501,43.33319],[5.35253,43.33282],[5.35107,43.33471],[5.34277,43.3351],[5.3416,43.3364],[5.34552,43.33627],[5.34318,43.3391],[5.33755,43.33952],[5.32829,43.34475],[5.32929,43.34563],[5.33192,43.34486],[5.33924,43.34116],[5.34102,43.34479],[5.32625,43.35238],[5.32694,43.35327],[5.32418,43.3544],[5.32188,43.35276],[5.31731,43.35509],[5.31664,43.35431],[5.32119,43.35187],[5.31661,43.35385],[5.31571,43.35297],[5.31412,43.35455],[5.31674,43.35645],[5.32262,43.35423],[5.32429,43.35576],[5.32265,43.35715],[5.322,43.3555],[5.3142,43.36003],[5.30829,43.3614],[5.29647,43.35956],[5.29596,43.35822],[5.28806,43.35689],[5.28673,43.35499],[5.28225,43.35365],[5.27132,43.34504],[5.26568,43.34334],[5.26523,43.34163],[5.26144,43.3412],[5.25999,43.33929],[5.25777,43.33927],[5.25861,43.33771],[5.25595,43.33737],[5.2555,43.33819],[5.24358,43.33279],[5.24331,43.33139],[5.23717,43.33172],[5.22938,43.32873],[5.21985,43.32812],[5.22051,43.33022],[5.21869,43.33109],[5.217,43.33058],[5.21713,43.32959],[5.20787,43.32924],[5.20652,43.33062],[5.1988,43.33199],[5.1916,43.32952],[5.18477,43.33249],[5.17861,43.33133],[5.17748,43.33362],[5.17536,43.33425],[5.17162,43.33241],[5.16876,43.32811],[5.16551,43.32856],[5.16278,43.32695],[5.15979,43.32879],[5.15923,43.32722],[5.15607,43.32735],[5.1532,43.33035],[5.1519,43.33037],[5.15038,43.32664],[5.14438,43.32652],[5.14179,43.32914],[5.13784,43.32753],[5.13415,43.32916],[5.13272,43.32793],[5.12856,43.32826],[5.12657,43.32953],[5.12565,43.32837],[5.1235,43.32942],[5.12259,43.32845],[5.11713,43.32805],[5.11082,43.32893],[5.10905,43.33059],[5.10704,43.33023],[5.10702,43.32933],[5.09979,43.32906],[5.0987,43.3281],[5.09515,43.3289],[5.09239,43.33208],[5.08766,43.33242],[5.08743,43.33112],[5.08159,43.32788],[5.07046,43.32864],[5.07123,43.33039],[5.06945,43.33192],[5.06243,43.3311],[5.06055,43.33042],[5.06002,43.32683],[5.05838,43.32768],[5.05448,43.3257],[5.05391,43.32427],[5.05019,43.32495],[5.04822,43.32644],[5.05094,43.33052],[5.05,43.3318],[5.0484,43.33175],[5.04604,43.3286],[5.04413,43.32888],[5.04258,43.33107],[5.04104,43.32729],[5.03253,43.33276],[5.02733,43.33806],[5.02369,43.33905],[5.01988,43.34233],[5.01804,43.34675],[5.02472,43.34556],[5.02552,43.34725],[5.0232,43.34752],[5.02154,43.34904],[5.02307,43.35302],[5.02583,43.35246],[5.02528,43.35553],[5.0173,43.35762],[5.01706,43.35948],[5.01264,43.36259],[5.01308,43.36416],[5.01113,43.36483],[5.01205,43.36616],[5.0114,43.36803],[5.01435,43.3693],[5.00866,43.36903],[5.00672,43.37268],[5.00014,43.376],[5.00112,43.37936],[4.99776,43.38068],[4.99689,43.38336],[4.99386,43.3846],[4.99289,43.38629],[4.99155,43.38551],[4.98999,43.38645],[4.99016,43.38753],[4.99227,43.38762],[4.98685,43.39224],[4.98851,43.39355],[4.9896,43.39294],[4.99147,43.39506],[4.9931,43.39534],[4.99458,43.394],[5.00107,43.39822],[4.99551,43.40348],[4.99151,43.40347],[4.98925,43.40462],[4.98895,43.40215],[4.98744,43.40263],[4.98772,43.40652],[4.98633,43.40554],[4.98623,43.40343],[4.98316,43.40381],[4.98248,43.3968],[4.97806,43.40015],[4.97477,43.40122],[4.97382,43.40215],[4.97657,43.40415],[4.97764,43.4074],[4.97575,43.41092],[4.9724,43.41307],[4.97163,43.41566],[4.97391,43.41686],[4.97368,43.42002],[4.97,43.42488],[4.96771,43.4261],[4.94944,43.42922],[4.9438,43.42891],[4.94122,43.42826],[4.94147,43.42687],[4.93875,43.42658],[4.93815,43.42807],[4.94035,43.4293],[4.93879,43.43155],[4.93138,43.43316],[4.91933,43.43091],[4.9106,43.42728],[4.90874,43.42242],[4.90635,43.41974],[4.89262,43.41539],[4.88841,43.41216],[4.89419,43.40447],[4.8935,43.40412],[4.88677,43.41288],[4.88472,43.41372],[4.88683,43.41474],[4.88843,43.41698],[4.88884,43.42023],[4.89205,43.4233],[4.89658,43.42621],[4.90304,43.42799],[4.90342,43.42966],[4.89549,43.42776],[4.89282,43.42876],[4.88846,43.42657],[4.88396,43.41951],[4.88222,43.41928],[4.87783,43.42595],[4.87547,43.4261],[4.87235,43.43274],[4.86741,43.43233],[4.86494,43.44184],[4.86044,43.45084],[4.86209,43.45184],[4.86083,43.45398],[4.85025,43.4508],[4.85356,43.44577],[4.85889,43.44169],[4.87731,43.41051],[4.87167,43.40871],[4.8658,43.40464],[4.85264,43.41346],[4.85004,43.41713],[4.84607,43.41781],[4.83032,43.42774],[4.82986,43.42977],[4.8285,43.42976],[4.82841,43.42768],[4.82444,43.42439],[4.86147,43.40077],[4.85642,43.40049],[4.85402,43.39868],[4.85036,43.39804],[4.84154,43.4036],[4.83586,43.39804],[4.83868,43.39453],[4.84118,43.39461],[4.84224,43.39583],[4.84866,43.39159],[4.8527,43.39412],[4.85449,43.39048],[4.85152,43.3902],[4.85385,43.38882],[4.87183,43.39004],[4.85411,43.38861],[4.85511,43.38788],[4.85266,43.38343],[4.84909,43.38319],[4.85076,43.37786],[4.84338,43.37814],[4.84116,43.3767],[4.82891,43.37589],[4.83035,43.3751],[4.84236,43.37581],[4.84773,43.37106],[4.8492,43.3713],[4.84903,43.37262],[4.85165,43.37607],[4.85479,43.37176],[4.85694,43.37092],[4.8591,43.36721],[4.86057,43.37005],[4.86468,43.36502],[4.86603,43.36746],[4.86478,43.36884],[4.86674,43.36961],[4.87069,43.36402],[4.8728,43.36294],[4.87322,43.36113],[4.87992,43.35899],[4.87967,43.35649],[4.88305,43.3565],[4.88457,43.35853],[4.88296,43.3637],[4.89017,43.36535],[4.89113,43.36783],[4.90223,43.37099],[4.90877,43.37471],[4.91358,43.38286],[4.91113,43.38715],[4.91648,43.38386],[4.91753,43.37989],[4.91611,43.37695],[4.87757,43.34852],[4.86838,43.34319],[4.85505,43.33262],[4.85187,43.33235],[4.84814,43.33367],[4.83873,43.32914],[4.83549,43.32875],[4.82319,43.33596],[4.81367,43.33963],[4.79502,43.345],[4.77376,43.3485],[4.75368,43.35034],[4.73088,43.35067],[4.71774,43.35031],[4.7057,43.3478],[4.70223,43.34877],[4.69222,43.34822],[4.6807,43.34575],[4.67105,43.3468],[4.65913,43.34625],[4.64238,43.35036],[4.63789,43.35022],[4.63809,43.351],[4.60443,43.35535],[4.5858,43.36007],[4.57256,43.36599],[4.5628,43.37214],[4.55819,43.37686],[4.55561,43.38282],[4.55743,43.38832],[4.56272,43.39225],[4.5657,43.39339],[4.56737,43.39087],[4.57437,43.39387],[4.5877,43.40071],[4.59287,43.40557],[4.59214,43.41317],[4.5881,43.42271],[4.58204,43.43056],[4.5682,43.44011],[4.55492,43.44622],[4.5307,43.45257],[4.51362,43.45506],[4.49051,43.45667],[4.45793,43.45692],[4.44671,43.45575],[4.44525,43.45456],[4.44035,43.45484],[4.43555,43.45246],[4.43728,43.45109],[4.42806,43.44921],[4.42372,43.44885],[4.42255,43.44966],[4.42103,43.44798],[4.40459,43.44812],[4.40133,43.44683],[4.38204,43.45227],[4.23028,43.46019],[4.2323,43.47438],[4.23062,43.47875],[4.23941,43.49376],[4.2378,43.49666],[4.23968,43.49917],[4.25864,43.50754],[4.27141,43.50807],[4.288,43.51339],[4.29585,43.51453],[4.30232,43.5185],[4.30883,43.52447],[4.3205,43.52549],[4.32467,43.5282],[4.31673,43.53407],[4.3079,43.5452],[4.30811,43.54804],[4.31138,43.55133],[4.31543,43.55107],[4.31714,43.55215],[4.31721,43.55348],[4.31399,43.55557],[4.31901,43.55712],[4.32287,43.55431],[4.32236,43.55193],[4.31697,43.54864],[4.3157,43.5467],[4.31608,43.54488],[4.33058,43.5362],[4.33414,43.53545],[4.34923,43.54254],[4.35037,43.54675],[4.36514,43.54716],[4.38166,43.553],[4.38592,43.55701],[4.38741,43.5622],[4.40383,43.55925],[4.40935,43.56113],[4.4158,43.56668],[4.41659,43.57134],[4.41532,43.57254],[4.41204,43.57296],[4.40422,43.57202],[4.40294,43.57299],[4.42554,43.58522],[4.43385,43.5853],[4.44701,43.58303],[4.45549,43.5859],[4.46068,43.58926],[4.46679,43.59914],[4.47414,43.60386],[4.47523,43.6083],[4.47252,43.61204],[4.46681,43.61521],[4.46222,43.61489],[4.45453,43.61139],[4.44836,43.61029],[4.43975,43.61067],[4.42704,43.62068],[4.42617,43.62448],[4.4343,43.63355],[4.4408,43.64905],[4.4513,43.66413],[4.45796,43.66801],[4.47049,43.6697],[4.47747,43.67251],[4.47843,43.67685],[4.47567,43.68446],[4.47865,43.6913],[4.48724,43.69924],[4.49627,43.70168],[4.50368,43.70226],[4.52439,43.70213],[4.52701,43.70262],[4.533,43.70665],[4.53985,43.70727],[4.55811,43.6995],[4.5789,43.69751],[4.58188,43.69637],[4.59303,43.68746],[4.60583,43.68608],[4.61687,43.68885],[4.6251,43.68544],[4.62745,43.68543],[4.62766,43.69054],[4.62543,43.6957],[4.61475,43.70935],[4.61304,43.71429],[4.61228,43.72475],[4.61364,43.72982],[4.62566,43.74907],[4.62949,43.76192],[4.63975,43.77245],[4.64854,43.77916],[4.65194,43.78407],[4.65508,43.80764],[4.65163,43.81811],[4.64783,43.82229],[4.64659,43.82554],[4.64465,43.82555],[4.64242,43.83144],[4.64602,43.83534],[4.65104,43.83811],[4.65015,43.83913],[4.66311,43.84283],[4.66679,43.84612],[4.6653,43.85088],[4.66016,43.85324],[4.65185,43.85237],[4.64522,43.84985],[4.64146,43.85114],[4.64296,43.85439],[4.64747,43.85683],[4.6483,43.85883],[4.6472,43.86079],[4.64295,43.86326],[4.64191,43.86748],[4.65048,43.86986],[4.65923,43.87582],[4.66094,43.87584],[4.66242,43.87083],[4.66551,43.872],[4.66544,43.87515],[4.67016,43.87754],[4.69223,43.88418],[4.69927,43.88869],[4.70451,43.89472],[4.7075,43.89555],[4.70932,43.89801],[4.69915,43.8966],[4.70065,43.89837],[4.7135,43.90179],[4.72337,43.90595],[4.73069,43.91306],[4.7401,43.91968],[4.73906,43.92406],[4.74255,43.92775],[4.75,43.93218],[4.76153,43.93492],[4.76878,43.9338],[4.77902,43.93789],[4.78897,43.94733],[4.79278,43.95378],[4.79716,43.95672],[4.808,43.96003],[4.81402,43.964],[4.81506,43.96763],[4.81015,43.97704],[4.81126,43.98562],[4.81247,43.98766],[4.81598,43.9888],[4.82996,43.98558],[4.83766,43.98519],[4.84211,43.98647],[4.84438,43.98937],[4.84555,43.99668],[4.84334,44.00986],[4.83768,44.01494],[4.82319,44.01603],[4.82115,44.01647],[4.81838,44.01905],[4.81617,44.03214],[4.80801,44.03973],[4.78763,44.05402],[4.78798,44.06505],[4.78508,44.06742],[4.76943,44.07152],[4.76195,44.07522],[4.75956,44.07507],[4.75785,44.07725],[4.76052,44.07894],[4.75975,44.08164],[4.76086,44.0863],[4.7583,44.08792],[4.74884,44.08723],[4.7359,44.08264],[4.73013,44.07903],[4.72587,44.07844],[4.72255,44.07968],[4.71995,44.08346],[4.71879,44.0925],[4.70746,44.10367],[4.7062,44.10994],[4.70701,44.11368],[4.71074,44.11846],[4.7117,44.13474],[4.7189,44.1445],[4.71612,44.16597],[4.71807,44.17359],[4.71638,44.17672],[4.71977,44.17714],[4.72207,44.18742],[4.71496,44.19104],[4.70578,44.19279],[4.70384,44.19765],[4.70444,44.20057],[4.70988,44.208],[4.70894,44.21191],[4.70655,44.21443],[4.70181,44.21607],[4.69417,44.21543],[4.68016,44.21213],[4.67425,44.21402],[4.67272,44.21816],[4.67844,44.22943],[4.67786,44.23412],[4.67484,44.23855],[4.6619,44.2471],[4.65407,44.25434],[4.65008,44.26131],[4.64922,44.27036],[4.65097,44.27436],[4.65139,44.2867],[4.65367,44.29728],[4.65347,44.3021],[4.64932,44.31156],[4.65133,44.32258],[4.65062,44.32981],[4.66953,44.32284],[4.67132,44.32366],[4.67143,44.32478],[4.67528,44.32399],[4.67903,44.32049],[4.71302,44.32065],[4.71251,44.32386],[4.71381,44.32557],[4.71885,44.32573],[4.71795,44.32689],[4.74932,44.32507],[4.76225,44.32538],[4.77182,44.31747],[4.77967,44.31937],[4.78534,44.31351],[4.78749,44.31358],[4.7905,44.30753],[4.79935,44.30348],[4.80456,44.3039],[4.80288,44.2966],[4.80501,44.29191],[4.80472,44.28782],[4.80302,44.28507],[4.8031,44.27999],[4.80656,44.2732],[4.804,44.26921],[4.80979,44.26372],[4.81267,44.25772],[4.81308,44.25271],[4.81208,44.2512],[4.8136,44.24712],[4.81214,44.24205],[4.8141,44.23231],[4.81738,44.2297],[4.82665,44.22833],[4.82769,44.23047],[4.83231,44.2319],[4.83771,44.23646],[4.8408,44.23567],[4.84148,44.23953],[4.84351,44.24178],[4.84622,44.24077],[4.85709,44.24598],[4.85696,44.24774],[4.8587,44.2486],[4.86595,44.24957],[4.8674,44.25575],[4.8705,44.25635],[4.87523,44.26004],[4.87905,44.26148],[4.88501,44.26171],[4.89615,44.26443],[4.90128,44.26428],[4.89574,44.25769],[4.89927,44.25685],[4.90192,44.26017],[4.92227,44.25984],[4.92308,44.26113],[4.92841,44.26267],[4.93291,44.26215],[4.9427,44.269],[4.95989,44.27419],[4.98145,44.28483],[4.98496,44.28586],[4.99712,44.28564],[5.00554,44.28675],[5.02214,44.29584],[5.04522,44.30126],[5.06056,44.30814],[5.06847,44.29981],[5.06814,44.29545],[5.07056,44.28922],[5.07651,44.28409],[5.08453,44.28264],[5.08647,44.28393],[5.09431,44.2828],[5.10412,44.27991],[5.10529,44.27768],[5.10797,44.27725],[5.10789,44.2809],[5.11589,44.28431],[5.11915,44.28692],[5.14268,44.29694],[5.14995,44.30193],[5.15477,44.30187],[5.15395,44.30589],[5.15063,44.30962],[5.16775,44.31483],[5.16992,44.31315],[5.17089,44.3098],[5.17314,44.30951],[5.1737,44.30837],[5.16929,44.30128],[5.17005,44.29986],[5.16811,44.28992],[5.16163,44.28908],[5.16116,44.28739],[5.14973,44.28208],[5.14707,44.27557],[5.14682,44.2718],[5.14872,44.26942],[5.16073,44.26655],[5.15965,44.2623],[5.15999,44.25725],[5.16237,44.25498],[5.16155,44.24559],[5.14947,44.2353],[5.15325,44.23297],[5.1554,44.2334],[5.1549,44.23094],[5.15813,44.22884],[5.16092,44.22976],[5.16169,44.22753],[5.16556,44.22473],[5.16656,44.22593],[5.16792,44.22544],[5.17668,44.22018],[5.18183,44.21897],[5.18467,44.21961],[5.18482,44.2188],[5.18871,44.22028],[5.19836,44.21667],[5.20206,44.21662],[5.20673,44.21376],[5.21614,44.21505],[5.22213,44.21341],[5.22318,44.2146],[5.22684,44.21497],[5.22851,44.21231],[5.23082,44.21193],[5.2339,44.21343],[5.23815,44.21323],[5.24045,44.23083],[5.2523,44.23121],[5.26855,44.22544],[5.27755,44.22019],[5.28067,44.2198],[5.29225,44.21447],[5.2976,44.20793],[5.3033,44.20539],[5.30379,44.20646],[5.30253,44.20856],[5.30334,44.2099],[5.31282,44.20816],[5.31831,44.20987],[5.33197,44.20392],[5.33683,44.20353],[5.33668,44.20435],[5.35535,44.21456],[5.38453,44.20118],[5.38108,44.19592],[5.38149,44.19168],[5.3863,44.18565],[5.38666,44.18168],[5.38648,44.17691],[5.38366,44.17293],[5.3846,44.16596],[5.38276,44.16048],[5.38324,44.15528],[5.38582,44.15558],[5.39247,44.15225],[5.39661,44.15196],[5.40853,44.15308],[5.41677,44.15511],[5.42391,44.14929],[5.42839,44.14912],[5.43244,44.15221],[5.43576,44.15225],[5.43567,44.15085],[5.43766,44.14923],[5.4366,44.148],[5.43754,44.14455],[5.43656,44.13998],[5.43919,44.13793],[5.44302,44.13827],[5.44757,44.13675],[5.44978,44.12877],[5.44873,44.12564],[5.45058,44.12154],[5.45472,44.11923],[5.46123,44.11814],[5.48259,44.11779],[5.49471,44.11538],[5.50261,44.11565],[5.5087,44.1185],[5.51125,44.12186],[5.51106,44.12411],[5.5414,44.13263],[5.55006,44.14577],[5.55133,44.14979],[5.56951,44.1481],[5.57873,44.15208],[5.58298,44.15762],[5.57325,44.16281],[5.56735,44.16928],[5.56437,44.1709],[5.56838,44.17999],[5.57282,44.18173],[5.57535,44.18504],[5.57462,44.18683],[5.57619,44.18804],[5.58188,44.18874],[5.58742,44.18736],[5.59621,44.18765],[5.60043,44.18933],[5.60205,44.19149],[5.60933,44.19071],[5.60959,44.1875],[5.6132,44.18604],[5.61596,44.18254],[5.61613,44.1778],[5.62629,44.17594],[5.63198,44.17369],[5.63209,44.17108],[5.63359,44.16978],[5.63616,44.16998],[5.63959,44.16759],[5.63722,44.16234],[5.63171,44.15858],[5.63222,44.15217],[5.63114,44.15058],[5.65522,44.14756],[5.66738,44.14911],[5.67794,44.14638],[5.67919,44.15535],[5.68236,44.16363],[5.67264,44.16451],[5.66263,44.16687],[5.64697,44.16629],[5.64571,44.16835],[5.64386,44.1689],[5.64327,44.17072],[5.64378,44.17309],[5.64778,44.17518],[5.64796,44.17968],[5.6523,44.18541],[5.65159,44.18958],[5.65794,44.18898],[5.66863,44.18985],[5.67501,44.1888],[5.67604,44.19143],[5.6845,44.19276],[5.68642,44.19464],[5.68645,44.19716],[5.68336,44.20022],[5.68236,44.2048],[5.67602,44.21215],[5.67726,44.21976],[5.67921,44.22093],[5.68069,44.22503],[5.67945,44.2288],[5.68241,44.2343],[5.67763,44.23629],[5.673,44.23984],[5.67544,44.24405],[5.67299,44.24619],[5.67468,44.24962],[5.67419,44.25639],[5.67986,44.26126],[5.68559,44.26393],[5.68657,44.26692],[5.67561,44.27589],[5.67252,44.27436],[5.65759,44.27236],[5.64678,44.26709],[5.64558,44.26924],[5.64751,44.27248],[5.63677,44.27873],[5.63211,44.2839],[5.63177,44.28689],[5.63299,44.29045],[5.643,44.29381],[5.6396,44.29567],[5.63821,44.299],[5.63625,44.30077],[5.62705,44.30108],[5.61977,44.30786],[5.61615,44.30944],[5.60947,44.30635],[5.6079,44.30667],[5.60808,44.30851],[5.61102,44.31059],[5.61107,44.31594],[5.61605,44.31657],[5.62872,44.32782],[5.63257,44.32835],[5.63082,44.33299],[5.6238,44.33522],[5.62349,44.33384],[5.61777,44.3323],[5.60618,44.33263],[5.60397,44.33421],[5.59531,44.33176],[5.59125,44.33321],[5.58792,44.33211],[5.57434,44.33227],[5.57386,44.33394],[5.56803,44.33217],[5.56051,44.33557],[5.55559,44.3317],[5.54727,44.33],[5.54457,44.33136],[5.541,44.33115],[5.53737,44.33353],[5.53986,44.34264],[5.52896,44.34303],[5.52275,44.34775],[5.52137,44.35108],[5.51049,44.34607],[5.50229,44.34408],[5.49803,44.33971],[5.49129,44.33786],[5.49057,44.33963],[5.48218,44.34729],[5.48246,44.34981],[5.47989,44.35119],[5.47517,44.35154],[5.47126,44.35045],[5.46786,44.35216],[5.46687,44.35454],[5.46726,44.36045],[5.46574,44.36486],[5.46255,44.36738],[5.45882,44.36851],[5.45199,44.36743],[5.44882,44.36905],[5.43832,44.3674],[5.43191,44.37099],[5.43022,44.37699],[5.43376,44.37648],[5.4366,44.37785],[5.44144,44.37776],[5.44415,44.37945],[5.44088,44.38409],[5.44079,44.38791],[5.44303,44.39124],[5.43638,44.40226],[5.43415,44.41011],[5.43123,44.41425],[5.42853,44.4155],[5.42295,44.41577],[5.42217,44.419],[5.4184,44.42477],[5.43007,44.4317],[5.43672,44.4337],[5.44971,44.43122],[5.46015,44.42661],[5.46291,44.42654],[5.47044,44.42287],[5.47285,44.42039],[5.47649,44.41972],[5.48323,44.42432],[5.48463,44.42833],[5.48656,44.42931],[5.49362,44.42822],[5.4983,44.43732],[5.49358,44.43934],[5.48766,44.44019],[5.48546,44.44178],[5.48113,44.44168],[5.46443,44.44789],[5.46405,44.45736],[5.4609,44.45974],[5.46105,44.46366],[5.45873,44.46614],[5.459,44.46903],[5.46742,44.47222],[5.46773,44.47333],[5.46543,44.48006],[5.46279,44.48108],[5.45891,44.48852],[5.45693,44.49624],[5.45841,44.49939],[5.46426,44.50053],[5.4714,44.49976],[5.47203,44.49852],[5.47359,44.49857],[5.47427,44.49454],[5.47988,44.49124],[5.51609,44.49173],[5.53135,44.4855],[5.54526,44.4825],[5.55522,44.47696],[5.55878,44.47307],[5.56139,44.47466],[5.5703,44.47676],[5.5792,44.47169],[5.59508,44.46651],[5.60338,44.46542],[5.6063,44.46795],[5.61174,44.4696],[5.61631,44.47271],[5.62105,44.48212],[5.62502,44.48457],[5.62353,44.48947],[5.62502,44.4948],[5.62668,44.49857],[5.62979,44.50119],[5.6413,44.50234],[5.65007,44.49916],[5.65696,44.50202],[5.6645,44.50189],[5.66293,44.50527],[5.65314,44.51483],[5.62737,44.53458],[5.62187,44.53528],[5.61499,44.53282],[5.61198,44.53606],[5.60472,44.54067],[5.59725,44.54327],[5.60026,44.55534],[5.60217,44.55683],[5.60702,44.56834],[5.60905,44.57082],[5.61285,44.57124],[5.61536,44.57325],[5.6159,44.57939],[5.61785,44.5839],[5.62632,44.58662],[5.62679,44.58841],[5.62573,44.58957],[5.62751,44.59105],[5.62748,44.59496],[5.63139,44.59751],[5.63204,44.59984],[5.63491,44.60165],[5.63659,44.60461],[5.63533,44.60915],[5.64193,44.60999],[5.64619,44.60938],[5.64719,44.61156],[5.64946,44.61937],[5.64306,44.62217],[5.6429,44.62605],[5.64123,44.62786],[5.64162,44.63118],[5.63921,44.63552],[5.64158,44.63856],[5.64022,44.64793],[5.64172,44.65107],[5.64803,44.65225],[5.65155,44.65521],[5.65446,44.65539],[5.65633,44.65372],[5.6555,44.65149],[5.66844,44.64837],[5.67996,44.65223],[5.68964,44.64726],[5.70377,44.64491],[5.70688,44.64208],[5.7146,44.64365],[5.72107,44.63973],[5.72804,44.6392],[5.73865,44.64064],[5.73477,44.64648],[5.73679,44.64975],[5.7428,44.64904],[5.7433,44.64767],[5.75356,44.64858],[5.74748,44.65471],[5.75009,44.6563],[5.74992,44.66081],[5.7535,44.66061],[5.75394,44.66271],[5.76109,44.65876],[5.76381,44.65557],[5.78048,44.65264],[5.79062,44.65329],[5.79234,44.65567],[5.79143,44.65862],[5.79252,44.66084],[5.79784,44.66325],[5.80039,44.66934],[5.79942,44.67415],[5.8258,44.68569],[5.82969,44.68868],[5.83044,44.69055],[5.82716,44.69645],[5.82712,44.70029],[5.82541,44.70147],[5.82036,44.70364],[5.81496,44.70327],[5.81133,44.70567],[5.80387,44.70585],[5.80147,44.70678],[5.80125,44.70828],[5.80319,44.71034],[5.81117,44.71275],[5.81116,44.71789],[5.81495,44.7211],[5.81816,44.72938],[5.81768,44.73097],[5.82142,44.73324],[5.8227,44.73559],[5.82542,44.73673],[5.82931,44.74161],[5.82963,44.74367],[5.8278,44.74504],[5.82746,44.74761],[5.82845,44.75046],[5.8267,44.75416],[5.82709,44.75969],[5.83569,44.75746],[5.83843,44.75782],[5.84679,44.75162],[5.85084,44.75078],[5.86669,44.75164],[5.87164,44.74978],[5.8712,44.74894],[5.87395,44.74845],[5.87546,44.7493],[5.88181,44.74663],[5.88883,44.7488],[5.88942,44.75239],[5.89227,44.75572],[5.89463,44.7548],[5.90015,44.75832],[5.91086,44.75771],[5.91901,44.75143],[5.92067,44.75169],[5.92484,44.75692],[5.93108,44.75962],[5.93622,44.7599],[5.93817,44.76268],[5.93727,44.76361],[5.95112,44.75962],[5.95247,44.76214],[5.95184,44.7695],[5.95316,44.77131],[5.98015,44.78118],[5.97778,44.79098],[5.96921,44.79441],[5.96152,44.79595],[5.95953,44.79957],[5.95376,44.79953],[5.95175,44.80067],[5.94952,44.80453],[5.95743,44.80837],[5.96024,44.81198],[5.96464,44.81176],[5.97255,44.81456],[5.97918,44.81858],[5.99617,44.81787],[6.00552,44.82082],[6.00774,44.82386],[6.00941,44.83038],[6.01142,44.83104],[6.01594,44.83548],[6.02182,44.83755],[6.02506,44.83669],[6.03021,44.8381],[6.03094,44.83659],[6.03414,44.83518],[6.0379,44.82943],[6.04728,44.82368],[6.04769,44.82132],[6.05046,44.81812],[6.0565,44.81581],[6.05856,44.81904],[6.06695,44.82142],[6.06823,44.82373],[6.0733,44.82779],[6.07899,44.82856],[6.08794,44.83291],[6.08994,44.83573],[6.09652,44.83749],[6.1007,44.84258],[6.10642,44.84388],[6.11068,44.84316],[6.11471,44.84663],[6.11833,44.85277],[6.12111,44.85353],[6.12836,44.8619],[6.1329,44.8645],[6.13857,44.86328],[6.14376,44.85842],[6.15117,44.85813],[6.15358,44.85926],[6.15854,44.85857],[6.16232,44.85425],[6.16845,44.85225],[6.17042,44.85434],[6.18767,44.85377],[6.19187,44.85692],[6.19473,44.85713],[6.19638,44.85898],[6.20207,44.85892],[6.20623,44.85766],[6.20843,44.85547],[6.22211,44.85366],[6.22544,44.8522],[6.24998,44.85191],[6.25349,44.85516],[6.25837,44.86373],[6.26941,44.87047],[6.2774,44.87147],[6.28146,44.86993],[6.2886,44.87406],[6.30391,44.87305],[6.30727,44.86946],[6.30868,44.86576],[6.31235,44.86298],[6.31736,44.86191],[6.31717,44.8602],[6.32012,44.85704],[6.31915,44.8549],[6.32409,44.85221],[6.33044,44.85128],[6.33632,44.84837],[6.34455,44.84934],[6.34806,44.85166],[6.35395,44.85348],[6.35536,44.85478],[6.35133,44.86244],[6.35392,44.86496],[6.35232,44.87133],[6.3504,44.87369],[6.35078,44.8812],[6.3593,44.88807],[6.358,44.88929],[6.35818,44.89378],[6.3536,44.89746],[6.35641,44.90028],[6.3589,44.90718],[6.35656,44.91087],[6.35767,44.91321],[6.35609,44.91593],[6.35612,44.92102],[6.35746,44.92214],[6.35299,44.92451],[6.35317,44.92608],[6.35603,44.92813],[6.35637,44.93308],[6.35897,44.93664],[6.35884,44.94128],[6.35046,44.94396],[6.34338,44.9442],[6.33907,44.94702],[6.33052,44.94641],[6.32292,44.95302],[6.32361,44.96128],[6.32283,44.96176],[6.3279,44.96474],[6.32954,44.96924],[6.32269,44.97203],[6.32229,44.97429],[6.31819,44.97593],[6.31848,44.97714],[6.31482,44.98018],[6.31679,44.98423],[6.31712,44.9888],[6.31593,44.98997],[6.32352,44.99907],[6.3182,45.00386],[6.3064,45.00475],[6.30379,45.003],[6.30133,45.00408],[6.29647,45.00348],[6.28518,45.00011],[6.27895,45.00078],[6.26372,44.99707],[6.26001,44.99777],[6.25343,44.99521],[6.25176,44.9967],[6.20393,45.01247],[6.20276,45.02276],[6.20484,45.02634],[6.20981,45.02924],[6.20869,45.03256],[6.20973,45.03599],[6.20859,45.04068],[6.21079,45.04514],[6.21558,45.04831],[6.21534,45.05323],[6.21692,45.0553],[6.22008,45.06537],[6.22468,45.06679],[6.24012,45.06772],[6.24348,45.06937],[6.24452,45.07171],[6.23924,45.07514],[6.23721,45.08579],[6.23583,45.08723],[6.23452,45.09228],[6.23071,45.0961],[6.22943,45.0997],[6.22885,45.10831],[6.23372,45.11176],[6.24016,45.1128],[6.24652,45.12034],[6.2545,45.12079],[6.25714,45.12218],[6.26057,45.12685],[6.26417,45.12641],[6.26671,45.12452],[6.26963,45.11969],[6.27374,45.11752],[6.27484,45.11578],[6.28261,45.11412],[6.28628,45.11016],[6.29355,45.10851],[6.29922,45.10855],[6.31042,45.1116],[6.31733,45.11199],[6.33229,45.11873],[6.33448,45.12284],[6.33789,45.12065],[6.33992,45.11612],[6.34784,45.11445],[6.35548,45.1082],[6.36278,45.10506],[6.36574,45.10096],[6.36699,45.09622],[6.37126,45.09085],[6.37241,45.08544],[6.37467,45.08317],[6.37214,45.07857],[6.36488,45.07017],[6.37486,45.06749],[6.37944,45.06749],[6.38427,45.06391],[6.38854,45.06398],[6.39635,45.06105],[6.40378,45.06476],[6.41078,45.06402],[6.42278,45.06008],[6.43173,45.06369],[6.43427,45.06359],[6.43979,45.0616],[6.44163,45.05803],[6.44409,45.05676],[6.4434,45.05508],[6.4518,45.05172],[6.4578,45.05399],[6.46891,45.05561],[6.48623,45.05607],[6.48725,45.05685],[6.48601,45.06266],[6.48657,45.06508],[6.48915,45.06571],[6.4896,45.06767],[6.48851,45.07285],[6.48311,45.07722],[6.48411,45.07894],[6.48698,45.07992],[6.48679,45.08164],[6.48556,45.08584],[6.48038,45.09079],[6.48049,45.09417],[6.48426,45.09434],[6.49382,45.09994],[6.5047,45.10367],[6.51042,45.109],[6.51667,45.10549],[6.52166,45.10413],[6.52552,45.10039],[6.52971,45.09857],[6.53916,45.09909],[6.55104,45.10329],[6.55866,45.10397],[6.5613,45.10531],[6.56135,45.11122],[6.56391,45.11382],[6.5708,45.11685],[6.57221,45.1196],[6.57653,45.1231],[6.58452,45.12009],[6.59271,45.11894],[6.60171,45.1218],[6.60295,45.11979],[6.6065,45.1196],[6.60829,45.12071],[6.61273,45.12046],[6.61555,45.12148],[6.62041,45.11671],[6.62482,45.11524],[6.62729,45.11078],[6.62999,45.10933],[6.62671,45.10376],[6.62749,45.10122],[6.63121,45.09919],[6.63326,45.09407],[6.63605,45.09406],[6.64107,45.08977],[6.64122,45.08734],[6.64676,45.08497],[6.64524,45.07564],[6.65488,45.07092],[6.66211,45.07164],[6.66365,45.05698],[6.66197,45.05425],[6.65883,45.05221],[6.66135,45.05],[6.66555,45.04854],[6.66949,45.04424],[6.67033,45.04178],[6.66495,45.03954],[6.66572,45.03717],[6.6642,45.03385],[6.6665,45.03043],[6.66941,45.02857],[6.67084,45.02901],[6.67158,45.0229],[6.67388,45.01962],[6.67968,45.02057],[6.68311,45.02234],[6.69188,45.02074],[6.70703,45.02188],[6.71767,45.02058],[6.72119,45.02203],[6.74301,45.01647],[6.7454,45.0143],[6.74487,45.01154],[6.74992,45.00364],[6.75169,44.99663],[6.74986,44.99531],[6.73716,44.99349],[6.73785,44.98923],[6.742,44.98876],[6.74932,44.98488],[6.74965,44.97744],[6.75137,44.97777],[6.75639,44.97424],[6.76347,44.97122],[6.76525,44.96197],[6.76494,44.95967],[6.75839,44.9478],[6.75629,44.94698],[6.75615,44.94577],[6.75389,44.94595],[6.75308,44.94296],[6.74414,44.93721],[6.74484,44.93559],[6.75308,44.93787],[6.75797,44.93709],[6.7609,44.9332],[6.76104,44.93077],[6.75428,44.93187],[6.75389,44.92838],[6.74886,44.92244],[6.75009,44.9201],[6.75177,44.91977],[6.75197,44.91733],[6.75055,44.91463],[6.7508,44.90943],[6.74977,44.90754],[6.75071,44.90565],[6.76169,44.90253],[6.77118,44.90344],[6.77835,44.89886],[6.77884,44.89525],[6.7804,44.89336],[6.7842,44.8937],[6.7837,44.8919],[6.78468,44.88975],[6.7919,44.88943],[6.80152,44.89112],[6.79955,44.88769],[6.80335,44.87807],[6.80796,44.87566],[6.81173,44.8751],[6.81612,44.87227],[6.82184,44.87079],[6.82385,44.86905],[6.83023,44.86781],[6.83334,44.8639],[6.8382,44.86186],[6.83933,44.86028],[6.85122,44.85744],[6.85479,44.85776],[6.86324,44.85061],[6.87019,44.84961],[6.87746,44.85104],[6.88724,44.84724],[6.89816,44.84847],[6.90345,44.84795],[6.9071,44.84438],[6.91316,44.84499],[6.91513,44.84749],[6.92213,44.85113],[6.92691,44.85635],[6.92681,44.8592],[6.93121,44.86353],[6.93724,44.86045],[6.94237,44.8597],[6.95012,44.85597],[6.95494,44.85515],[6.9613,44.85066],[6.96947,44.8482],[6.97103,44.8463],[6.97776,44.84581],[6.98127,44.84679],[6.99383,44.84227],[7.00125,44.84229],[7.00677,44.83932],[7.00635,44.83569],[7.00967,44.82879],[7.00983,44.82599],[7.01955,44.82483],[7.02384,44.82307],[7.0204,44.82123],[7.01962,44.81311],[7.01466,44.80957],[7.01203,44.8036],[7.0101,44.80245],[7.00945,44.79834],[7.00513,44.79567],[7.00395,44.79284],[7.00102,44.79187],[6.9994,44.78968],[7.00594,44.78514],[7.01171,44.78369],[7.01505,44.779],[7.01873,44.77659],[7.01993,44.77263],[7.02229,44.77079],[7.02049,44.76779],[7.02373,44.76409],[7.02519,44.76011],[7.02425,44.75541],[7.02197,44.75466],[7.02134,44.75148],[7.02329,44.74748],[7.02617,44.74461],[7.02345,44.74003],[7.02895,44.73526],[7.03065,44.73199],[7.02991,44.72976],[7.04211,44.71855],[7.05462,44.71474],[7.06602,44.71333],[7.06638,44.71078],[7.06524,44.70826],[7.06761,44.70497],[7.06796,44.7022],[7.07076,44.70088],[7.07099,44.69816],[7.07559,44.6903],[7.07473,44.68755],[7.07711,44.68092],[7.07163,44.67948],[7.05973,44.67996],[7.05381,44.68273],[7.04716,44.68323],[7.03679,44.68937],[7.03031,44.6914],[7.02373,44.6913],[7.01779,44.68875],[7.0069,44.68856],[7.00471,44.68716],[7.00158,44.6876],[6.99916,44.69045],[6.98707,44.69014],[6.98425,44.68641],[6.97762,44.68343],[6.97617,44.68092],[6.97148,44.67836],[6.97121,44.6772],[6.96318,44.67811],[6.95765,44.6713],[6.95769,44.66932],[6.95897,44.66863],[6.95818,44.66678],[6.95929,44.66479],[6.9588,44.66247],[6.95122,44.65863],[6.94834,44.65482]],[[5.11807,43.51322],[5.11821,43.51801],[5.11714,43.52011],[5.10867,43.52549],[5.0915,43.5251],[5.07939,43.52688],[5.07576,43.52611],[5.05869,43.52788],[5.04561,43.5218],[5.04318,43.52528],[5.04326,43.52739],[5.03374,43.53572],[5.03193,43.53946],[5.03343,43.54235],[5.03304,43.54506],[5.02943,43.54871],[5.02682,43.54832],[5.02519,43.54944],[5.02569,43.55208],[5.022,43.55615],[5.01934,43.55538],[5.01689,43.55626],[5.01329,43.55445],[5.01201,43.54925],[5.01301,43.54834],[5.01228,43.54443],[5.0142,43.53894],[5.01344,43.53301],[5.01586,43.52747],[5.01408,43.52372],[5.01217,43.5239],[5.00816,43.52031],[5.00246,43.51278],[4.99983,43.50815],[5.00009,43.50555],[4.99804,43.5009],[4.99857,43.49788],[5.00006,43.49663],[5.00163,43.48866],[5.00354,43.48565],[5.00319,43.4807],[5.00106,43.47886],[5.00086,43.4741],[5.00289,43.4713],[5.00601,43.46966],[5.01707,43.47033],[5.02106,43.46843],[5.02432,43.47061],[5.02651,43.46984],[5.04061,43.47022],[5.04814,43.46671],[5.05188,43.46356],[5.05524,43.45154],[5.05426,43.44085],[5.05993,43.42693],[5.06096,43.42105],[5.05782,43.40763],[5.05963,43.40677],[5.05957,43.40398],[5.06081,43.40286],[5.07039,43.40021],[5.08166,43.3997],[5.11753,43.40459],[5.12158,43.40405],[5.12179,43.40201],[5.12578,43.40002],[5.13727,43.40019],[5.15442,43.40786],[5.16846,43.41616],[5.18286,43.42661],[5.19399,43.43695],[5.20444,43.44214],[5.1954,43.44853],[5.19842,43.45089],[5.20865,43.44369],[5.2266,43.45301],[5.22713,43.4579],[5.2286,43.46008],[5.22762,43.46289],[5.23014,43.46508],[5.2273,43.4701],[5.22789,43.47238],[5.22458,43.47567],[5.22484,43.48107],[5.22329,43.48313],[5.21982,43.48444],[5.22009,43.48618],[5.21874,43.48797],[5.21181,43.48901],[5.2086,43.49166],[5.20558,43.492],[5.1871,43.48455],[5.18194,43.47892],[5.17405,43.47546],[5.16794,43.47052],[5.16542,43.47181],[5.16346,43.47077],[5.16081,43.46841],[5.15952,43.46498],[5.15384,43.45999],[5.15536,43.45909],[5.15495,43.45581],[5.15141,43.45545],[5.1487,43.45822],[5.14585,43.45806],[5.14283,43.46089],[5.14161,43.46515],[5.137,43.46981],[5.13252,43.47164],[5.13036,43.47741],[5.12418,43.48395],[5.11953,43.49703],[5.11357,43.50466],[5.11343,43.51097],[5.11807,43.51322]]],[[[7.06711,43.51365],[7.06665,43.5148],[7.06116,43.51588],[7.04344,43.51568],[7.03577,43.51748],[7.03158,43.52104],[7.03221,43.52344],[7.0372,43.52152],[7.04403,43.52412],[7.04834,43.52376],[7.05326,43.52099],[7.0636,43.5201],[7.07088,43.51736],[7.06977,43.51588],[7.06804,43.51591],[7.06711,43.51365]]],[[[7.04782,43.5045],[7.03709,43.50679],[7.0371,43.5085],[7.04727,43.50943],[7.05544,43.50782],[7.04782,43.5045]]],[[[5.3967,43.173],[5.38636,43.17309],[5.38029,43.17578],[5.37299,43.17738],[5.37194,43.17965],[5.3774,43.17938],[5.38041,43.18042],[5.38376,43.17857],[5.39613,43.17612],[5.39844,43.17434],[5.3967,43.173]]],[[[5.38896,43.18537],[5.38364,43.18722],[5.38094,43.18986],[5.38251,43.19063],[5.38453,43.18999],[5.39128,43.18615],[5.38896,43.18537]]],[[[5.61904,43.15731],[5.61533,43.15914],[5.61482,43.16234],[5.61908,43.16141],[5.61916,43.15924],[5.62068,43.15911],[5.61904,43.15731]]],[[[5.30568,43.27676],[5.31189,43.27593],[5.3112,43.27431],[5.3086,43.2729],[5.30159,43.27196],[5.29924,43.26706],[5.29634,43.26692],[5.29186,43.26231],[5.28799,43.26116],[5.28569,43.26567],[5.29656,43.2703],[5.29714,43.27185],[5.30123,43.27364],[5.30151,43.27543],[5.30355,43.27632],[5.30296,43.27885],[5.30098,43.27964],[5.29851,43.27844],[5.29164,43.28028],[5.29459,43.28142],[5.29759,43.28094],[5.29781,43.28179],[5.30341,43.28137],[5.30501,43.28268],[5.30067,43.28343],[5.30054,43.28438],[5.30261,43.2854],[5.31139,43.2844],[5.31265,43.28505],[5.31258,43.28725],[5.31688,43.28696],[5.31775,43.28595],[5.32393,43.28619],[5.32326,43.28508],[5.32104,43.28505],[5.31941,43.28239],[5.31772,43.28289],[5.31351,43.28037],[5.30864,43.28147],[5.306,43.27927],[5.30362,43.27889],[5.30415,43.27652],[5.30568,43.27676]]],[[[5.33821,43.20794],[5.32944,43.2111],[5.32852,43.21248],[5.3374,43.21288],[5.33963,43.21178],[5.33997,43.21005],[5.33821,43.20794]]],[[[5.36247,43.20002],[5.37005,43.19544],[5.3705,43.19383],[5.36583,43.19615],[5.36144,43.19687],[5.36247,43.20002]]],[[[5.32481,43.27891],[5.32437,43.28036],[5.32771,43.28046],[5.32481,43.27891]]],[[[5.33505,43.3373],[5.34051,43.33426],[5.36168,43.30868],[5.35769,43.29929],[5.36094,43.30862],[5.35323,43.31838],[5.33953,43.33473],[5.3189,43.34707],[5.32861,43.34222],[5.33505,43.3373]]],[[[4.87756,43.36494],[4.87696,43.36283],[4.87494,43.36236],[4.87485,43.36624],[4.87366,43.36794],[4.87457,43.36878],[4.87679,43.36782],[4.87756,43.36494]]],[[[6.39497,42.98688],[6.39391,42.98841],[6.39678,42.98912],[6.39497,42.98688]]],[[[6.4348,43.01554],[6.43362,43.01918],[6.44065,43.02506],[6.4458,43.02487],[6.45132,43.0276],[6.45397,43.02583],[6.4579,43.02757],[6.46047,43.03005],[6.46168,43.03347],[6.46095,43.03525],[6.46239,43.03764],[6.4667,43.04136],[6.46799,43.04406],[6.47278,43.04573],[6.47334,43.04693],[6.48084,43.04807],[6.48356,43.04743],[6.48719,43.04911],[6.49277,43.04933],[6.50116,43.05156],[6.50459,43.05354],[6.50839,43.05222],[6.50792,43.04764],[6.51069,43.0479],[6.51129,43.04682],[6.50317,43.04196],[6.50055,43.04314],[6.49424,43.04326],[6.49196,43.04117],[6.48754,43.04272],[6.48738,43.04073],[6.48488,43.04015],[6.48426,43.03699],[6.48264,43.03594],[6.48006,43.03035],[6.47283,43.02509],[6.47296,43.02071],[6.47096,43.01664],[6.46747,43.01753],[6.46479,43.01515],[6.45898,43.01378],[6.45038,43.01735],[6.44532,43.0088],[6.43834,43.0036],[6.43371,43.00692],[6.43262,43.01074],[6.43445,43.01239],[6.4348,43.01554]]],[[[6.14515,43.02003],[6.14699,43.01942],[6.14445,43.01793],[6.14479,43.0163],[6.14065,43.01801],[6.13946,43.01972],[6.13983,43.02061],[6.14515,43.02003]]],[[[5.74996,43.12661],[5.74802,43.12725],[5.74976,43.12856],[5.75245,43.1273],[5.74996,43.12661]]],[[[6.3971,42.9928],[6.39491,42.99333],[6.39462,42.99524],[6.3908,42.99514],[6.3899,42.99743],[6.38793,42.99809],[6.37453,42.99686],[6.37352,42.99568],[6.37198,42.99817],[6.37005,42.99869],[6.37032,43.00084],[6.37265,43.00166],[6.37244,43.00343],[6.37452,43.00407],[6.37479,43.00532],[6.37661,43.00508],[6.37702,43.0074],[6.38017,43.00778],[6.38285,43.00643],[6.38352,43.00739],[6.38256,43.00954],[6.38044,43.00989],[6.38328,43.0138],[6.39104,43.01149],[6.39259,43.01252],[6.39261,43.01395],[6.39511,43.01347],[6.40042,43.01494],[6.40146,43.01674],[6.40272,43.01552],[6.40893,43.01917],[6.41016,43.01829],[6.40963,43.01672],[6.41279,43.01701],[6.41422,43.01557],[6.41153,43.01124],[6.4116,43.00962],[6.41291,43.0089],[6.41992,43.01383],[6.42011,43.01179],[6.41764,43.00719],[6.4135,43.00316],[6.4097,43.00158],[6.40661,42.99561],[6.4051,42.99611],[6.40278,42.9944],[6.39842,42.99424],[6.3971,42.9928]]],[[[6.36377,43.00396],[6.35918,43.0089],[6.36061,43.01186],[6.35996,43.01505],[6.36171,43.01742],[6.3684,43.01807],[6.36758,43.01508],[6.36476,43.01343],[6.36377,43.00396]]],[[[5.76735,43.07892],[5.7657,43.0801],[5.76796,43.08191],[5.76959,43.08065],[5.76735,43.07892]]],[[[6.24407,43.02004],[6.24738,43.01845],[6.24873,43.01651],[6.24895,43.00843],[6.2505,43.00761],[6.25067,43.00558],[6.25171,43.00554],[6.25233,43.00377],[6.24937,43.00252],[6.25084,42.99967],[6.24707,42.99746],[6.24363,42.9983],[6.23737,42.99734],[6.23496,42.99509],[6.23207,42.99609],[6.23066,42.99334],[6.22067,42.99166],[6.22083,42.99008],[6.21672,42.99121],[6.21448,42.98972],[6.21293,42.9868],[6.20885,42.98518],[6.20911,42.98436],[6.20563,42.98181],[6.19585,42.98337],[6.19511,42.98534],[6.19719,42.9863],[6.19722,42.98761],[6.19409,42.98866],[6.1943,42.98992],[6.1922,42.99076],[6.18093,42.99393],[6.17882,42.99351],[6.17737,42.9959],[6.1698,42.99662],[6.16931,42.99942],[6.16706,42.99982],[6.16697,42.99832],[6.16454,42.99783],[6.1613,42.99888],[6.16246,42.99992],[6.16088,43.0011],[6.16204,43.00184],[6.16582,43.00054],[6.16912,43.00132],[6.16878,43.00372],[6.17035,43.00623],[6.17448,43.00753],[6.17694,43.00646],[6.17736,43.00811],[6.17959,43.00863],[6.18101,43.00781],[6.18469,43.00845],[6.18576,43.00517],[6.18819,43.00391],[6.19329,43.00486],[6.19393,43.00357],[6.19723,43.00311],[6.1977,43.00101],[6.2008,43.0005],[6.20342,43.00307],[6.20647,43.00279],[6.20763,43.00162],[6.21173,43.00256],[6.21726,43.00823],[6.21781,43.01018],[6.21615,43.01213],[6.21759,43.01353],[6.21843,43.01206],[6.22257,43.01259],[6.22297,43.01092],[6.23057,43.01001],[6.234,43.01166],[6.23619,43.01419],[6.23634,43.01847],[6.23879,43.02132],[6.23917,43.02431],[6.24225,43.02547],[6.24189,43.02278],[6.24407,43.02004]]],[[[5.78064,43.06977],[5.77854,43.07034],[5.77989,43.07381],[5.77775,43.07391],[5.77864,43.08096],[5.78105,43.08233],[5.78372,43.08157],[5.78355,43.07969],[5.78166,43.07988],[5.78129,43.07876],[5.78622,43.0769],[5.78729,43.07728],[5.78616,43.07898],[5.79007,43.07989],[5.79221,43.07745],[5.78996,43.07449],[5.78772,43.0742],[5.78064,43.06977]]],[[[5.91334,43.11608],[5.91393,43.11872],[5.92061,43.11945],[5.91986,43.11812],[5.91566,43.11776],[5.91334,43.11608]]],[[[5.79082,43.06871],[5.78718,43.07224],[5.79033,43.07258],[5.79254,43.06936],[5.79082,43.06871]]],[[[4.89291,44.36482],[4.89318,44.36788],[4.89455,44.3691],[4.8999,44.36952],[4.90248,44.37126],[4.9024,44.37243],[4.90663,44.3741],[4.90896,44.37734],[4.91186,44.38789],[4.90968,44.39672],[4.91852,44.40779],[4.92191,44.40951],[4.92342,44.40808],[4.92842,44.41166],[4.93503,44.41214],[4.93922,44.41457],[4.94621,44.41486],[4.95192,44.41874],[4.95196,44.42005],[4.96047,44.42005],[4.9633,44.42193],[4.96437,44.42498],[4.96836,44.427],[4.97044,44.43137],[4.97308,44.43153],[4.97667,44.42875],[4.97869,44.42348],[4.98861,44.4232],[5.00106,44.4126],[5.00997,44.41083],[5.01215,44.41582],[5.01876,44.41598],[5.02019,44.41027],[5.01727,44.40841],[5.01766,44.40727],[5.01331,44.40535],[5.01558,44.39304],[5.0181,44.3933],[5.02077,44.39122],[5.02635,44.39243],[5.0345,44.39084],[5.03818,44.38761],[5.04294,44.38727],[5.04408,44.38342],[5.04757,44.38135],[5.05197,44.38134],[5.0625,44.3841],[5.06474,44.38356],[5.06445,44.38253],[5.06585,44.38173],[5.06875,44.38333],[5.071,44.38313],[5.07206,44.38041],[5.07156,44.37749],[5.06758,44.37443],[5.0576,44.37016],[5.05697,44.36726],[5.05504,44.36502],[5.04274,44.36219],[5.04075,44.36414],[5.03666,44.36421],[5.03477,44.36378],[5.03252,44.36121],[5.0277,44.36282],[5.02389,44.36056],[5.02217,44.35845],[5.02179,44.35309],[5.02329,44.34595],[5.01996,44.34162],[5.01786,44.34112],[5.00901,44.33377],[5.01035,44.32787],[5.01378,44.32579],[5.00065,44.31983],[4.99657,44.31974],[4.9983,44.31754],[4.99313,44.31427],[4.98975,44.30877],[4.98771,44.30112],[4.98866,44.29709],[4.98702,44.29271],[4.97965,44.29748],[4.96856,44.29909],[4.95946,44.29875],[4.95921,44.30039],[4.95698,44.30241],[4.9509,44.30093],[4.94403,44.30586],[4.92215,44.30878],[4.89166,44.30425],[4.89091,44.30562],[4.89138,44.3134],[4.88408,44.32021],[4.88163,44.32487],[4.88947,44.33308],[4.89423,44.33287],[4.89533,44.33806],[4.87965,44.34534],[4.86953,44.34508],[4.8701,44.34807],[4.87264,44.35015],[4.88089,44.35361],[4.88063,44.35528],[4.88348,44.35571],[4.88494,44.35753],[4.89068,44.35978],[4.89228,44.36163],[4.89291,44.36482]]]]}}]}