{"type":"FeatureCollection","features":[{"type":"Feature","properties":{"reg_name":"francia-bfc","source":"IGN Admin Express via france-geojson, Licence Ouverte 2.0"},"geometry":{"type":"Polygon","coordinates":[[[3.62942,46.74946],[3.62655,46.75228],[3.62011,46.75406],[3.60204,46.75124],[3.59818,46.75417],[3.59725,46.75629],[3.59776,46.76203],[3.59509,46.7618],[3.59268,46.76308],[3.58865,46.76134],[3.58691,46.75673],[3.5837,46.75347],[3.57936,46.7524],[3.57569,46.74952],[3.57708,46.74752],[3.58467,46.74451],[3.58345,46.74268],[3.58455,46.73939],[3.59771,46.72804],[3.598,46.72398],[3.57731,46.71485],[3.57648,46.71585],[3.57826,46.72177],[3.57593,46.72288],[3.57208,46.72076],[3.57421,46.71632],[3.56882,46.71549],[3.55989,46.71652],[3.55748,46.72006],[3.55457,46.72122],[3.55148,46.7208],[3.54811,46.72232],[3.54724,46.72143],[3.54784,46.71877],[3.55039,46.71586],[3.55033,46.71316],[3.54794,46.7091],[3.54821,46.70617],[3.56115,46.68862],[3.54942,46.68159],[3.54648,46.67829],[3.53965,46.68008],[3.53783,46.68329],[3.53838,46.68513],[3.53206,46.68879],[3.51442,46.68358],[3.51693,46.68157],[3.51102,46.67997],[3.51325,46.67738],[3.51125,46.6756],[3.50354,46.67253],[3.49226,46.66194],[3.48635,46.66079],[3.48804,46.65699],[3.48735,46.65484],[3.48183,46.65067],[3.47699,46.6535],[3.45729,46.65176],[3.4553,46.6524],[3.4522,46.6582],[3.44208,46.662],[3.44734,46.66356],[3.44836,46.66832],[3.4455,46.66934],[3.44533,46.67077],[3.44832,46.67285],[3.4527,46.67353],[3.45464,46.67531],[3.45172,46.67949],[3.45434,46.68013],[3.4523,46.68222],[3.45519,46.68251],[3.45272,46.68658],[3.45305,46.69009],[3.44867,46.6904],[3.44832,46.69202],[3.4448,46.69296],[3.43298,46.69334],[3.42842,46.70076],[3.43123,46.70375],[3.43103,46.7065],[3.43369,46.71223],[3.42747,46.71216],[3.42182,46.71373],[3.41873,46.71313],[3.41815,46.71049],[3.41717,46.71031],[3.40562,46.71173],[3.39737,46.71455],[3.38861,46.71495],[3.37855,46.71238],[3.37943,46.70684],[3.37711,46.70178],[3.37085,46.69626],[3.36575,46.6896],[3.3589,46.68939],[3.34671,46.68442],[3.33495,46.68529],[3.33061,46.68757],[3.31397,46.68875],[3.3115,46.69291],[3.31204,46.6948],[3.30246,46.70392],[3.30328,46.70536],[3.3018,46.70658],[3.30092,46.7163],[3.2863,46.71386],[3.27742,46.71662],[3.26979,46.71674],[3.25996,46.70773],[3.24689,46.70402],[3.23474,46.6975],[3.22852,46.69629],[3.22776,46.69027],[3.22084,46.68649],[3.22193,46.68523],[3.21721,46.68491],[3.2166,46.68338],[3.21246,46.68193],[3.20729,46.68202],[3.20518,46.68068],[3.20443,46.67875],[3.19882,46.67951],[3.17987,46.68793],[3.16983,46.68985],[3.16574,46.69173],[3.15671,46.69948],[3.14925,46.70822],[3.14085,46.71449],[3.12978,46.7272],[3.08433,46.7374],[3.07166,46.74419],[3.06676,46.74548],[3.05264,46.7564],[3.04907,46.75808],[3.04153,46.76714],[3.03615,46.77635],[3.03683,46.7844],[3.03572,46.78917],[3.03207,46.79491],[3.0326,46.80021],[3.03657,46.80433],[3.03747,46.80779],[3.04134,46.81302],[3.05887,46.82628],[3.05901,46.83068],[3.05458,46.83877],[3.05792,46.84315],[3.0671,46.84782],[3.06953,46.85307],[3.06535,46.86357],[3.06578,46.87082],[3.06785,46.87444],[3.06697,46.88178],[3.06359,46.88868],[3.06096,46.89815],[3.05141,46.90496],[3.04999,46.90771],[3.05029,46.91063],[3.0536,46.91695],[3.06222,46.92774],[3.06431,46.93258],[3.06449,46.93627],[3.06904,46.94303],[3.07403,46.94724],[3.07933,46.95512],[3.07934,46.96024],[3.0717,46.96434],[3.06258,46.9792],[3.06281,46.98712],[3.0663,47.00225],[3.06807,47.00616],[3.0732,47.01125],[3.07575,47.01914],[3.07581,47.02342],[3.07441,47.02694],[3.07516,47.02932],[3.0688,47.04006],[3.06382,47.04608],[3.06275,47.04528],[3.05469,47.04767],[3.049,47.05139],[3.02955,47.05839],[3.02322,47.06262],[3.01934,47.06817],[3.01871,47.07078],[3.02118,47.07823],[3.03138,47.09248],[3.02809,47.12907],[3.02496,47.13111],[3.02257,47.13522],[3.01664,47.14087],[3.01671,47.14591],[3.02063,47.15322],[3.01902,47.15656],[3.01594,47.15909],[3.01357,47.16973],[3.00957,47.17614],[3.00967,47.17905],[2.99469,47.20569],[2.98726,47.21333],[2.98168,47.222],[2.97888,47.22957],[2.97795,47.23555],[2.98063,47.2435],[2.98022,47.24786],[2.98309,47.26081],[2.97394,47.26981],[2.96374,47.27382],[2.94496,47.28472],[2.93917,47.28658],[2.93223,47.29251],[2.92851,47.2973],[2.91231,47.30886],[2.90777,47.31099],[2.8862,47.31582],[2.87655,47.32193],[2.87234,47.33234],[2.87454,47.33472],[2.86995,47.33825],[2.86954,47.3399],[2.87162,47.34576],[2.87896,47.35314],[2.88025,47.35642],[2.88592,47.36003],[2.89276,47.36859],[2.90081,47.3852],[2.90633,47.39321],[2.91845,47.40553],[2.91976,47.40917],[2.91989,47.42117],[2.92231,47.42503],[2.92892,47.42944],[2.93141,47.43262],[2.93195,47.43946],[2.92047,47.45638],[2.91406,47.4709],[2.90723,47.47664],[2.89852,47.4816],[2.89669,47.49051],[2.88845,47.50943],[2.87463,47.52042],[2.8489,47.53754],[2.84519,47.54493],[2.85139,47.54747],[2.85274,47.54985],[2.86023,47.554],[2.86267,47.54634],[2.87322,47.54512],[2.8752,47.54938],[2.87347,47.5494],[2.8739,47.55281],[2.89011,47.5526],[2.90489,47.55621],[2.90937,47.55916],[2.91007,47.56221],[2.91394,47.56409],[2.9143,47.56597],[2.95866,47.55738],[2.96344,47.56387],[2.97654,47.56943],[2.97466,47.57357],[2.96548,47.57358],[2.96227,47.57679],[2.96445,47.58163],[2.96231,47.58592],[2.96078,47.58565],[2.95499,47.59041],[2.95064,47.58885],[2.94345,47.59317],[2.94198,47.5988],[2.93627,47.59932],[2.94522,47.60845],[2.94146,47.61076],[2.9405,47.61432],[2.93739,47.61614],[2.93835,47.61847],[2.93418,47.62074],[2.93552,47.62653],[2.93232,47.62705],[2.93611,47.6326],[2.93629,47.63665],[2.95423,47.64569],[2.94214,47.65367],[2.94158,47.65754],[2.93694,47.65913],[2.93531,47.65734],[2.92662,47.659],[2.9254,47.66234],[2.91815,47.66979],[2.92037,47.67082],[2.92053,47.67379],[2.92675,47.68176],[2.92109,47.68305],[2.91773,47.68523],[2.91662,47.68784],[2.91462,47.68766],[2.91386,47.69096],[2.90942,47.69205],[2.90774,47.69094],[2.90431,47.69424],[2.90366,47.69689],[2.89926,47.69628],[2.87915,47.7038],[2.87991,47.70614],[2.88213,47.70806],[2.88407,47.70765],[2.88465,47.71389],[2.88181,47.71557],[2.87886,47.72035],[2.86063,47.70992],[2.85508,47.71547],[2.84897,47.71684],[2.85261,47.72128],[2.84923,47.72296],[2.84865,47.7258],[2.85222,47.72662],[2.85335,47.72902],[2.85019,47.73262],[2.85127,47.73451],[2.85395,47.73535],[2.85579,47.73966],[2.85483,47.74009],[2.85827,47.74679],[2.85782,47.74867],[2.85901,47.74954],[2.85199,47.75786],[2.85667,47.76093],[2.85648,47.76174],[2.86274,47.76087],[2.86543,47.76336],[2.87018,47.76487],[2.88958,47.76392],[2.89066,47.76518],[2.89904,47.76379],[2.89981,47.7663],[2.90602,47.7673],[2.90809,47.76667],[2.90938,47.76931],[2.91452,47.76938],[2.92286,47.7643],[2.92816,47.76426],[2.92845,47.76297],[2.93077,47.76228],[2.93559,47.76325],[2.9375,47.76643],[2.94009,47.76552],[2.9497,47.76587],[2.95068,47.77009],[2.95249,47.77027],[2.95474,47.77556],[2.96155,47.7753],[2.97882,47.78028],[2.98045,47.78252],[2.98822,47.78603],[2.99972,47.7871],[3.02353,47.78633],[3.02528,47.78767],[3.02813,47.802],[3.02429,47.80881],[3.02434,47.81308],[3.01547,47.81354],[3.02206,47.81777],[3.01391,47.82245],[3.01546,47.82316],[3.01331,47.82776],[3.01458,47.8327],[3.01254,47.83437],[3.0243,47.83588],[3.0297,47.83508],[3.03179,47.84163],[3.03382,47.84387],[3.03123,47.84442],[3.03178,47.85036],[3.02505,47.8566],[3.02906,47.85712],[3.0233,47.86102],[3.01115,47.86222],[2.99831,47.86728],[2.99846,47.86858],[3.00202,47.86911],[3.01244,47.87413],[3.01039,47.87634],[3.01188,47.87737],[3.01179,47.88047],[3.01007,47.88282],[3.00694,47.88378],[3.0099,47.88961],[3.00723,47.89529],[3.01318,47.89575],[3.01697,47.89892],[3.01191,47.90093],[3.01241,47.90286],[3.00956,47.90539],[3.018,47.90616],[3.01802,47.90764],[3.02393,47.90517],[3.02891,47.9069],[3.03593,47.91158],[3.03727,47.9114],[3.0378,47.90672],[3.05049,47.91064],[3.04922,47.92013],[3.05244,47.92083],[3.05081,47.92417],[3.06174,47.92613],[3.06438,47.92809],[3.06461,47.93052],[3.07847,47.93142],[3.07968,47.9364],[3.08151,47.93729],[3.08386,47.94263],[3.08922,47.94331],[3.09569,47.94714],[3.09769,47.94609],[3.0984,47.94878],[3.10527,47.94694],[3.10867,47.95074],[3.10962,47.95613],[3.11146,47.95787],[3.11149,47.96039],[3.10931,47.96207],[3.12674,47.96829],[3.12845,47.97097],[3.12857,47.98337],[3.12341,47.98365],[3.12172,47.9868],[3.12668,47.99127],[3.12508,47.99177],[3.12312,47.99075],[3.12112,47.99594],[3.1232,48.00105],[3.12068,48.00278],[3.12455,48.00603],[3.12421,48.0069],[3.11542,48.01297],[3.11029,48.01103],[3.10409,48.01355],[3.09946,48.02075],[3.10006,48.02226],[3.1031,48.02405],[3.10949,48.02497],[3.11643,48.02808],[3.11955,48.0259],[3.12051,48.02674],[3.12007,48.02908],[3.12262,48.02929],[3.12426,48.03113],[3.11445,48.03425],[3.10702,48.03506],[3.09463,48.04041],[3.09516,48.04431],[3.09281,48.04428],[3.09202,48.04519],[3.09306,48.04765],[3.08965,48.04907],[3.09536,48.05398],[3.08832,48.05394],[3.07995,48.06032],[3.0746,48.06027],[3.06089,48.06422],[3.05047,48.07233],[3.04886,48.08384],[3.0504,48.09136],[3.04901,48.09374],[3.0429,48.09338],[3.04288,48.09608],[3.04033,48.09618],[3.03835,48.09885],[3.03529,48.11599],[3.03277,48.11417],[3.01588,48.11571],[3.02142,48.12426],[3.0294,48.1333],[3.02312,48.13567],[3.0219,48.135],[3.00961,48.14577],[3.00389,48.14486],[3.00332,48.14216],[2.99839,48.13977],[2.9978,48.14103],[2.99552,48.14131],[2.99115,48.14678],[2.99088,48.15249],[2.97995,48.15385],[2.97972,48.15175],[2.98158,48.1498],[2.97292,48.15043],[2.96884,48.15261],[2.96361,48.15296],[2.96041,48.15495],[2.95975,48.15635],[2.95668,48.15776],[2.95327,48.16501],[2.93631,48.16339],[2.93528,48.16614],[2.93475,48.17882],[2.93695,48.18303],[2.9405,48.18306],[2.94852,48.18909],[2.95542,48.19252],[2.95869,48.19129],[2.96738,48.19286],[2.97131,48.19477],[2.97376,48.19678],[2.97377,48.19849],[2.97145,48.20102],[2.97305,48.20555],[2.97992,48.20559],[2.98896,48.20902],[2.99301,48.20445],[2.99694,48.20709],[3.00462,48.20677],[3.00851,48.21219],[3.00687,48.21458],[3.01131,48.22081],[3.02281,48.23032],[3.01892,48.23177],[3.02062,48.23418],[3.01857,48.23519],[3.02756,48.24148],[3.02621,48.24205],[3.03146,48.24888],[3.03566,48.2509],[3.04308,48.24932],[3.04757,48.2497],[3.045,48.25925],[3.04276,48.26201],[3.04616,48.2669],[3.04547,48.27073],[3.03793,48.27341],[3.03174,48.27358],[3.02496,48.27601],[3.02635,48.28192],[3.02977,48.28584],[3.01874,48.29476],[3.02005,48.29655],[3.02725,48.30037],[3.02744,48.30286],[3.01941,48.30318],[3.01478,48.30622],[3.02244,48.31407],[3.02703,48.31701],[3.02624,48.31908],[3.02898,48.31982],[3.02822,48.32163],[3.03658,48.32603],[3.03735,48.32805],[3.04358,48.33044],[3.0423,48.33154],[3.04273,48.33251],[3.03666,48.33502],[3.03676,48.3401],[3.03962,48.34165],[3.03714,48.34257],[3.04617,48.35797],[3.04836,48.3582],[3.04952,48.36012],[3.05426,48.3605],[3.06055,48.35744],[3.07016,48.35823],[3.07836,48.36119],[3.08869,48.35725],[3.09888,48.35782],[3.10115,48.35645],[3.0996,48.3516],[3.10342,48.34951],[3.10902,48.35566],[3.11352,48.36332],[3.11721,48.36662],[3.12247,48.36862],[3.12885,48.36723],[3.12809,48.36963],[3.13246,48.36946],[3.13987,48.3726],[3.14132,48.3706],[3.14102,48.36887],[3.14657,48.36565],[3.14813,48.36989],[3.15039,48.36953],[3.15242,48.37144],[3.15555,48.37029],[3.15707,48.37215],[3.16677,48.37065],[3.17181,48.37768],[3.17967,48.37572],[3.18253,48.37331],[3.18494,48.36813],[3.19026,48.37093],[3.19615,48.36854],[3.20034,48.36368],[3.20865,48.3653],[3.22372,48.3704],[3.23284,48.37033],[3.23206,48.3693],[3.23885,48.36778],[3.24803,48.36751],[3.24966,48.3656],[3.25438,48.36502],[3.25443,48.36642],[3.25673,48.36648],[3.25661,48.36783],[3.26174,48.36829],[3.26089,48.37301],[3.26704,48.37355],[3.2668,48.37589],[3.2684,48.37597],[3.26802,48.37797],[3.27218,48.37889],[3.27316,48.37717],[3.2824,48.37752],[3.28282,48.38157],[3.29126,48.38005],[3.28963,48.37584],[3.29811,48.37869],[3.30019,48.37837],[3.29933,48.37544],[3.30129,48.37534],[3.3018,48.37394],[3.30494,48.37397],[3.30515,48.37287],[3.31091,48.37297],[3.30932,48.37698],[3.31207,48.37723],[3.32001,48.37561],[3.32237,48.37348],[3.331,48.3731],[3.33547,48.37018],[3.3364,48.373],[3.34842,48.37326],[3.35097,48.37863],[3.35656,48.37845],[3.35642,48.37121],[3.35768,48.37102],[3.35942,48.37221],[3.36516,48.37228],[3.36572,48.37585],[3.36306,48.37596],[3.36261,48.37699],[3.36279,48.38258],[3.36722,48.39432],[3.37348,48.3935],[3.37541,48.39869],[3.38342,48.39939],[3.39473,48.39546],[3.39549,48.39244],[3.39997,48.39208],[3.40204,48.38971],[3.4059,48.3911],[3.40637,48.38978],[3.41479,48.39027],[3.41298,48.3812],[3.41328,48.3763],[3.42168,48.37172],[3.42384,48.36515],[3.42675,48.36187],[3.42739,48.35809],[3.44156,48.36686],[3.44833,48.36837],[3.44796,48.37246],[3.45083,48.37392],[3.46528,48.37472],[3.46747,48.37568],[3.46857,48.3741],[3.47048,48.37467],[3.47488,48.36926],[3.49763,48.36958],[3.50134,48.36653],[3.50449,48.36578],[3.51354,48.36002],[3.52164,48.35148],[3.52044,48.34933],[3.52477,48.34726],[3.53415,48.3388],[3.54511,48.33454],[3.54405,48.33284],[3.5439,48.31979],[3.55391,48.31908],[3.5634,48.32144],[3.56556,48.31895],[3.56503,48.31333],[3.56109,48.31194],[3.56657,48.30743],[3.56807,48.30809],[3.57145,48.30588],[3.57628,48.30507],[3.58008,48.30601],[3.58264,48.30118],[3.58577,48.30195],[3.58797,48.30081],[3.58743,48.29285],[3.58574,48.29009],[3.57805,48.28698],[3.5778,48.28459],[3.57993,48.28331],[3.58384,48.28354],[3.58412,48.28119],[3.58718,48.28017],[3.60044,48.27949],[3.60191,48.27592],[3.6091,48.27529],[3.61362,48.27353],[3.6185,48.26917],[3.62376,48.25929],[3.62433,48.25453],[3.61535,48.25086],[3.60815,48.24352],[3.60325,48.24101],[3.59985,48.23591],[3.60079,48.23307],[3.60468,48.22989],[3.60792,48.23255],[3.61477,48.2318],[3.62162,48.22574],[3.61408,48.22012],[3.61544,48.21803],[3.61221,48.21555],[3.61116,48.21193],[3.60207,48.20527],[3.59991,48.20233],[3.59348,48.2002],[3.59269,48.19831],[3.57519,48.18874],[3.57985,48.18434],[3.59317,48.17888],[3.62166,48.19198],[3.63494,48.18792],[3.6415,48.18394],[3.64516,48.17953],[3.64714,48.17596],[3.64689,48.17376],[3.65066,48.16823],[3.66064,48.15885],[3.66787,48.13921],[3.69092,48.14502],[3.69362,48.148],[3.69298,48.15462],[3.69442,48.15505],[3.69546,48.15149],[3.69783,48.14961],[3.70033,48.14504],[3.70502,48.14431],[3.71292,48.15115],[3.71822,48.15288],[3.72157,48.15527],[3.72216,48.15989],[3.72135,48.15995],[3.72114,48.16243],[3.71417,48.17061],[3.71352,48.17394],[3.71847,48.17537],[3.74029,48.16971],[3.74747,48.16625],[3.7519,48.16129],[3.75482,48.15024],[3.74287,48.14288],[3.73939,48.13807],[3.73972,48.13275],[3.74786,48.12883],[3.75076,48.12605],[3.75691,48.12531],[3.7614,48.12957],[3.76213,48.13181],[3.76802,48.13376],[3.77494,48.12882],[3.77735,48.12853],[3.77636,48.1243],[3.77988,48.12062],[3.79169,48.11764],[3.79245,48.11377],[3.80166,48.10673],[3.80124,48.10597],[3.80497,48.10255],[3.80565,48.10051],[3.79978,48.0969],[3.80109,48.09567],[3.79784,48.09234],[3.80002,48.08863],[3.79808,48.0865],[3.80693,48.08415],[3.80548,48.08224],[3.81101,48.07835],[3.81004,48.07786],[3.81977,48.06769],[3.82635,48.06361],[3.82376,48.06188],[3.82955,48.05772],[3.82406,48.05311],[3.83019,48.04709],[3.82695,48.04444],[3.82389,48.04524],[3.82198,48.04392],[3.83215,48.03623],[3.83462,48.03773],[3.83644,48.03568],[3.83726,48.03649],[3.84159,48.03553],[3.84255,48.03619],[3.84718,48.0293],[3.8534,48.02647],[3.85659,48.02301],[3.86278,48.01965],[3.86828,48.01935],[3.87061,48.01681],[3.87109,48.01496],[3.86995,48.01461],[3.87183,48.01022],[3.87053,48.00718],[3.87068,48.00295],[3.86827,48.00303],[3.86799,48.00501],[3.86369,48.00705],[3.85791,48.00604],[3.85488,48.00352],[3.83981,48.00389],[3.83928,47.99913],[3.84133,47.99821],[3.8416,47.99586],[3.84698,47.99458],[3.84672,47.99251],[3.85052,47.9846],[3.85003,47.98366],[3.86592,47.9844],[3.8618,47.97644],[3.87282,47.97742],[3.87227,47.97914],[3.87997,47.97917],[3.8833,47.9852],[3.87766,47.98703],[3.88295,47.99146],[3.88536,47.99147],[3.88146,47.99782],[3.88166,48.00029],[3.89158,48.00025],[3.89343,48.0017],[3.89793,47.99765],[3.90028,47.99788],[3.90681,47.9852],[3.91092,47.98182],[3.91469,47.97569],[3.91331,47.96938],[3.9071,47.96343],[3.90646,47.95989],[3.90466,47.95807],[3.90604,47.95521],[3.9051,47.95257],[3.90256,47.95068],[3.90387,47.94935],[3.90371,47.94629],[3.89946,47.94073],[3.90355,47.93834],[3.89403,47.9293],[3.89908,47.92787],[3.90216,47.92554],[3.90535,47.92505],[3.90685,47.928],[3.91172,47.93009],[3.9138,47.93024],[3.91849,47.92802],[3.92645,47.93457],[3.9305,47.93357],[3.93147,47.93234],[3.93534,47.93197],[3.94539,47.93467],[3.94809,47.9309],[3.95955,47.93569],[3.96257,47.93596],[3.97521,47.9312],[3.98145,47.93021],[3.98417,47.93134],[3.98563,47.93051],[3.99123,47.93241],[3.99179,47.93528],[3.99427,47.93718],[4.00386,47.94203],[4.01361,47.93682],[4.01257,47.9321],[4.0166,47.93043],[4.01616,47.92936],[4.01814,47.92847],[4.02386,47.92915],[4.02565,47.92832],[4.03128,47.93318],[4.03992,47.92955],[4.04146,47.92706],[4.04481,47.92512],[4.04639,47.92685],[4.05888,47.93171],[4.05715,47.93636],[4.05595,47.9366],[4.05695,47.93856],[4.05635,47.94065],[4.05668,47.94221],[4.06094,47.9457],[4.07791,47.94285],[4.08535,47.94503],[4.0897,47.94501],[4.09033,47.94374],[4.09298,47.94298],[4.0917,47.93706],[4.09,47.93619],[4.09381,47.93401],[4.09193,47.9318],[4.09209,47.9282],[4.09403,47.9266],[4.09836,47.92995],[4.10706,47.92981],[4.10904,47.92902],[4.10831,47.92751],[4.10961,47.92604],[4.11452,47.9288],[4.11693,47.92885],[4.12047,47.93244],[4.12212,47.93165],[4.12782,47.93422],[4.13038,47.93679],[4.13397,47.93795],[4.14184,47.93711],[4.14242,47.93863],[4.14017,47.94275],[4.14582,47.94797],[4.14904,47.94815],[4.156,47.95569],[4.16633,47.9598],[4.16945,47.95724],[4.1726,47.95926],[4.17695,47.95739],[4.18176,47.95704],[4.18425,47.95542],[4.18584,47.94713],[4.18539,47.94025],[4.19299,47.93932],[4.1941,47.94038],[4.20188,47.94116],[4.20591,47.94329],[4.20783,47.9466],[4.20527,47.94987],[4.20725,47.95281],[4.20312,47.95917],[4.2091,47.9616],[4.21307,47.9619],[4.21271,47.96307],[4.20268,47.95981],[4.20201,47.96158],[4.19727,47.96413],[4.19281,47.9646],[4.19395,47.96675],[4.20242,47.973],[4.21033,47.97161],[4.2158,47.97251],[4.22297,47.97105],[4.22596,47.97194],[4.22846,47.96915],[4.22695,47.96613],[4.2281,47.96102],[4.22215,47.9497],[4.22964,47.94584],[4.23214,47.94265],[4.23714,47.94068],[4.24272,47.93196],[4.24546,47.92975],[4.25652,47.92849],[4.25678,47.92672],[4.26973,47.92368],[4.27811,47.92404],[4.28851,47.92693],[4.29342,47.92568],[4.29749,47.93262],[4.30261,47.93717],[4.30287,47.93851],[4.30037,47.9435],[4.3005,47.94683],[4.29792,47.9497],[4.30272,47.95075],[4.30795,47.95633],[4.309,47.96117],[4.3128,47.9625],[4.31474,47.9608],[4.31979,47.95946],[4.3345,47.9589],[4.34101,47.9578],[4.34321,47.95586],[4.36108,47.95713],[4.36558,47.95899],[4.36635,47.95825],[4.36962,47.95995],[4.36785,47.96137],[4.36859,47.96195],[4.37091,47.96084],[4.37238,47.9617],[4.374,47.96046],[4.37577,47.96151],[4.38173,47.96113],[4.38381,47.95966],[4.38766,47.96212],[4.3971,47.96231],[4.40272,47.96554],[4.4179,47.96846],[4.42805,47.96581],[4.43559,47.95996],[4.43941,47.95823],[4.44594,47.95753],[4.44696,47.9562],[4.45588,47.95973],[4.46335,47.959],[4.46994,47.95983],[4.47311,47.96229],[4.483,47.96319],[4.49331,47.96818],[4.515,47.9662],[4.53156,47.96993],[4.55424,47.96748],[4.55997,47.97142],[4.55706,47.98187],[4.55489,47.98601],[4.5456,47.98829],[4.54093,47.99212],[4.53582,48.00121],[4.53577,48.00657],[4.54942,48.00446],[4.55564,48.01356],[4.56074,48.01549],[4.56328,48.01522],[4.56732,48.01874],[4.57029,48.02377],[4.5754,48.02583],[4.57863,48.02909],[4.58262,48.02847],[4.58507,48.0301],[4.60007,48.03048],[4.60683,48.02846],[4.61681,48.03137],[4.61783,48.02834],[4.62195,48.02435],[4.62331,48.02522],[4.63454,48.02424],[4.64768,48.02568],[4.65525,48.02095],[4.65584,48.01747],[4.66551,48.02079],[4.67069,48.01542],[4.67323,48.01505],[4.68676,48.02072],[4.70037,48.02374],[4.71551,48.01155],[4.72221,48.01011],[4.71994,48.0089],[4.74214,48.00462],[4.76727,48.00576],[4.77307,48.00497],[4.77858,48.00702],[4.78614,48.00659],[4.78908,48.00783],[4.79341,48.00288],[4.79325,47.99654],[4.80919,47.99009],[4.81024,47.98858],[4.80515,47.98563],[4.79497,47.98446],[4.78772,47.97138],[4.78571,47.97146],[4.78506,47.96887],[4.78651,47.9642],[4.79112,47.96537],[4.79359,47.9623],[4.80064,47.96265],[4.80876,47.96149],[4.81101,47.95933],[4.81942,47.96036],[4.82006,47.96111],[4.81778,47.96386],[4.81982,47.96449],[4.82749,47.96086],[4.84518,47.96125],[4.85774,47.95207],[4.8661,47.94051],[4.86004,47.93713],[4.85642,47.9342],[4.85551,47.93206],[4.84639,47.9274],[4.84677,47.92131],[4.84228,47.92119],[4.8394,47.92259],[4.83494,47.91891],[4.83122,47.91787],[4.83094,47.91629],[4.82894,47.91513],[4.82947,47.91228],[4.83404,47.90679],[4.85678,47.89563],[4.86043,47.89631],[4.8616,47.89989],[4.85922,47.90179],[4.87085,47.91531],[4.86934,47.91745],[4.8763,47.92022],[4.89275,47.9227],[4.90291,47.92104],[4.90409,47.91921],[4.90369,47.91769],[4.90596,47.91647],[4.90586,47.91431],[4.91401,47.90559],[4.91375,47.90181],[4.91542,47.89782],[4.91954,47.89431],[4.92581,47.8912],[4.92858,47.88623],[4.92715,47.87885],[4.92936,47.87749],[4.93003,47.87504],[4.92746,47.87155],[4.9369,47.86927],[4.9402,47.86703],[4.95409,47.86677],[4.95565,47.86277],[4.9634,47.85221],[4.96302,47.84848],[4.96014,47.84557],[4.96119,47.84394],[4.96043,47.8394],[4.96618,47.83937],[4.96865,47.8367],[4.96835,47.83194],[4.98469,47.82887],[4.98598,47.82254],[4.99413,47.81975],[4.98879,47.81865],[4.98907,47.81748],[4.99187,47.81732],[4.99144,47.81549],[4.99318,47.81563],[4.99386,47.81291],[4.99193,47.81319],[4.99129,47.81104],[4.98817,47.80895],[4.98886,47.80794],[4.99134,47.80806],[4.98876,47.80462],[4.98442,47.80192],[4.98236,47.80206],[4.98226,47.80009],[4.97765,47.80023],[4.96358,47.79511],[4.95645,47.79005],[4.93707,47.78292],[4.92203,47.7797],[4.91796,47.77709],[4.92388,47.77534],[4.9238,47.77342],[4.92076,47.77281],[4.92089,47.76722],[4.91714,47.7669],[4.9267,47.76484],[4.92268,47.76034],[4.92268,47.75895],[4.93074,47.76134],[4.94222,47.7626],[4.94442,47.764],[4.94452,47.76602],[4.94741,47.76659],[4.95082,47.76264],[4.95899,47.76187],[4.95994,47.75155],[4.96393,47.74695],[4.96331,47.74544],[4.96493,47.74437],[4.96615,47.74056],[4.9568,47.73245],[4.9605,47.73281],[4.96476,47.73546],[4.97003,47.73553],[4.97166,47.72941],[4.96349,47.72218],[4.96366,47.71884],[4.96583,47.71524],[4.9644,47.71343],[4.95381,47.70692],[4.95414,47.70146],[4.95733,47.70013],[4.95984,47.69697],[4.97198,47.69157],[4.97244,47.69016],[4.96857,47.68733],[4.96909,47.68583],[4.97455,47.6871],[4.9797,47.68626],[4.98256,47.68853],[4.99228,47.68831],[4.99675,47.68997],[5.00004,47.69318],[5.00361,47.69373],[5.00254,47.6964],[5.00465,47.70122],[5.00774,47.70025],[5.01087,47.70305],[5.01321,47.70309],[5.01341,47.7057],[5.01623,47.70613],[5.0177,47.70488],[5.02261,47.70702],[5.0248,47.70935],[5.02915,47.70992],[5.03365,47.70789],[5.03196,47.70351],[5.03393,47.70162],[5.02912,47.69746],[5.02877,47.69328],[5.03746,47.69245],[5.05355,47.6942],[5.05551,47.69734],[5.06065,47.69479],[5.05737,47.69054],[5.0525,47.68801],[5.05316,47.68659],[5.05043,47.68009],[5.04359,47.67652],[5.05095,47.67202],[5.0535,47.66827],[5.06248,47.66703],[5.06699,47.66782],[5.06738,47.66502],[5.06899,47.66521],[5.06794,47.66816],[5.06916,47.66858],[5.07153,47.66421],[5.07606,47.66541],[5.07849,47.66341],[5.07825,47.66008],[5.08332,47.66037],[5.08612,47.65662],[5.0947,47.65754],[5.09905,47.65919],[5.10396,47.65885],[5.10338,47.6541],[5.10888,47.64968],[5.11686,47.65202],[5.12139,47.64966],[5.12125,47.64822],[5.12259,47.64707],[5.12537,47.64677],[5.12918,47.64821],[5.12866,47.64985],[5.13319,47.65122],[5.13857,47.65086],[5.1385,47.65213],[5.13533,47.65373],[5.14016,47.65578],[5.14282,47.65567],[5.14918,47.66375],[5.15496,47.66721],[5.16055,47.67455],[5.16002,47.6773],[5.16186,47.6805],[5.17834,47.68095],[5.17924,47.67908],[5.17775,47.67723],[5.17539,47.66668],[5.17327,47.66648],[5.17456,47.6563],[5.1736,47.65257],[5.17974,47.65001],[5.18859,47.64956],[5.19815,47.64437],[5.21141,47.64189],[5.22127,47.63224],[5.23024,47.62954],[5.22923,47.62556],[5.23744,47.62095],[5.23694,47.61678],[5.23923,47.61613],[5.25054,47.62215],[5.25565,47.62305],[5.2586,47.62221],[5.23802,47.59654],[5.24764,47.58977],[5.249,47.58785],[5.24882,47.58583],[5.25085,47.58407],[5.25081,47.58222],[5.25322,47.5787],[5.25312,47.57685],[5.25663,47.57668],[5.26854,47.58146],[5.27122,47.58063],[5.2779,47.58136],[5.27783,47.58978],[5.28477,47.59469],[5.294,47.59788],[5.29925,47.60269],[5.29821,47.60434],[5.30636,47.60728],[5.31455,47.60621],[5.31809,47.60766],[5.31926,47.61073],[5.32234,47.61236],[5.33306,47.61114],[5.34103,47.60837],[5.33983,47.60723],[5.3427,47.60495],[5.34426,47.60554],[5.34547,47.60474],[5.34073,47.59623],[5.34211,47.59466],[5.34404,47.59574],[5.35557,47.59147],[5.35677,47.59378],[5.35929,47.59372],[5.36263,47.59867],[5.36403,47.59863],[5.36704,47.60472],[5.36974,47.60541],[5.37193,47.6041],[5.37408,47.60454],[5.37173,47.61473],[5.37405,47.61791],[5.3726,47.61839],[5.37743,47.62479],[5.3817,47.6282],[5.38067,47.62912],[5.38329,47.63049],[5.38302,47.63163],[5.38624,47.63451],[5.38582,47.63511],[5.39643,47.64234],[5.39959,47.64302],[5.40575,47.64687],[5.40431,47.64875],[5.40017,47.64846],[5.39906,47.64992],[5.39905,47.65325],[5.40264,47.65672],[5.40634,47.6734],[5.41816,47.6762],[5.42018,47.67767],[5.42952,47.67432],[5.43381,47.67133],[5.4475,47.67083],[5.45443,47.67307],[5.46207,47.67273],[5.47027,47.67503],[5.47257,47.67672],[5.47419,47.68046],[5.48277,47.68463],[5.50323,47.67684],[5.5078,47.67645],[5.51203,47.67358],[5.52978,47.67283],[5.53092,47.67523],[5.53881,47.68099],[5.54067,47.68418],[5.55042,47.69237],[5.55824,47.69715],[5.55887,47.69872],[5.5672,47.70523],[5.56739,47.70712],[5.58206,47.70293],[5.58209,47.70112],[5.58509,47.70015],[5.58464,47.69066],[5.59278,47.68189],[5.59178,47.68083],[5.59256,47.67743],[5.59432,47.67666],[5.59416,47.67523],[5.59668,47.67169],[5.60123,47.67525],[5.60609,47.6752],[5.60878,47.67347],[5.61164,47.67321],[5.61692,47.6735],[5.63026,47.67696],[5.64032,47.67586],[5.64404,47.67679],[5.64796,47.67533],[5.65341,47.67738],[5.65931,47.68113],[5.65924,47.68311],[5.66348,47.68493],[5.66444,47.68417],[5.66772,47.68543],[5.67105,47.68223],[5.67536,47.68193],[5.68123,47.68626],[5.68589,47.68293],[5.68752,47.68567],[5.69106,47.68463],[5.69464,47.69159],[5.69504,47.69487],[5.69387,47.69535],[5.69276,47.6988],[5.69353,47.70481],[5.68785,47.71096],[5.68412,47.71197],[5.68584,47.71507],[5.68342,47.71671],[5.68833,47.71936],[5.68706,47.72246],[5.69404,47.72442],[5.69522,47.726],[5.68869,47.73047],[5.69039,47.73515],[5.69334,47.73754],[5.70646,47.74247],[5.70958,47.7453],[5.70611,47.75153],[5.70926,47.75711],[5.70752,47.76112],[5.70921,47.76372],[5.70753,47.76755],[5.70509,47.76911],[5.69656,47.77039],[5.68985,47.76888],[5.67997,47.76997],[5.68213,47.77553],[5.67956,47.77822],[5.67661,47.77916],[5.6784,47.78315],[5.67715,47.7835],[5.67895,47.79296],[5.68123,47.79734],[5.68218,47.80479],[5.68153,47.80911],[5.68686,47.8133],[5.68975,47.81681],[5.68989,47.8191],[5.69224,47.82133],[5.70108,47.82364],[5.70418,47.82207],[5.72067,47.82068],[5.72168,47.82174],[5.72326,47.81949],[5.72465,47.82021],[5.7303,47.81773],[5.73626,47.81771],[5.74076,47.8192],[5.74422,47.82225],[5.74525,47.82668],[5.74723,47.82842],[5.75108,47.82903],[5.75056,47.83031],[5.74563,47.8295],[5.74716,47.83149],[5.74588,47.8375],[5.74808,47.83839],[5.74675,47.84068],[5.74473,47.84042],[5.74359,47.84235],[5.7455,47.84413],[5.7442,47.84885],[5.74965,47.85247],[5.75341,47.85178],[5.75606,47.85332],[5.76119,47.85933],[5.76513,47.85805],[5.76732,47.85565],[5.77476,47.85804],[5.78468,47.85528],[5.79888,47.8557],[5.79724,47.85009],[5.79579,47.84923],[5.79608,47.84675],[5.81602,47.84885],[5.82367,47.85232],[5.82798,47.85187],[5.82949,47.85336],[5.82967,47.85623],[5.82646,47.85615],[5.82568,47.85536],[5.82661,47.85416],[5.81857,47.85197],[5.81785,47.85325],[5.82463,47.85571],[5.82241,47.85748],[5.82732,47.85711],[5.82806,47.85803],[5.82529,47.85865],[5.82247,47.86455],[5.82452,47.8652],[5.8207,47.8691],[5.83115,47.88049],[5.83488,47.88231],[5.83668,47.88528],[5.83863,47.88539],[5.83687,47.8881],[5.83748,47.89124],[5.84285,47.89441],[5.84578,47.89931],[5.84817,47.90091],[5.84839,47.90433],[5.85132,47.90599],[5.8563,47.90379],[5.86509,47.90279],[5.86997,47.90071],[5.88069,47.90178],[5.88278,47.90004],[5.8873,47.90364],[5.89086,47.91083],[5.88639,47.91591],[5.88957,47.92059],[5.8834,47.92145],[5.88358,47.92491],[5.89718,47.93098],[5.89626,47.93429],[5.8929,47.93714],[5.90011,47.94475],[5.91804,47.94736],[5.9173,47.95021],[5.91881,47.95674],[5.92048,47.9566],[5.9194,47.96428],[5.91738,47.96623],[5.92254,47.97198],[5.93249,47.97729],[5.93403,47.97644],[5.93689,47.979],[5.93947,47.97946],[5.94347,47.97921],[5.9442,47.98004],[5.94749,47.97922],[5.94976,47.97609],[5.94955,47.97294],[5.95882,47.97049],[5.95848,47.96848],[5.96013,47.96803],[5.95952,47.96584],[5.95382,47.96102],[5.95182,47.96108],[5.94806,47.9571],[5.94665,47.95701],[5.94645,47.95517],[5.94183,47.95239],[5.9379,47.95157],[5.93731,47.94793],[5.93329,47.94383],[5.93193,47.94374],[5.93241,47.94179],[5.92839,47.93781],[5.93404,47.93724],[5.93543,47.93593],[5.9375,47.93682],[5.94939,47.93545],[5.95697,47.93936],[5.96054,47.94258],[5.96032,47.94354],[5.96371,47.94581],[5.9689,47.94741],[5.97078,47.95721],[5.98189,47.95785],[5.98398,47.95621],[5.98734,47.95823],[5.98937,47.95663],[5.99579,47.95832],[5.99697,47.95702],[6.00226,47.95609],[6.00527,47.95784],[6.00897,47.96087],[6.00624,47.96402],[6.00947,47.96707],[6.01214,47.97185],[6.01896,47.9697],[6.01729,47.9725],[6.02609,47.98145],[6.02373,47.9822],[6.02267,47.98151],[6.01817,47.98422],[6.019,47.98748],[6.02468,47.98712],[6.02492,47.99157],[6.03216,47.99062],[6.03089,47.99453],[6.03251,47.99862],[6.04118,48.00442],[6.05571,48.00882],[6.07277,48.0158],[6.08081,48.01279],[6.09774,48.01504],[6.10923,48.01247],[6.1137,48.01773],[6.11735,48.01995],[6.12309,48.02058],[6.1314,48.02408],[6.13439,48.02007],[6.13861,48.01719],[6.14836,48.01445],[6.15209,48.00955],[6.15606,48.00694],[6.15516,48.00288],[6.15242,47.99838],[6.15265,47.99414],[6.15733,47.99209],[6.15956,47.99229],[6.16049,47.98938],[6.15758,47.98448],[6.16186,47.97862],[6.16447,47.97773],[6.16489,47.97613],[6.16375,47.97527],[6.16455,47.97311],[6.15094,47.97056],[6.14945,47.96854],[6.14981,47.96592],[6.15557,47.96505],[6.15527,47.96654],[6.15706,47.96793],[6.16069,47.96448],[6.16075,47.95871],[6.16208,47.95678],[6.16798,47.95235],[6.17388,47.95225],[6.18202,47.9563],[6.18664,47.95354],[6.19089,47.95395],[6.19737,47.95179],[6.19654,47.94957],[6.19712,47.94744],[6.20057,47.94804],[6.20806,47.94676],[6.20702,47.94355],[6.2083,47.94198],[6.20833,47.93959],[6.20535,47.93541],[6.20522,47.93205],[6.21442,47.93038],[6.21917,47.93576],[6.23799,47.93284],[6.2387,47.93709],[6.24324,47.93964],[6.25077,47.93907],[6.27733,47.95381],[6.28908,47.95584],[6.29596,47.95552],[6.30729,47.95013],[6.31907,47.95014],[6.32327,47.94883],[6.32969,47.95392],[6.33532,47.95584],[6.33897,47.95446],[6.34528,47.95447],[6.35364,47.95868],[6.35635,47.95913],[6.3588,47.95783],[6.36093,47.95852],[6.36155,47.96134],[6.36616,47.96194],[6.38057,47.95852],[6.38516,47.95899],[6.38893,47.96079],[6.39103,47.96036],[6.39034,47.95921],[6.39219,47.95622],[6.39451,47.95502],[6.39933,47.95495],[6.40536,47.95311],[6.40842,47.94319],[6.41823,47.94267],[6.43192,47.94381],[6.43473,47.94285],[6.4363,47.9365],[6.44093,47.93301],[6.44125,47.93115],[6.44809,47.92613],[6.44755,47.92341],[6.44916,47.92173],[6.45291,47.92002],[6.45778,47.92052],[6.45883,47.91855],[6.46274,47.91733],[6.46113,47.9164],[6.46343,47.91407],[6.46044,47.91345],[6.45596,47.90677],[6.4583,47.90582],[6.46229,47.89943],[6.46552,47.89711],[6.47247,47.89353],[6.47798,47.89304],[6.47761,47.8919],[6.47409,47.891],[6.47826,47.88544],[6.50321,47.89622],[6.5212,47.90017],[6.54401,47.90309],[6.54396,47.90845],[6.55225,47.91157],[6.55203,47.91549],[6.55943,47.92432],[6.56342,47.93139],[6.56828,47.93449],[6.57781,47.93703],[6.58977,47.94245],[6.60289,47.94472],[6.60737,47.94379],[6.60752,47.94167],[6.6125,47.93604],[6.61855,47.93141],[6.62737,47.93009],[6.6303,47.92836],[6.62904,47.92516],[6.63308,47.92142],[6.64191,47.91776],[6.63929,47.91029],[6.64642,47.90323],[6.6548,47.90107],[6.65808,47.89851],[6.66298,47.89712],[6.66693,47.89378],[6.67175,47.89288],[6.67642,47.89027],[6.68359,47.89032],[6.69689,47.88271],[6.70284,47.88172],[6.70618,47.87858],[6.70924,47.87752],[6.71073,47.87525],[6.73022,47.86809],[6.7306,47.86622],[6.73525,47.86492],[6.73784,47.86167],[6.7453,47.86112],[6.74724,47.85956],[6.75464,47.85842],[6.75605,47.85918],[6.76066,47.85828],[6.76386,47.85731],[6.76447,47.85346],[6.77016,47.85198],[6.78261,47.85128],[6.79223,47.84222],[6.79255,47.8405],[6.78843,47.83449],[6.79268,47.82946],[6.79992,47.82741],[6.80035,47.82587],[6.8036,47.82404],[6.81121,47.82149],[6.81109,47.81997],[6.81633,47.81887],[6.82354,47.81305],[6.82384,47.81426],[6.83424,47.81868],[6.83932,47.82478],[6.84308,47.82505],[6.84618,47.82295],[6.84102,47.819],[6.84268,47.81216],[6.85025,47.80714],[6.84855,47.80448],[6.84845,47.80187],[6.85441,47.79564],[6.86009,47.79436],[6.86217,47.79097],[6.86074,47.78981],[6.86244,47.78637],[6.86699,47.78331],[6.87139,47.7817],[6.88009,47.78248],[6.89262,47.77745],[6.90209,47.77645],[6.91063,47.77791],[6.91398,47.77719],[6.92216,47.77281],[6.92452,47.76987],[6.92678,47.7695],[6.93165,47.76971],[6.93466,47.77159],[6.94043,47.77157],[6.94352,47.76653],[6.95247,47.76405],[6.95474,47.76099],[6.95995,47.75957],[6.96428,47.75602],[6.97046,47.75437],[6.97227,47.75147],[6.98136,47.75155],[6.98818,47.74782],[7.00041,47.74557],[7.01305,47.74128],[7.01596,47.74323],[7.02155,47.73327],[7.03412,47.72506],[7.03742,47.72164],[7.03573,47.72126],[7.03674,47.71699],[7.03381,47.71548],[7.02927,47.70873],[7.02649,47.701],[7.03367,47.69963],[7.03316,47.69528],[7.03764,47.69469],[7.03865,47.69258],[7.03634,47.69222],[7.03641,47.69137],[7.04011,47.68572],[7.04803,47.6841],[7.04771,47.68199],[7.04288,47.68092],[7.04296,47.6795],[7.04135,47.67855],[7.03895,47.67854],[7.03791,47.6745],[7.04237,47.67207],[7.04631,47.6715],[7.04506,47.66935],[7.04168,47.66745],[7.0404,47.66494],[7.03553,47.66338],[7.03418,47.66109],[7.03919,47.65057],[7.03489,47.64944],[7.01981,47.65068],[7.0176,47.64986],[7.01688,47.64413],[7.01917,47.64125],[7.01207,47.63932],[7.01218,47.63765],[7.01463,47.63742],[7.01591,47.63601],[7.01355,47.63494],[7.01275,47.63362],[7.01396,47.63199],[7.01263,47.63141],[7.01693,47.62719],[7.0142,47.62567],[7.01128,47.63039],[7.00593,47.62892],[7.00791,47.62302],[7.00757,47.61938],[7.00498,47.61938],[7.00718,47.61496],[7.00607,47.61289],[7.00876,47.60937],[7.00738,47.60654],[7.0105,47.60502],[7.00594,47.60236],[7.00921,47.59939],[7.01217,47.60044],[7.01932,47.5961],[7.02158,47.5938],[7.02014,47.59253],[7.01635,47.59266],[7.01574,47.59179],[7.01944,47.59012],[7.01956,47.58854],[7.02464,47.58922],[7.02542,47.59268],[7.03393,47.59411],[7.03978,47.60115],[7.04774,47.60083],[7.04758,47.59868],[7.05186,47.60049],[7.05437,47.59855],[7.06587,47.60128],[7.06686,47.59976],[7.07041,47.60071],[7.07016,47.59633],[7.07367,47.59771],[7.07403,47.59887],[7.08107,47.59612],[7.08089,47.59423],[7.08627,47.59256],[7.0875,47.58846],[7.08599,47.58699],[7.08715,47.58433],[7.0897,47.58313],[7.09067,47.57919],[7.09232,47.57835],[7.09417,47.57364],[7.09904,47.57303],[7.10553,47.56889],[7.10842,47.56303],[7.10712,47.55611],[7.10809,47.55211],[7.10687,47.55054],[7.11007,47.54897],[7.11878,47.54759],[7.12224,47.54423],[7.13363,47.53896],[7.13594,47.53713],[7.13656,47.53143],[7.13788,47.53065],[7.13981,47.52606],[7.14346,47.52461],[7.13946,47.51937],[7.13788,47.5106],[7.13432,47.50503],[7.13035,47.50303],[7.12799,47.50349],[7.11613,47.49654],[7.11106,47.4949],[7.10117,47.49428],[7.09409,47.49542],[7.07928,47.48886],[7.07438,47.48834],[7.07199,47.48998],[7.07205,47.49205],[7.06081,47.49512],[7.05191,47.49503],[7.04388,47.49819],[7.03656,47.4975],[7.03624,47.499],[7.02739,47.50121],[7.02472,47.5041],[7.02102,47.50439],[7.00013,47.49979],[6.9858,47.49328],[6.98336,47.4942],[6.98251,47.4935],[6.98585,47.49225],[6.98869,47.48669],[6.98863,47.48137],[6.98642,47.47681],[6.9885,47.47304],[6.99229,47.47172],[6.99292,47.47052],[6.99101,47.46844],[6.99176,47.46642],[7.00047,47.46715],[6.99971,47.46533],[7.00114,47.46181],[6.99806,47.45936],[6.99752,47.45628],[7.00135,47.45598],[7.0019,47.45394],[6.99603,47.4498],[6.98906,47.44765],[6.98135,47.449],[6.97,47.44688],[6.96606,47.43745],[6.9631,47.4354],[6.95736,47.4336],[6.95444,47.43507],[6.94054,47.43337],[6.94167,47.4158],[6.93838,47.40602],[6.92066,47.40524],[6.91964,47.40654],[6.91446,47.40413],[6.91784,47.40328],[6.91545,47.39711],[6.90953,47.39617],[6.91124,47.39358],[6.91094,47.39166],[6.91367,47.38948],[6.91296,47.38735],[6.90483,47.38235],[6.89496,47.38166],[6.89559,47.37974],[6.8854,47.3746],[6.88348,47.37233],[6.88479,47.36674],[6.88329,47.36234],[6.87899,47.35769],[6.87927,47.35245],[6.88643,47.35334],[6.89383,47.35611],[6.89557,47.35861],[6.89933,47.35765],[6.90167,47.35936],[6.91571,47.35759],[6.9195,47.35536],[6.92426,47.35536],[6.93281,47.35839],[6.94255,47.35756],[6.95162,47.35972],[6.96053,47.35918],[6.9644,47.36034],[6.96485,47.35932],[6.96736,47.35923],[6.97029,47.36082],[6.97445,47.35984],[6.98325,47.36354],[6.99422,47.36306],[6.9981,47.36425],[7.00726,47.36807],[7.01164,47.37276],[7.01332,47.37143],[7.01556,47.37279],[7.02013,47.37035],[7.03378,47.36948],[7.03457,47.36337],[7.04324,47.36405],[7.04825,47.36218],[7.04972,47.36072],[7.05285,47.35141],[7.05024,47.34969],[7.04983,47.34775],[7.05561,47.34737],[7.06221,47.34416],[7.06052,47.34108],[7.05292,47.33688],[7.05343,47.3352],[7.05675,47.33457],[7.0462,47.32698],[7.04298,47.32648],[7.03375,47.32852],[7.03058,47.32702],[7.00973,47.32436],[7.00951,47.32035],[7.01336,47.32034],[7.01614,47.3136],[7.01353,47.30947],[7.01131,47.30844],[7.00918,47.30216],[7.00743,47.3009],[7.00372,47.30135],[6.99706,47.29585],[6.98838,47.29654],[6.98431,47.29542],[6.97722,47.29656],[6.97584,47.29581],[6.97622,47.2934],[6.97374,47.29134],[6.96829,47.29273],[6.96097,47.29154],[6.95356,47.29242],[6.94714,47.29087],[6.94088,47.28667],[6.94087,47.28509],[6.94528,47.28086],[6.94495,47.27929],[6.95171,47.27019],[6.95004,47.26553],[6.95148,47.26219],[6.95113,47.25972],[6.9464,47.25391],[6.94778,47.25003],[6.95541,47.24329],[6.94312,47.23814],[6.94073,47.23184],[6.93202,47.23062],[6.92747,47.22845],[6.92702,47.22558],[6.92361,47.22193],[6.91458,47.21846],[6.90949,47.21777],[6.90677,47.21459],[6.88004,47.20033],[6.87833,47.19575],[6.87372,47.18967],[6.87415,47.18546],[6.86807,47.18539],[6.86614,47.18448],[6.86364,47.17988],[6.84117,47.17126],[6.84236,47.16811],[6.84485,47.16638],[6.85438,47.16651],[6.85819,47.16543],[6.85835,47.16438],[6.85178,47.15927],[6.85017,47.15662],[6.84104,47.15405],[6.83947,47.15019],[6.83047,47.14613],[6.82857,47.14635],[6.82556,47.14263],[6.81892,47.13919],[6.81601,47.13588],[6.80758,47.13459],[6.80732,47.13217],[6.80571,47.13042],[6.80024,47.12879],[6.79709,47.12905],[6.79072,47.12623],[6.77914,47.12362],[6.77457,47.12095],[6.76569,47.12053],[6.75655,47.11692],[6.74645,47.10974],[6.74049,47.10947],[6.73992,47.10806],[6.74126,47.1044],[6.74568,47.10031],[6.74642,47.09808],[6.74337,47.09238],[6.74109,47.09106],[6.73141,47.08959],[6.72578,47.09178],[6.72263,47.08961],[6.71547,47.08835],[6.71032,47.08427],[6.70279,47.08158],[6.70362,47.08038],[6.70749,47.07938],[6.70515,47.07586],[6.70606,47.07393],[6.70301,47.07297],[6.70004,47.06966],[6.69369,47.0686],[6.69167,47.06651],[6.69458,47.06324],[6.69643,47.06335],[6.69906,47.06167],[6.70056,47.05909],[6.70451,47.05904],[6.70917,47.05719],[6.71106,47.05433],[6.71747,47.05229],[6.71861,47.05084],[6.71167,47.04814],[6.70889,47.04486],[6.70589,47.0443],[6.69663,47.0374],[6.68688,47.03745],[6.67543,47.03451],[6.65872,47.02657],[6.6536,47.02177],[6.646,47.0093],[6.64035,47.00276],[6.63237,46.99775],[6.61733,46.99164],[6.61049,46.99086],[6.59613,46.99252],[6.57614,46.98362],[6.56425,46.9796],[6.55311,46.97785],[6.53732,46.97356],[6.52369,46.97194],[6.50522,46.96585],[6.49669,46.97418],[6.47621,46.96033],[6.47023,46.95361],[6.46219,46.94723],[6.45999,46.94353],[6.44955,46.93602],[6.43267,46.9286],[6.43583,46.92156],[6.44107,46.91799],[6.4579,46.90086],[6.46458,46.89021],[6.46006,46.85168],[6.44263,46.83235],[6.43956,46.824],[6.44071,46.81584],[6.431,46.81241],[6.43483,46.80146],[6.45857,46.7885],[6.45162,46.77834],[6.45222,46.77413],[6.44853,46.77304],[6.43848,46.7666],[6.43795,46.76319],[6.43949,46.76261],[6.43018,46.75672],[6.42592,46.7548],[6.40359,46.74988],[6.40096,46.75074],[6.39507,46.74825],[6.38863,46.74352],[6.39137,46.74089],[6.39178,46.73836],[6.38964,46.73524],[6.38409,46.73103],[6.37036,46.73052],[6.3681,46.72924],[6.37151,46.72917],[6.37172,46.72412],[6.36694,46.72334],[6.36426,46.72163],[6.36024,46.72308],[6.35723,46.71963],[6.35392,46.71826],[6.35229,46.7148],[6.34911,46.71429],[6.34132,46.71005],[6.32768,46.70616],[6.32514,46.70643],[6.29735,46.6942],[6.28197,46.69063],[6.27937,46.68783],[6.2692,46.68261],[6.26888,46.67996],[6.2707,46.67877],[6.26788,46.67797],[6.26765,46.67653],[6.26146,46.67229],[6.23296,46.65453],[6.22799,46.64831],[6.21952,46.64513],[6.2169,46.64323],[6.21653,46.64158],[6.21308,46.64111],[6.20766,46.63571],[6.20553,46.63506],[6.20416,46.63601],[6.19994,46.63453],[6.20079,46.63374],[6.19437,46.62706],[6.19104,46.62537],[6.18916,46.62562],[6.18349,46.62135],[6.17959,46.61994],[6.17857,46.61548],[6.16525,46.61007],[6.16105,46.60985],[6.15406,46.60428],[6.1398,46.5976],[6.1261,46.58945],[6.12214,46.58427],[6.11162,46.5776],[6.11075,46.57631],[6.15645,46.54547],[6.14857,46.53934],[6.15348,46.53679],[6.14461,46.52839],[6.14351,46.52767],[6.13786,46.53088],[6.1127,46.50964],[6.09683,46.48121],[6.07655,46.46707],[6.07268,46.4657],[6.0741,46.46363],[6.07345,46.45982],[6.07687,46.45741],[6.07446,46.45367],[6.08439,46.44743],[6.08635,46.44372],[6.08584,46.441],[6.0752,46.43225],[6.07395,46.42819],[6.07013,46.42471],[6.06401,46.41623],[6.06058,46.41751],[6.05717,46.41631],[6.05349,46.41297],[6.04919,46.40608],[6.04443,46.40236],[6.0423,46.39865],[6.03742,46.39507],[6.03615,46.3916],[6.0282,46.38564],[6.01786,46.38089],[6.0146,46.37609],[6.00673,46.37319],[6.00558,46.37156],[6.0008,46.37023],[5.99088,46.36501],[5.98658,46.36488],[5.98354,46.36304],[5.97968,46.35407],[5.97556,46.35082],[5.97208,46.34557],[5.96999,46.34537],[5.96669,46.34264],[5.96433,46.33736],[5.9597,46.33426],[5.95747,46.3292],[5.95564,46.32894],[5.95368,46.32685],[5.9503,46.31988],[5.9477,46.31798],[5.94806,46.31662],[5.94398,46.31207],[5.942,46.3115],[5.94094,46.31005],[5.94136,46.30873],[5.92591,46.31377],[5.92344,46.31196],[5.92177,46.31223],[5.91711,46.30756],[5.91992,46.30684],[5.91524,46.29483],[5.91646,46.29371],[5.9092,46.28394],[5.90102,46.28618],[5.89997,46.28491],[5.89463,46.28661],[5.87836,46.26924],[5.86919,46.26497],[5.86783,46.26813],[5.86433,46.27121],[5.85307,46.26151],[5.84334,46.26281],[5.82128,46.26209],[5.80063,46.26502],[5.77727,46.26618],[5.76565,46.26829],[5.75102,46.26581],[5.74392,46.26657],[5.72518,46.26073],[5.7197,46.26428],[5.72064,46.26915],[5.71605,46.27991],[5.71449,46.28091],[5.7193,46.29346],[5.7184,46.29993],[5.7167,46.30192],[5.71472,46.30877],[5.70869,46.30985],[5.69275,46.30956],[5.68458,46.31092],[5.6837,46.31686],[5.68038,46.31875],[5.67552,46.31893],[5.66844,46.32437],[5.66217,46.32485],[5.65291,46.32322],[5.64443,46.3248],[5.64425,46.32629],[5.64629,46.32712],[5.6494,46.33077],[5.6498,46.33419],[5.64931,46.34096],[5.64314,46.34478],[5.63666,46.33489],[5.63051,46.33021],[5.61765,46.3291],[5.61324,46.3272],[5.61046,46.32422],[5.61091,46.31984],[5.60567,46.31363],[5.60752,46.31191],[5.60648,46.30987],[5.60238,46.30864],[5.60212,46.30532],[5.59913,46.29991],[5.5974,46.29717],[5.59354,46.29436],[5.5855,46.29256],[5.5784,46.29439],[5.57518,46.29263],[5.56753,46.29402],[5.56516,46.29345],[5.55944,46.28349],[5.5391,46.2688],[5.52796,46.26718],[5.52026,46.26415],[5.50912,46.26455],[5.50824,46.26629],[5.50599,46.26667],[5.50377,46.26872],[5.50479,46.27053],[5.50255,46.27109],[5.50131,46.26878],[5.49959,46.2682],[5.48797,46.26816],[5.47385,46.26428],[5.47221,46.26734],[5.46802,46.26889],[5.46918,46.27108],[5.46182,46.27163],[5.46183,46.27429],[5.45684,46.27448],[5.45911,46.28332],[5.45891,46.29071],[5.46258,46.28944],[5.46596,46.29182],[5.47077,46.3033],[5.4706,46.30596],[5.47386,46.30952],[5.4753,46.31539],[5.4689,46.317],[5.46692,46.32327],[5.46518,46.32354],[5.46447,46.32248],[5.45944,46.32316],[5.45686,46.31891],[5.45707,46.31706],[5.4443,46.31871],[5.44297,46.31686],[5.43783,46.3157],[5.43538,46.31954],[5.43092,46.33362],[5.4283,46.33563],[5.42474,46.34154],[5.42789,46.34212],[5.42366,46.34768],[5.41683,46.34526],[5.41707,46.33918],[5.41656,46.33599],[5.41542,46.33535],[5.41375,46.32535],[5.41353,46.31672],[5.41024,46.3091],[5.40465,46.31034],[5.40429,46.33282],[5.40169,46.33279],[5.40286,46.33722],[5.40142,46.33955],[5.39257,46.34065],[5.3873,46.34268],[5.38691,46.34387],[5.38058,46.34579],[5.37346,46.35224],[5.37705,46.36412],[5.36958,46.36661],[5.36986,46.36908],[5.36282,46.3699],[5.36378,46.37199],[5.37788,46.38223],[5.37147,46.3829],[5.3709,46.38678],[5.36882,46.38671],[5.3671,46.38869],[5.36342,46.38901],[5.36267,46.39425],[5.3599,46.39117],[5.35215,46.39341],[5.35347,46.39738],[5.34142,46.4018],[5.33803,46.40175],[5.33421,46.3974],[5.33105,46.39883],[5.33157,46.40013],[5.32901,46.40325],[5.32829,46.40206],[5.32608,46.40198],[5.31477,46.40948],[5.2988,46.41268],[5.29865,46.41584],[5.30242,46.417],[5.30699,46.41477],[5.3124,46.416],[5.30769,46.41682],[5.30718,46.41819],[5.30847,46.42054],[5.30656,46.42199],[5.30898,46.42453],[5.31248,46.42421],[5.31343,46.42566],[5.31578,46.42549],[5.31591,46.42655],[5.31995,46.42779],[5.32271,46.42728],[5.32447,46.42849],[5.32325,46.42983],[5.32065,46.43003],[5.31765,46.43353],[5.31738,46.438],[5.31432,46.44163],[5.3149,46.44513],[5.31056,46.44677],[5.3067,46.4452],[5.29067,46.44985],[5.28373,46.44558],[5.27304,46.44896],[5.27264,46.44991],[5.26619,46.45116],[5.25765,46.44985],[5.25626,46.45065],[5.25396,46.45616],[5.25104,46.45646],[5.24826,46.45811],[5.248,46.45937],[5.24146,46.46125],[5.23522,46.45785],[5.23312,46.46129],[5.22554,46.46827],[5.22183,46.46923],[5.21962,46.46815],[5.21506,46.46836],[5.21585,46.47446],[5.21338,46.47475],[5.21282,46.4776],[5.21028,46.47888],[5.21142,46.48065],[5.21428,46.48184],[5.21357,46.48451],[5.20591,46.48628],[5.20563,46.48836],[5.20728,46.48999],[5.20976,46.48987],[5.2104,46.49229],[5.20432,46.49442],[5.20334,46.49922],[5.19994,46.50385],[5.2035,46.50471],[5.20369,46.50601],[5.20186,46.50826],[5.19999,46.5075],[5.19382,46.50909],[5.18663,46.50878],[5.17749,46.51112],[5.17266,46.51345],[5.17184,46.51639],[5.16728,46.51907],[5.16597,46.51775],[5.16777,46.51208],[5.16548,46.50953],[5.16535,46.50697],[5.16718,46.50458],[5.16625,46.50312],[5.15677,46.50745],[5.1466,46.507],[5.13933,46.50945],[5.13507,46.50898],[5.13444,46.50548],[5.13546,46.50253],[5.13436,46.50148],[5.13123,46.50151],[5.12635,46.49911],[5.11817,46.4971],[5.11609,46.49607],[5.11455,46.49265],[5.10928,46.49147],[5.10049,46.4956],[5.09725,46.49996],[5.09212,46.49652],[5.0922,46.4951],[5.08877,46.49588],[5.08726,46.49187],[5.08556,46.49038],[5.07614,46.48853],[5.07668,46.48623],[5.06205,46.48556],[5.06212,46.4846],[5.05643,46.48393],[5.05237,46.48487],[5.0461,46.48971],[5.04065,46.49136],[5.02868,46.49201],[5.02596,46.49617],[5.02277,46.49643],[5.02047,46.49873],[5.01297,46.50129],[5.01197,46.5059],[5.00948,46.507],[5.01156,46.50965],[5.01059,46.51107],[5.0057,46.5097],[5.00137,46.51187],[4.99175,46.51236],[4.98355,46.51539],[4.97112,46.51447],[4.96266,46.51234],[4.96339,46.51123],[4.96963,46.50937],[4.97168,46.50725],[4.97035,46.50553],[4.96813,46.50526],[4.96505,46.50632],[4.96351,46.50816],[4.95977,46.50767],[4.95245,46.50329],[4.9528,46.50085],[4.95006,46.50081],[4.94751,46.50349],[4.94413,46.50501],[4.9442,46.51063],[4.94489,46.51138],[4.9521,46.51081],[4.95454,46.51269],[4.95227,46.51441],[4.94452,46.5144],[4.94219,46.51587],[4.94327,46.51891],[4.94125,46.51965],[4.94018,46.51784],[4.94047,46.51504],[4.94237,46.51302],[4.94088,46.51183],[4.9356,46.51423],[4.93359,46.51244],[4.92503,46.49621],[4.91556,46.48894],[4.91418,46.4839],[4.91605,46.46685],[4.91354,46.46074],[4.91111,46.45773],[4.8993,46.45012],[4.89354,46.44404],[4.89182,46.43991],[4.89131,46.42517],[4.89047,46.42512],[4.88799,46.41326],[4.88895,46.40607],[4.88821,46.40298],[4.88324,46.39796],[4.87384,46.38467],[4.85853,46.36802],[4.85146,46.35627],[4.85105,46.35234],[4.85265,46.34414],[4.85342,46.3299],[4.83321,46.30014],[4.82497,46.27315],[4.82033,46.26811],[4.81196,46.26186],[4.81099,46.25992],[4.81156,46.24993],[4.80776,46.23697],[4.79992,46.22877],[4.79495,46.21938],[4.79273,46.2075],[4.7932,46.20192],[4.78024,46.18905],[4.78021,46.17668],[4.77549,46.17709],[4.77089,46.17539],[4.76809,46.1768],[4.76422,46.17567],[4.76244,46.17625],[4.76081,46.17597],[4.75849,46.17206],[4.75164,46.17234],[4.74782,46.1753],[4.74129,46.17553],[4.72726,46.17912],[4.72955,46.18276],[4.7285,46.18404],[4.72438,46.1843],[4.72521,46.1886],[4.72166,46.1904],[4.72168,46.19385],[4.72006,46.19398],[4.72166,46.1993],[4.72068,46.20072],[4.72506,46.2044],[4.72627,46.2083],[4.73428,46.20642],[4.73568,46.2117],[4.72885,46.21405],[4.72925,46.21724],[4.73062,46.21897],[4.72042,46.22156],[4.72252,46.22633],[4.71953,46.22788],[4.7209,46.22947],[4.73238,46.22662],[4.73666,46.23247],[4.73577,46.23424],[4.73041,46.23612],[4.72442,46.24182],[4.72223,46.24057],[4.72133,46.24229],[4.72235,46.2433],[4.72077,46.24428],[4.71732,46.244],[4.70505,46.25123],[4.70338,46.25014],[4.70075,46.25069],[4.70132,46.25217],[4.69832,46.25293],[4.69324,46.24823],[4.68823,46.24933],[4.6885,46.25405],[4.68647,46.25494],[4.68373,46.25343],[4.68174,46.25549],[4.67905,46.25987],[4.68189,46.26489],[4.68158,46.26675],[4.68788,46.26531],[4.68914,46.26879],[4.69341,46.27172],[4.7007,46.26748],[4.70421,46.27116],[4.70769,46.26965],[4.70834,46.27605],[4.71039,46.27857],[4.70741,46.28173],[4.70762,46.2834],[4.70421,46.2827],[4.70344,46.28583],[4.70191,46.28636],[4.69847,46.29125],[4.69472,46.29205],[4.69257,46.2987],[4.69341,46.30142],[4.68879,46.30134],[4.683,46.30286],[4.68279,46.30399],[4.6792,46.30626],[4.67633,46.30461],[4.67616,46.30224],[4.67785,46.30054],[4.67392,46.29994],[4.67188,46.29782],[4.66625,46.29667],[4.66404,46.29501],[4.65915,46.29907],[4.65965,46.30019],[4.65273,46.30402],[4.6463,46.30178],[4.63682,46.30066],[4.63526,46.29929],[4.6351,46.297],[4.6367,46.29336],[4.63571,46.2915],[4.63624,46.29014],[4.62753,46.28842],[4.62381,46.28494],[4.61643,46.28216],[4.62059,46.27767],[4.62189,46.27138],[4.62122,46.26793],[4.61856,46.26479],[4.61243,46.26721],[4.60921,46.26629],[4.59995,46.26818],[4.59111,46.268],[4.58377,46.26949],[4.58348,46.27083],[4.57294,46.27592],[4.57213,46.28133],[4.57298,46.28654],[4.57159,46.29046],[4.56883,46.29385],[4.56025,46.29524],[4.55705,46.29361],[4.55605,46.29141],[4.55404,46.29155],[4.55256,46.29014],[4.55215,46.28807],[4.55323,46.28567],[4.5478,46.28501],[4.54779,46.28141],[4.54536,46.27772],[4.54645,46.27392],[4.53726,46.26991],[4.53237,46.26938],[4.52127,46.27067],[4.51784,46.26943],[4.5154,46.26993],[4.51272,46.26778],[4.504,46.26713],[4.50012,46.27243],[4.50082,46.27372],[4.49996,46.27508],[4.49239,46.28045],[4.48846,46.28799],[4.48455,46.28753],[4.47975,46.28424],[4.47591,46.28405],[4.46922,46.28728],[4.46722,46.29078],[4.45863,46.29693],[4.45767,46.29578],[4.45264,46.29659],[4.43876,46.29338],[4.43773,46.29538],[4.43808,46.29789],[4.42704,46.30282],[4.42506,46.29683],[4.42187,46.29495],[4.40581,46.29606],[4.40781,46.29238],[4.40542,46.29093],[4.40446,46.28798],[4.39754,46.28334],[4.39876,46.27783],[4.39636,46.27454],[4.39611,46.26877],[4.39708,46.26681],[4.39205,46.26302],[4.39253,46.26048],[4.38966,46.2585],[4.39239,46.25157],[4.38545,46.24684],[4.3864,46.24404],[4.39002,46.24216],[4.38995,46.24018],[4.39241,46.23542],[4.38728,46.23317],[4.38592,46.22604],[4.38699,46.22553],[4.38719,46.22048],[4.38971,46.21661],[4.38938,46.21329],[4.37511,46.21111],[4.37315,46.20917],[4.3735,46.20462],[4.37023,46.20382],[4.3671,46.20153],[4.36472,46.20176],[4.36283,46.20004],[4.36215,46.1956],[4.36558,46.1936],[4.36959,46.19344],[4.37163,46.19084],[4.37062,46.18982],[4.37394,46.18684],[4.37081,46.18432],[4.36627,46.18585],[4.36333,46.18203],[4.35866,46.18185],[4.35833,46.1832],[4.35438,46.18358],[4.35223,46.18664],[4.34567,46.18784],[4.33807,46.18406],[4.33661,46.18102],[4.32709,46.18479],[4.32614,46.1817],[4.31584,46.17274],[4.31531,46.17064],[4.30941,46.17228],[4.30696,46.17461],[4.29231,46.17248],[4.28899,46.17006],[4.29038,46.16896],[4.28728,46.16024],[4.28123,46.15594],[4.27732,46.15708],[4.2756,46.15607],[4.2695,46.15748],[4.24991,46.15818],[4.25046,46.16469],[4.24866,46.16711],[4.25274,46.16686],[4.25661,46.17004],[4.25728,46.17277],[4.26352,46.17536],[4.25768,46.18212],[4.25811,46.18365],[4.25561,46.18584],[4.25491,46.18801],[4.25221,46.18694],[4.24236,46.18883],[4.24085,46.18637],[4.2416,46.18545],[4.23673,46.18365],[4.23687,46.18175],[4.23167,46.17941],[4.22469,46.178],[4.21956,46.1851],[4.21669,46.18655],[4.20791,46.19484],[4.19713,46.19258],[4.19177,46.18921],[4.18806,46.18841],[4.18524,46.1894],[4.18318,46.18597],[4.18436,46.1846],[4.18411,46.18096],[4.18644,46.17903],[4.18844,46.17513],[4.18701,46.17457],[4.16434,46.17296],[4.13339,46.17732],[4.13228,46.17861],[4.13324,46.18052],[4.12536,46.18334],[4.1228,46.18613],[4.11538,46.19097],[4.11165,46.19197],[4.10383,46.19844],[4.09688,46.19581],[4.09464,46.19282],[4.0748,46.19016],[4.07087,46.18698],[4.06845,46.18639],[4.06284,46.18912],[4.05886,46.18806],[4.05163,46.18124],[4.04445,46.17879],[4.04105,46.17592],[4.03346,46.17369],[4.03089,46.17189],[4.0305,46.16977],[4.02751,46.16941],[4.0184,46.17239],[4.00267,46.17041],[3.99348,46.17288],[3.99012,46.16911],[3.98586,46.17133],[3.98388,46.17428],[3.98397,46.17734],[3.97972,46.17817],[3.97814,46.18602],[3.97278,46.18682],[3.97097,46.18915],[3.97317,46.19091],[3.97255,46.20271],[3.96517,46.20286],[3.96462,46.20179],[3.95731,46.20454],[3.9566,46.20379],[3.94277,46.2062],[3.93352,46.20642],[3.91837,46.20285],[3.91356,46.20692],[3.90124,46.21056],[3.8983,46.21024],[3.89013,46.21449],[3.89364,46.21691],[3.89443,46.22203],[3.89809,46.22518],[3.89804,46.22854],[3.8963,46.23285],[3.89765,46.23963],[3.89885,46.2406],[3.90487,46.23786],[3.90785,46.24237],[3.90664,46.24314],[3.90669,46.24472],[3.90969,46.24778],[3.90548,46.25207],[3.9094,46.25773],[3.90865,46.26089],[3.90676,46.26083],[3.90612,46.26335],[3.90724,46.26379],[3.90732,46.26667],[3.90605,46.26786],[3.90473,46.27354],[3.90176,46.27646],[3.89953,46.27591],[3.89324,46.28036],[3.89124,46.28525],[3.8945,46.2879],[3.89807,46.2878],[3.89927,46.28918],[3.89722,46.29246],[3.90772,46.29429],[3.91357,46.29668],[3.93133,46.29585],[3.94543,46.30046],[3.94786,46.30366],[3.94945,46.31386],[3.94578,46.32124],[3.9589,46.31881],[3.96859,46.32177],[3.97143,46.32151],[3.97748,46.31931],[3.98402,46.31872],[3.98734,46.31485],[3.98981,46.31508],[3.98789,46.32037],[3.98941,46.32296],[3.9938,46.32222],[3.99741,46.32329],[4.00457,46.32748],[4.00178,46.32836],[3.98915,46.32711],[3.98682,46.32768],[3.98474,46.32973],[3.98596,46.3379],[3.98921,46.34424],[3.98765,46.34661],[3.98739,46.35075],[3.98939,46.35873],[3.98868,46.36094],[3.99161,46.36963],[3.98842,46.37593],[3.98426,46.37829],[3.98304,46.3806],[3.97722,46.39922],[3.98606,46.40525],[3.9887,46.40877],[3.98814,46.41179],[3.98445,46.41666],[3.98408,46.41963],[3.98662,46.42172],[3.99265,46.4233],[3.99531,46.4251],[3.9961,46.42738],[3.9946,46.42943],[3.99022,46.43106],[3.98814,46.43546],[3.98945,46.43782],[3.9945,46.43985],[4.00043,46.43915],[4.00554,46.44246],[4.00557,46.44353],[3.99745,46.45026],[3.9976,46.45328],[4.00154,46.45862],[4.00081,46.46245],[3.99886,46.46487],[3.98991,46.46995],[3.97915,46.47388],[3.97717,46.47539],[3.97683,46.47895],[3.97229,46.47947],[3.95501,46.47693],[3.95233,46.47849],[3.95208,46.48142],[3.95715,46.48711],[3.95813,46.49059],[3.95572,46.49168],[3.94961,46.49248],[3.93758,46.49076],[3.92811,46.49215],[3.91897,46.49606],[3.91016,46.49538],[3.90135,46.49064],[3.89699,46.48147],[3.89521,46.48069],[3.89047,46.48125],[3.87824,46.48668],[3.86994,46.48773],[3.86491,46.48974],[3.86178,46.49207],[3.86039,46.4956],[3.86129,46.50252],[3.86463,46.50972],[3.8638,46.51274],[3.86002,46.51523],[3.85717,46.51558],[3.84947,46.51303],[3.84187,46.51421],[3.83976,46.51756],[3.84647,46.52436],[3.84263,46.52954],[3.83916,46.53129],[3.83584,46.53161],[3.82505,46.52796],[3.81767,46.52523],[3.81135,46.52014],[3.80513,46.51932],[3.80176,46.5199],[3.79638,46.52591],[3.79324,46.52779],[3.78067,46.52836],[3.7774,46.53276],[3.77762,46.53618],[3.77253,46.5385],[3.76746,46.53901],[3.76244,46.53705],[3.75467,46.53602],[3.747,46.53729],[3.74185,46.53951],[3.7347,46.54545],[3.73154,46.54958],[3.73361,46.55387],[3.74065,46.55905],[3.7431,46.5655],[3.73805,46.58706],[3.73389,46.59512],[3.73706,46.59923],[3.73732,46.60157],[3.73599,46.60337],[3.73238,46.60491],[3.71972,46.60502],[3.71412,46.60841],[3.71286,46.61023],[3.71388,46.614],[3.72303,46.62207],[3.72399,46.62633],[3.70919,46.63533],[3.70324,46.64796],[3.69991,46.65056],[3.69883,46.65723],[3.69695,46.66058],[3.68826,46.66545],[3.67076,46.67173],[3.66898,46.67351],[3.66877,46.67531],[3.67315,46.68184],[3.67029,46.68403],[3.65783,46.68516],[3.65547,46.68775],[3.65066,46.70517],[3.63964,46.7062],[3.63764,46.70748],[3.63759,46.72453],[3.63534,46.72852],[3.62512,46.73597],[3.6226,46.74013],[3.62403,46.7425],[3.62882,46.746],[3.62942,46.74946]]]}}]}