{"type":"FeatureCollection","features":[{"type":"Feature","properties":{"reg_name":"Slovenia"},"geometry":{"type":"Polygon","coordinates":[[[13.37547,46.2977],[13.37764,46.29139],[13.38001,46.28894],[13.38655,46.29071],[13.38827,46.28562],[13.39242,46.28244],[13.39172,46.27857],[13.39292,46.27388],[13.39255,46.26985],[13.39471,46.26871],[13.3949,46.26725],[13.39358,46.26599],[13.39647,46.26191],[13.39583,46.26018],[13.39756,46.25939],[13.39649,46.25866],[13.39823,46.25714],[13.39735,46.25628],[13.39842,46.25349],[13.40187,46.25231],[13.40565,46.24384],[13.40999,46.24001],[13.41668,46.23799],[13.42286,46.23453],[13.4213,46.23316],[13.42232,46.2311],[13.41788,46.22844],[13.41451,46.22874],[13.41135,46.22738],[13.41666,46.22271],[13.41507,46.21869],[13.41056,46.21733],[13.40911,46.21554],[13.41188,46.21266],[13.41072,46.21236],[13.41144,46.2118],[13.42245,46.20855],[13.43008,46.2089],[13.43592,46.21141],[13.44626,46.21273],[13.44823,46.21625],[13.44404,46.22543],[13.44601,46.22578],[13.45684,46.22612],[13.46542,46.22359],[13.47298,46.22525],[13.48488,46.22446],[13.49693,46.22185],[13.49933,46.21924],[13.49718,46.2175],[13.5026,46.21567],[13.51562,46.21495],[13.52189,46.21784],[13.52907,46.2189],[13.52947,46.21217],[13.53891,46.21355],[13.54546,46.21224],[13.56192,46.20422],[13.5614,46.19914],[13.56608,46.19505],[13.56503,46.18838],[13.56541,46.18658],[13.56699,46.18576],[13.56993,46.18725],[13.57135,46.18708],[13.57108,46.18556],[13.57304,46.18422],[13.57575,46.18603],[13.57789,46.18536],[13.58618,46.19064],[13.58716,46.18898],[13.59208,46.1931],[13.5936,46.192],[13.58985,46.18828],[13.61272,46.18929],[13.61385,46.18706],[13.61155,46.18552],[13.61458,46.18433],[13.63361,46.19178],[13.65531,46.186],[13.65949,46.18364],[13.66424,46.17797],[13.66668,46.17404],[13.66546,46.17336],[13.66572,46.17205],[13.66224,46.16768],[13.65366,46.16134],[13.6535,46.15866],[13.65589,46.15485],[13.65461,46.15401],[13.65479,46.15147],[13.64935,46.14297],[13.64395,46.13721],[13.63906,46.13428],[13.63459,46.13483],[13.63004,46.13183],[13.63027,46.13072],[13.62864,46.12913],[13.62651,46.1288],[13.62382,46.12409],[13.61898,46.12092],[13.61661,46.12092],[13.61233,46.11869],[13.61169,46.11655],[13.60738,46.11617],[13.60525,46.11416],[13.6013,46.11274],[13.60201,46.11107],[13.59982,46.11007],[13.60016,46.10817],[13.59648,46.10687],[13.59636,46.10455],[13.5906,46.10277],[13.58763,46.10029],[13.58315,46.10053],[13.58272,46.09876],[13.58003,46.09811],[13.57876,46.09563],[13.57662,46.09455],[13.57659,46.09303],[13.5739,46.09117],[13.57277,46.08846],[13.56953,46.08921],[13.56652,46.08734],[13.56201,46.08752],[13.56026,46.08555],[13.55418,46.08381],[13.5515,46.08452],[13.55034,46.08185],[13.54454,46.08309],[13.54297,46.08191],[13.54345,46.07916],[13.54249,46.07714],[13.53868,46.07647],[13.53776,46.07449],[13.53418,46.07282],[13.53345,46.06941],[13.5297,46.07017],[13.53017,46.06655],[13.52544,46.06747],[13.51597,46.06231],[13.50913,46.06267],[13.50685,46.06045],[13.50425,46.06263],[13.50268,46.06254],[13.49957,46.05917],[13.49651,46.0585],[13.49788,46.05158],[13.49694,46.05134],[13.49632,46.04831],[13.50849,46.04595],[13.50807,46.0433],[13.51015,46.04212],[13.50865,46.03495],[13.50481,46.03048],[13.50431,46.0268],[13.49931,46.0215],[13.49693,46.01647],[13.49442,46.01461],[13.48901,46.01488],[13.48498,46.0126],[13.47962,46.01152],[13.48096,46.00961],[13.47747,46.00793],[13.47616,46.00608],[13.47982,46.00264],[13.48595,45.99956],[13.48833,45.99612],[13.48836,45.99408],[13.50163,45.98046],[13.51375,45.97988],[13.51768,45.9749],[13.52137,45.97301],[13.52639,45.97267],[13.52805,45.96707],[13.53059,45.96625],[13.54227,45.96481],[13.54569,45.96573],[13.54815,45.97002],[13.55166,45.97054],[13.56851,45.96872],[13.56912,45.97052],[13.57571,45.97669],[13.57763,45.98317],[13.58556,45.98666],[13.58458,45.98839],[13.58895,45.98867],[13.59076,45.99009],[13.60328,45.98748],[13.60848,45.98426],[13.61533,45.98536],[13.61514,45.98428],[13.61842,45.98322],[13.62851,45.98729],[13.63054,45.98714],[13.63356,45.98913],[13.64298,45.98289],[13.63936,45.97945],[13.64069,45.97001],[13.63796,45.96931],[13.63824,45.96515],[13.63286,45.94927],[13.638,45.93517],[13.6309,45.92981],[13.62669,45.92449],[13.62682,45.92212],[13.62454,45.92018],[13.62259,45.92101],[13.61798,45.91561],[13.61567,45.90772],[13.61311,45.90686],[13.60892,45.89921],[13.5961,45.89502],[13.59565,45.89147],[13.59305,45.89141],[13.59355,45.89034],[13.5865,45.88192],[13.58666,45.88071],[13.59326,45.87468],[13.58725,45.87129],[13.58411,45.86743],[13.57986,45.85643],[13.57517,45.8535],[13.57673,45.85098],[13.57508,45.84539],[13.57666,45.84334],[13.57445,45.84336],[13.5746,45.84234],[13.58856,45.83535],[13.59232,45.82361],[13.59717,45.81962],[13.59625,45.81154],[13.59728,45.81074],[13.5962,45.81059],[13.59587,45.80812],[13.60412,45.804],[13.61123,45.80264],[13.61441,45.80306],[13.61947,45.80073],[13.62375,45.80016],[13.62406,45.79605],[13.63747,45.80137],[13.63766,45.79815],[13.65808,45.80036],[13.66936,45.7997],[13.6746,45.79064],[13.67592,45.79256],[13.67929,45.79424],[13.69699,45.78292],[13.70068,45.77928],[13.71,45.77404],[13.72998,45.76646],[13.73514,45.76346],[13.73739,45.76182],[13.7335,45.76105],[13.73555,45.75958],[13.7385,45.7597],[13.7399,45.758],[13.74594,45.7553],[13.76228,45.75623],[13.76555,45.75264],[13.76557,45.75089],[13.77454,45.74884],[13.78425,45.7483],[13.79441,45.74409],[13.79971,45.74038],[13.80501,45.72967],[13.81078,45.72327],[13.82631,45.71471],[13.83392,45.70718],[13.83436,45.70166],[13.83592,45.69794],[13.83218,45.69574],[13.83123,45.6929],[13.83364,45.68709],[13.84515,45.68074],[13.85765,45.66586],[13.87124,45.6561],[13.89305,45.64503],[13.90314,45.64255],[13.91866,45.63352],[13.9183,45.6312],[13.91341,45.62951],[13.9011,45.62221],[13.89432,45.62021],[13.88975,45.61652],[13.87837,45.61129],[13.86905,45.60934],[13.86798,45.60162],[13.86538,45.59639],[13.8602,45.59541],[13.85339,45.59215],[13.85317,45.5908],[13.85065,45.58906],[13.85112,45.58469],[13.84867,45.58508],[13.83905,45.58227],[13.81011,45.5809],[13.80105,45.58153],[13.79851,45.58273],[13.79589,45.58199],[13.7871,45.58284],[13.78097,45.584],[13.76862,45.58904],[13.76839,45.59015],[13.76488,45.59013],[13.74692,45.59792],[13.73364,45.59543],[13.7321,45.59617],[13.73021,45.59524],[13.71872,45.59472],[13.71205,45.59888],[13.62873,45.63154],[13.38444,45.56594],[13.52381,45.51158],[13.58565,45.47855],[13.6012,45.46762],[13.60902,45.4648],[13.62064,45.46391],[13.62424,45.4625],[13.62791,45.46252],[13.63016,45.46109],[13.64362,45.45895],[13.65038,45.45644],[13.65137,45.45417],[13.65467,45.45243],[13.66172,45.45181],[13.66445,45.4472],[13.6709,45.44582],[13.67532,45.44257],[13.67769,45.4433],[13.67666,45.44475],[13.67992,45.44407],[13.68514,45.44603],[13.6852,45.44725],[13.69207,45.45],[13.69717,45.45425],[13.70139,45.45427],[13.70348,45.45543],[13.70286,45.45651],[13.70378,45.45701],[13.70823,45.45711],[13.70859,45.45596],[13.70663,45.45552],[13.70805,45.45249],[13.7233,45.45624],[13.72511,45.45565],[13.72439,45.45899],[13.72651,45.45992],[13.73129,45.45884],[13.74063,45.46146],[13.75111,45.46054],[13.75906,45.46225],[13.7664,45.46737],[13.76969,45.46506],[13.77347,45.46571],[13.77655,45.46395],[13.78079,45.46663],[13.78323,45.4657],[13.78643,45.46646],[13.79796,45.46269],[13.80745,45.45692],[13.80805,45.45498],[13.80499,45.45184],[13.80509,45.44609],[13.80294,45.44438],[13.81424,45.44114],[13.8147,45.43417],[13.82652,45.43543],[13.83918,45.43469],[13.85108,45.43243],[13.85118,45.431],[13.85536,45.4284],[13.85444,45.42562],[13.85856,45.42604],[13.86182,45.42783],[13.8638,45.42625],[13.86442,45.42733],[13.87691,45.42677],[13.8777,45.42509],[13.87847,45.42529],[13.87787,45.42673],[13.88711,45.4258],[13.88714,45.42982],[13.89285,45.43784],[13.89796,45.43826],[13.89753,45.44176],[13.90577,45.44561],[13.90992,45.44942],[13.90876,45.45114],[13.91464,45.45354],[13.92384,45.45219],[13.92591,45.45257],[13.92569,45.45391],[13.94421,45.45421],[13.94659,45.45652],[13.957,45.45555],[13.97073,45.44762],[13.97335,45.45072],[13.98493,45.45607],[13.98543,45.45844],[13.98712,45.45901],[13.98529,45.46163],[13.9868,45.46491],[13.98518,45.46862],[13.9879,45.47039],[13.99024,45.47],[13.99657,45.4722],[13.98621,45.48243],[13.99231,45.48246],[13.98163,45.49137],[13.97204,45.49553],[13.96563,45.4962],[13.96221,45.50599],[13.96636,45.5087],[13.96872,45.51225],[13.97458,45.51507],[13.97831,45.5148],[13.98156,45.51209],[13.98746,45.50965],[14.00175,45.50807],[13.99749,45.51398],[13.99742,45.51553],[14.00192,45.51998],[14.0111,45.51977],[14.02671,45.51116],[14.03023,45.50689],[14.0422,45.49888],[14.04366,45.49811],[14.0495,45.49855],[14.0565,45.49362],[14.05919,45.49383],[14.07311,45.48459],[14.0915,45.48192],[14.11179,45.48231],[14.11819,45.48124],[14.13654,45.47503],[14.14322,45.47504],[14.15036,45.48013],[14.15399,45.48105],[14.17294,45.47959],[14.20768,45.46923],[14.20654,45.47847],[14.20928,45.47979],[14.20629,45.48207],[14.21046,45.48903],[14.21219,45.48851],[14.21428,45.49255],[14.21996,45.49336],[14.22208,45.49652],[14.22333,45.50138],[14.23062,45.50472],[14.23726,45.50579],[14.24498,45.50538],[14.24952,45.49922],[14.24964,45.49744],[14.25504,45.49487],[14.26458,45.48269],[14.26793,45.48227],[14.27606,45.48929],[14.27986,45.49042],[14.28275,45.48945],[14.28643,45.49035],[14.29102,45.48491],[14.30598,45.48019],[14.31663,45.48297],[14.31999,45.47291],[14.32277,45.47041],[14.32824,45.47223],[14.33839,45.47958],[14.34207,45.4803],[14.34652,45.48404],[14.35034,45.48555],[14.36086,45.48404],[14.36204,45.48517],[14.36313,45.48457],[14.37896,45.48805],[14.387,45.49357],[14.39092,45.4946],[14.39434,45.49405],[14.40021,45.50077],[14.39842,45.50287],[14.40383,45.50482],[14.40785,45.50471],[14.41465,45.50798],[14.41552,45.50994],[14.4215,45.50901],[14.42248,45.50981],[14.42655,45.50851],[14.42755,45.50685],[14.43265,45.50971],[14.43577,45.50933],[14.43563,45.51034],[14.43744,45.51101],[14.44169,45.51646],[14.4553,45.51997],[14.46826,45.52779],[14.47566,45.53377],[14.4907,45.53796],[14.4964,45.54673],[14.50049,45.54919],[14.49785,45.5517],[14.49938,45.5527],[14.49809,45.55557],[14.49864,45.55802],[14.49741,45.55945],[14.49787,45.56482],[14.50068,45.56713],[14.49943,45.57141],[14.5005,45.57233],[14.49907,45.57567],[14.50029,45.57613],[14.50031,45.57758],[14.50179,45.57735],[14.50112,45.57902],[14.50527,45.58223],[14.50515,45.58463],[14.50729,45.58919],[14.50704,45.59429],[14.50134,45.60783],[14.51436,45.60712],[14.51766,45.60966],[14.52634,45.6102],[14.53502,45.61391],[14.54547,45.62425],[14.54519,45.62523],[14.54822,45.62778],[14.54971,45.63273],[14.55425,45.63672],[14.55479,45.63843],[14.55808,45.64038],[14.56088,45.64596],[14.56333,45.64714],[14.56328,45.64863],[14.56667,45.65327],[14.56652,45.65569],[14.56789,45.65688],[14.5683,45.66191],[14.56723,45.66257],[14.56816,45.66315],[14.56838,45.66783],[14.56939,45.66733],[14.56889,45.67083],[14.57062,45.6729],[14.57511,45.67206],[14.57684,45.66823],[14.57804,45.67034],[14.5787,45.66978],[14.57828,45.66716],[14.57985,45.66612],[14.57845,45.66531],[14.58336,45.66466],[14.58605,45.66654],[14.5884,45.66598],[14.5923,45.66786],[14.59444,45.66754],[14.59704,45.66954],[14.59894,45.66634],[14.60063,45.66623],[14.60097,45.66728],[14.60424,45.66624],[14.60477,45.66447],[14.606,45.66424],[14.60601,45.66587],[14.60792,45.6642],[14.60587,45.66265],[14.60732,45.66133],[14.60666,45.65955],[14.60808,45.66012],[14.60971,45.65868],[14.60785,45.65758],[14.60485,45.6465],[14.60134,45.64367],[14.60194,45.6341],[14.59573,45.62708],[14.59854,45.62633],[14.60492,45.62194],[14.6083,45.62135],[14.60937,45.61908],[14.61296,45.61677],[14.61892,45.61646],[14.62299,45.61334],[14.62732,45.61422],[14.62734,45.61107],[14.63013,45.60807],[14.62958,45.6072],[14.63081,45.60466],[14.63367,45.60291],[14.6379,45.60438],[14.63948,45.60396],[14.63948,45.60272],[14.64143,45.60287],[14.64046,45.60103],[14.64334,45.60076],[14.6481,45.59644],[14.65116,45.5919],[14.66454,45.58944],[14.6673,45.59019],[14.66916,45.58919],[14.67174,45.59015],[14.67765,45.58955],[14.68077,45.58792],[14.68112,45.58599],[14.68404,45.58514],[14.68373,45.58299],[14.69032,45.58068],[14.69046,45.57834],[14.69307,45.57696],[14.69379,45.5711],[14.69681,45.56998],[14.69811,45.56806],[14.69741,45.56657],[14.69853,45.56399],[14.70027,45.56287],[14.69846,45.56181],[14.69543,45.55575],[14.69071,45.55558],[14.68888,45.55298],[14.69081,45.55086],[14.69095,45.54875],[14.68737,45.5456],[14.68887,45.54374],[14.68732,45.54172],[14.68855,45.53961],[14.68503,45.53505],[14.68639,45.53083],[14.69058,45.52662],[14.69314,45.52781],[14.69532,45.52631],[14.70035,45.52536],[14.70248,45.52763],[14.70139,45.53252],[14.70331,45.53453],[14.70751,45.53482],[14.71102,45.53308],[14.7134,45.53471],[14.71557,45.53334],[14.72117,45.53423],[14.73113,45.52883],[14.73578,45.52977],[14.73838,45.52428],[14.75581,45.51493],[14.75926,45.51055],[14.76908,45.51229],[14.76908,45.51081],[14.76666,45.50835],[14.76819,45.50606],[14.77226,45.50755],[14.78561,45.50683],[14.78908,45.50328],[14.78659,45.5011],[14.78916,45.50008],[14.7959,45.50314],[14.79984,45.49925],[14.80038,45.49735],[14.80359,45.49558],[14.79905,45.49168],[14.80045,45.48922],[14.80529,45.48638],[14.80615,45.48135],[14.80498,45.47883],[14.81595,45.47147],[14.81576,45.4659],[14.8169,45.46029],[14.81793,45.45947],[14.84439,45.46218],[14.85576,45.46457],[14.86022,45.4667],[14.86904,45.46605],[14.8719,45.46791],[14.87477,45.47216],[14.88075,45.47235],[14.89253,45.47634],[14.90251,45.4754],[14.90869,45.47774],[14.91178,45.48201],[14.91046,45.48658],[14.91081,45.49046],[14.91349,45.49153],[14.91577,45.49438],[14.91192,45.49835],[14.91169,45.50074],[14.91663,45.50402],[14.91296,45.51095],[14.91358,45.51884],[14.91917,45.52233],[14.92118,45.52769],[14.93151,45.52929],[14.94397,45.52342],[14.9629,45.51112],[14.96761,45.51019],[14.97917,45.49975],[14.98768,45.49643],[15.01297,45.49729],[15.01652,45.49315],[15.02347,45.49039],[15.02479,45.48681],[15.02732,45.48568],[15.0424,45.48797],[15.04589,45.4901],[15.04812,45.49358],[15.05455,45.49432],[15.0567,45.49326],[15.05876,45.48937],[15.06061,45.48809],[15.07117,45.48763],[15.07804,45.48243],[15.08578,45.48317],[15.08668,45.48194],[15.08404,45.47669],[15.08534,45.46757],[15.09394,45.46381],[15.10452,45.46241],[15.11208,45.45529],[15.12436,45.44657],[15.13873,45.4442],[15.14112,45.43978],[15.14523,45.43592],[15.14682,45.4312],[15.15409,45.42625],[15.16637,45.42216],[15.17229,45.42327],[15.17765,45.42148],[15.18931,45.42809],[15.19017,45.4293],[15.18893,45.43382],[15.19357,45.43654],[15.19572,45.43561],[15.20087,45.42773],[15.20305,45.42644],[15.21004,45.42523],[15.22145,45.42558],[15.22579,45.42672],[15.22833,45.43077],[15.22841,45.4366],[15.24367,45.45315],[15.24959,45.45638],[15.26565,45.46164],[15.2729,45.46586],[15.27746,45.46587],[15.29745,45.45912],[15.31931,45.45608],[15.32712,45.45266],[15.3386,45.4569],[15.34552,45.4563],[15.3497,45.46483],[15.35462,45.46844],[15.35645,45.47329],[15.36003,45.47723],[15.37597,45.48419],[15.38579,45.4867],[15.3853,45.48915],[15.38048,45.49018],[15.37753,45.49258],[15.37338,45.49379],[15.37071,45.49763],[15.36449,45.49467],[15.36219,45.49497],[15.35279,45.50196],[15.33248,45.51036],[15.32755,45.5146],[15.32581,45.52018],[15.31537,45.52258],[15.31343,45.5259],[15.31386,45.53197],[15.30603,45.53226],[15.30199,45.53562],[15.30085,45.53794],[15.30134,45.54258],[15.29885,45.54777],[15.29963,45.55701],[15.29817,45.56501],[15.30014,45.5767],[15.29911,45.58347],[15.2928,45.59022],[15.28483,45.59509],[15.27696,45.60434],[15.28144,45.60775],[15.29268,45.61244],[15.30455,45.61245],[15.30808,45.6138],[15.3063,45.61871],[15.30162,45.62322],[15.3026,45.62678],[15.30159,45.62949],[15.3048,45.63173],[15.32882,45.63514],[15.34003,45.63315],[15.35079,45.63673],[15.35234,45.63828],[15.35125,45.64024],[15.34455,45.64101],[15.34223,45.6427],[15.34204,45.64442],[15.34373,45.64598],[15.35227,45.64673],[15.36461,45.6442],[15.37086,45.64598],[15.37214,45.64496],[15.37169,45.6428],[15.37317,45.64182],[15.38252,45.64079],[15.38556,45.63839],[15.39004,45.63751],[15.39866,45.6415],[15.40181,45.64584],[15.40654,45.64778],[15.40627,45.64989],[15.39923,45.65084],[15.39531,45.65357],[15.39465,45.66109],[15.39115,45.66323],[15.39164,45.66728],[15.38946,45.66732],[15.38674,45.67048],[15.38451,45.67104],[15.38465,45.67347],[15.3835,45.67483],[15.37699,45.67671],[15.37535,45.68083],[15.37031,45.68525],[15.36868,45.68545],[15.36995,45.69045],[15.37197,45.69146],[15.36922,45.69338],[15.3678,45.6912],[15.36878,45.69016],[15.36649,45.68863],[15.36666,45.68699],[15.36503,45.6865],[15.36329,45.68373],[15.3629,45.67806],[15.35988,45.67567],[15.35986,45.67746],[15.35736,45.67692],[15.35836,45.67527],[15.35389,45.67654],[15.35545,45.67343],[15.35127,45.6711],[15.35135,45.66923],[15.34958,45.66946],[15.34814,45.67114],[15.34957,45.6759],[15.34804,45.67793],[15.35011,45.67867],[15.34957,45.68058],[15.35148,45.6828],[15.35009,45.68332],[15.35545,45.68565],[15.3553,45.68653],[15.35571,45.68556],[15.36024,45.68488],[15.36134,45.68653],[15.36112,45.68928],[15.36447,45.69297],[15.36381,45.69454],[15.36484,45.69701],[15.36355,45.69857],[15.36243,45.69927],[15.35935,45.69741],[15.35732,45.69891],[15.35874,45.70145],[15.35736,45.70255],[15.35995,45.70878],[15.35976,45.7107],[15.35711,45.71397],[15.35021,45.71445],[15.34501,45.71238],[15.3433,45.71458],[15.33976,45.71456],[15.33625,45.7103],[15.3373,45.70894],[15.335,45.7084],[15.33537,45.70524],[15.33259,45.70191],[15.31873,45.69522],[15.31891,45.69173],[15.32068,45.68887],[15.3203,45.68667],[15.32378,45.68319],[15.32608,45.67695],[15.32601,45.67537],[15.32279,45.67385],[15.31816,45.67444],[15.31754,45.67833],[15.31103,45.68412],[15.3108,45.68625],[15.30844,45.68589],[15.30818,45.6874],[15.30565,45.68878],[15.30882,45.69013],[15.30897,45.69421],[15.31091,45.6976],[15.30861,45.69866],[15.3076,45.69705],[15.30585,45.69716],[15.30462,45.69778],[15.30493,45.6989],[15.30223,45.69902],[15.30151,45.6974],[15.2991,45.69722],[15.30037,45.69345],[15.29862,45.69422],[15.29971,45.69255],[15.29833,45.69413],[15.29766,45.69368],[15.30044,45.69176],[15.29761,45.69026],[15.29732,45.69164],[15.29819,45.6917],[15.29733,45.69341],[15.29637,45.68977],[15.29966,45.68877],[15.30051,45.68701],[15.30275,45.68797],[15.29975,45.68602],[15.29284,45.69143],[15.28816,45.69243],[15.28715,45.69808],[15.28921,45.70073],[15.28779,45.70566],[15.28375,45.71008],[15.28112,45.71069],[15.27352,45.70625],[15.26951,45.70727],[15.26682,45.71434],[15.2674,45.71695],[15.26348,45.71785],[15.26202,45.71945],[15.25675,45.71884],[15.2593,45.7242],[15.25752,45.72453],[15.27553,45.73703],[15.27478,45.74005],[15.27847,45.73938],[15.27847,45.74203],[15.28011,45.74328],[15.28415,45.74386],[15.28531,45.74536],[15.29015,45.74552],[15.29487,45.74772],[15.29594,45.74963],[15.29527,45.7509],[15.29996,45.75429],[15.30729,45.75479],[15.31642,45.75969],[15.32383,45.76023],[15.33194,45.76302],[15.34191,45.7684],[15.35023,45.77131],[15.35172,45.77286],[15.35971,45.77371],[15.36165,45.77679],[15.36837,45.77607],[15.37172,45.77742],[15.37445,45.78077],[15.38196,45.77915],[15.39039,45.78707],[15.39945,45.79206],[15.40443,45.79271],[15.40796,45.79119],[15.41259,45.79509],[15.41824,45.79459],[15.42214,45.79628],[15.42715,45.7948],[15.43383,45.79536],[15.43721,45.7939],[15.43978,45.79541],[15.44504,45.79583],[15.44962,45.79477],[15.45789,45.795],[15.46263,45.79354],[15.46997,45.79535],[15.47592,45.79805],[15.47102,45.80383],[15.46992,45.80814],[15.47076,45.81125],[15.46798,45.81361],[15.46592,45.81839],[15.47116,45.81729],[15.47839,45.81944],[15.47744,45.8231],[15.4789,45.82749],[15.49274,45.83202],[15.49614,45.82929],[15.50291,45.82855],[15.50125,45.82202],[15.50744,45.82213],[15.51065,45.82082],[15.5143,45.82304],[15.52018,45.8211],[15.52234,45.82304],[15.52801,45.82379],[15.5326,45.82801],[15.53613,45.82928],[15.53542,45.83203],[15.53927,45.83616],[15.53738,45.84382],[15.53855,45.8476],[15.55102,45.84545],[15.55227,45.84014],[15.5578,45.83692],[15.55938,45.83427],[15.56217,45.83818],[15.56294,45.8439],[15.57028,45.8492],[15.57164,45.85371],[15.57255,45.85357],[15.58222,45.84745],[15.59161,45.84674],[15.59388,45.84487],[15.60892,45.84063],[15.60979,45.83908],[15.61401,45.83735],[15.61284,45.83514],[15.61658,45.83571],[15.61767,45.83412],[15.62607,45.83158],[15.62909,45.83293],[15.63377,45.83008],[15.63294,45.82877],[15.63439,45.82556],[15.63751,45.82459],[15.63971,45.8217],[15.64227,45.82042],[15.64798,45.8251],[15.65073,45.8309],[15.66149,45.83739],[15.66523,45.84137],[15.67384,45.84068],[15.6848,45.84318],[15.69002,45.84221],[15.69495,45.8443],[15.69418,45.8477],[15.69626,45.84937],[15.69888,45.849],[15.70004,45.84628],[15.70353,45.84491],[15.70932,45.84652],[15.69797,45.8587],[15.69256,45.86114],[15.68498,45.8626],[15.67752,45.86888],[15.68284,45.87012],[15.6802,45.87153],[15.68298,45.87371],[15.68011,45.87522],[15.67954,45.87709],[15.68039,45.87784],[15.68174,45.87631],[15.68154,45.87782],[15.68399,45.87686],[15.68461,45.87805],[15.68213,45.87925],[15.68125,45.88256],[15.68376,45.8811],[15.68673,45.88167],[15.68598,45.87995],[15.68756,45.88085],[15.68912,45.88007],[15.6898,45.88076],[15.6885,45.88366],[15.69031,45.88307],[15.69211,45.88518],[15.68814,45.88493],[15.68726,45.88765],[15.68622,45.88705],[15.6872,45.88573],[15.68601,45.88563],[15.6837,45.88743],[15.6838,45.88873],[15.68026,45.89035],[15.68073,45.89141],[15.68386,45.89003],[15.68413,45.8921],[15.68241,45.89297],[15.68308,45.89649],[15.6808,45.8963],[15.6822,45.90138],[15.68021,45.90118],[15.67948,45.9045],[15.68406,45.90632],[15.68508,45.90846],[15.69118,45.91089],[15.69229,45.91208],[15.68999,45.91268],[15.69027,45.9134],[15.69299,45.91305],[15.69441,45.91469],[15.69857,45.91471],[15.70061,45.9158],[15.7008,45.91699],[15.69905,45.91743],[15.70003,45.91988],[15.70302,45.92112],[15.70561,45.91973],[15.7073,45.92183],[15.70655,45.9225],[15.70766,45.92317],[15.70599,45.92398],[15.70731,45.92556],[15.70335,45.92704],[15.70506,45.92775],[15.70666,45.92699],[15.70612,45.92844],[15.70754,45.92916],[15.70605,45.92885],[15.70505,45.93045],[15.70751,45.93171],[15.70903,45.9309],[15.70885,45.93245],[15.71013,45.93292],[15.70754,45.93363],[15.708,45.93536],[15.70958,45.93515],[15.70827,45.93589],[15.7092,45.93668],[15.70777,45.93883],[15.70951,45.93931],[15.71036,45.93805],[15.71194,45.93944],[15.71154,45.94095],[15.70898,45.94182],[15.70988,45.94229],[15.70844,45.94328],[15.70947,45.94479],[15.70821,45.94711],[15.70942,45.94783],[15.70793,45.94847],[15.71045,45.94968],[15.70929,45.95142],[15.71002,45.96201],[15.70766,45.96822],[15.7066,45.97585],[15.70568,45.97843],[15.70418,45.97912],[15.70604,45.98024],[15.70584,45.98103],[15.70443,45.98033],[15.70397,45.98233],[15.70541,45.98519],[15.70365,45.98434],[15.70265,45.98558],[15.70427,45.98746],[15.70195,45.98722],[15.69999,45.98894],[15.70155,45.98984],[15.70699,45.98947],[15.70644,45.99097],[15.70406,45.99072],[15.70065,45.9952],[15.7024,45.99583],[15.70484,45.99377],[15.70616,45.99419],[15.70386,45.99623],[15.69985,45.99703],[15.70235,45.99795],[15.70036,45.99941],[15.70207,46.00091],[15.70506,45.99889],[15.70476,46.00049],[15.70628,45.99996],[15.70684,46.00095],[15.70593,46.00169],[15.70798,46.00364],[15.712,46.00398],[15.71324,46.00712],[15.71147,46.00936],[15.71548,46.00942],[15.71418,46.01091],[15.71012,46.01186],[15.71234,46.01303],[15.71177,46.01453],[15.7096,46.01318],[15.70593,46.01435],[15.7079,46.01715],[15.71326,46.01723],[15.71124,46.0177],[15.71192,46.01942],[15.71387,46.01843],[15.71573,46.01988],[15.71334,46.01994],[15.71495,46.02142],[15.71261,46.02314],[15.71521,46.02742],[15.72022,46.02767],[15.71866,46.02932],[15.71694,46.02855],[15.71674,46.03193],[15.71806,46.0328],[15.71612,46.03525],[15.71856,46.03794],[15.71955,46.03708],[15.72366,46.03864],[15.72257,46.03901],[15.7244,46.04226],[15.72943,46.04122],[15.73044,46.03994],[15.73031,46.04206],[15.73249,46.04452],[15.729,46.04592],[15.72994,46.04712],[15.72718,46.04841],[15.72311,46.04818],[15.72481,46.04995],[15.72331,46.05027],[15.72379,46.05216],[15.71565,46.05725],[15.71438,46.0597],[15.71016,46.05826],[15.69801,46.06209],[15.69649,46.06148],[15.69048,46.06265],[15.68956,46.06348],[15.69108,46.06347],[15.69068,46.06482],[15.68715,46.06431],[15.68799,46.0659],[15.68627,46.06747],[15.68984,46.06724],[15.69071,46.06808],[15.68799,46.06804],[15.68692,46.06994],[15.68639,46.06759],[15.6831,46.06686],[15.68234,46.06794],[15.68468,46.069],[15.68297,46.0702],[15.68165,46.07016],[15.68138,46.06824],[15.68011,46.06904],[15.68154,46.06931],[15.68027,46.07147],[15.6787,46.07156],[15.67891,46.07037],[15.67619,46.07147],[15.67415,46.07055],[15.67028,46.07215],[15.67324,46.07331],[15.67058,46.07398],[15.66665,46.07344],[15.6654,46.07158],[15.66241,46.07033],[15.65837,46.07125],[15.65728,46.07388],[15.65894,46.0804],[15.65635,46.08089],[15.65481,46.08443],[15.65267,46.08253],[15.64862,46.08297],[15.64814,46.08401],[15.64917,46.08334],[15.65029,46.08446],[15.64857,46.08494],[15.64855,46.08719],[15.64252,46.08798],[15.64345,46.08719],[15.64217,46.08681],[15.64109,46.08419],[15.63569,46.08327],[15.63496,46.0851],[15.6327,46.08354],[15.63022,46.08591],[15.62727,46.08595],[15.62518,46.08849],[15.62115,46.08943],[15.62175,46.0908],[15.61885,46.09173],[15.62281,46.09361],[15.62533,46.09985],[15.61547,46.09931],[15.61613,46.10106],[15.61467,46.1014],[15.6139,46.10045],[15.61277,46.10279],[15.61441,46.10705],[15.61278,46.10761],[15.61016,46.10646],[15.6108,46.10777],[15.60864,46.10846],[15.60651,46.11173],[15.6047,46.11226],[15.60656,46.11333],[15.60517,46.11597],[15.60906,46.11753],[15.60833,46.1192],[15.60968,46.11977],[15.61021,46.12163],[15.6071,46.12325],[15.60833,46.12356],[15.60926,46.12233],[15.61066,46.12331],[15.61008,46.12446],[15.61168,46.12538],[15.61151,46.12677],[15.60933,46.12706],[15.61202,46.12904],[15.61123,46.13067],[15.61398,46.13166],[15.61314,46.13267],[15.61394,46.13322],[15.61124,46.13363],[15.61167,46.13645],[15.61034,46.1377],[15.6068,46.13749],[15.60674,46.13865],[15.60929,46.13826],[15.60866,46.1396],[15.60383,46.13952],[15.60428,46.14106],[15.5976,46.14346],[15.59814,46.14466],[15.59613,46.14635],[15.60017,46.14941],[15.61442,46.15323],[15.61085,46.15816],[15.60389,46.16162],[15.6067,46.16456],[15.60935,46.16544],[15.60751,46.16665],[15.60808,46.16754],[15.61327,46.16969],[15.6143,46.17151],[15.62068,46.17163],[15.63323,46.17671],[15.63176,46.17811],[15.63286,46.17878],[15.63425,46.17797],[15.63445,46.17928],[15.63575,46.17936],[15.63797,46.18208],[15.63826,46.18343],[15.63692,46.18366],[15.63597,46.18579],[15.63972,46.18607],[15.64032,46.18707],[15.64067,46.1859],[15.64482,46.18665],[15.64606,46.18768],[15.64524,46.18831],[15.64589,46.18966],[15.64891,46.1912],[15.64758,46.19454],[15.6489,46.19549],[15.64631,46.19885],[15.64744,46.20161],[15.64633,46.20266],[15.64805,46.20273],[15.64815,46.2046],[15.64715,46.20565],[15.64534,46.20547],[15.64603,46.20614],[15.64496,46.20703],[15.64304,46.20729],[15.64298,46.20612],[15.64115,46.20749],[15.64284,46.20955],[15.64166,46.2101],[15.64276,46.21211],[15.64584,46.2127],[15.64719,46.21717],[15.64914,46.21726],[15.6498,46.2163],[15.65037,46.21753],[15.65281,46.21725],[15.65383,46.21918],[15.65909,46.21848],[15.66013,46.22035],[15.66367,46.21979],[15.66257,46.22039],[15.66304,46.2213],[15.66409,46.22094],[15.66722,46.223],[15.67016,46.22276],[15.67285,46.22627],[15.68092,46.22702],[15.69043,46.22378],[15.70183,46.22236],[15.70969,46.22337],[15.71645,46.22192],[15.72151,46.2228],[15.72246,46.22184],[15.72412,46.22207],[15.72416,46.22318],[15.72826,46.22291],[15.72913,46.22097],[15.72604,46.2192],[15.73003,46.2162],[15.73578,46.21828],[15.73613,46.22037],[15.74108,46.22175],[15.75297,46.21996],[15.75459,46.2191],[15.75492,46.21696],[15.75043,46.21218],[15.75046,46.21091],[15.752,46.21016],[15.75091,46.20904],[15.75655,46.2071],[15.76795,46.2088],[15.76867,46.21002],[15.77864,46.2124],[15.78183,46.21525],[15.78569,46.2163],[15.78887,46.2197],[15.78859,46.22275],[15.78971,46.22461],[15.79407,46.22775],[15.79353,46.23617],[15.79563,46.23742],[15.7994,46.23762],[15.79885,46.23987],[15.80158,46.24262],[15.79758,46.24786],[15.7972,46.25125],[15.79244,46.25527],[15.79142,46.25922],[15.80076,46.25978],[15.81086,46.26207],[15.82284,46.26135],[15.83124,46.26254],[15.83968,46.26594],[15.84791,46.26538],[15.86333,46.26757],[15.86771,46.2708],[15.86691,46.27212],[15.86837,46.27381],[15.8667,46.27595],[15.87791,46.28067],[15.88431,46.28005],[15.89737,46.28382],[15.89947,46.28694],[15.89884,46.28842],[15.90118,46.28935],[15.90365,46.28697],[15.91281,46.28965],[15.91519,46.28772],[15.91544,46.28563],[15.91698,46.28535],[15.92199,46.28725],[15.92437,46.28654],[15.92863,46.2887],[15.93216,46.28864],[15.93403,46.29011],[15.94234,46.29007],[15.94832,46.29403],[15.95445,46.29413],[15.95733,46.2966],[15.9645,46.29756],[15.96698,46.2993],[15.96965,46.30581],[15.97294,46.30885],[15.97595,46.30904],[15.97715,46.31238],[15.97999,46.31109],[15.98274,46.31137],[15.98377,46.30886],[15.9861,46.31047],[15.98885,46.31051],[15.98893,46.31452],[15.99018,46.31473],[15.99515,46.31127],[15.99818,46.31084],[15.99806,46.30934],[16.00168,46.3074],[16.01013,46.31001],[16.01421,46.30894],[16.017,46.3119],[16.02188,46.31438],[16.02266,46.31728],[16.02077,46.31855],[16.02033,46.32108],[16.01799,46.32115],[16.02192,46.32455],[16.02836,46.32628],[16.02868,46.32758],[16.02664,46.32943],[16.02751,46.33153],[16.03062,46.3326],[16.03623,46.33711],[16.04254,46.33763],[16.04825,46.33503],[16.05315,46.33511],[16.06142,46.34188],[16.06671,46.3419],[16.06889,46.33984],[16.07231,46.341],[16.07313,46.34327],[16.07621,46.34422],[16.07743,46.34597],[16.07427,46.35496],[16.07506,46.35696],[16.07244,46.36141],[16.07236,46.36501],[16.06378,46.37343],[16.06107,46.3743],[16.06083,46.37619],[16.05568,46.37838],[16.05537,46.38014],[16.05235,46.38023],[16.05028,46.38209],[16.05255,46.3834],[16.05276,46.38549],[16.05547,46.38667],[16.0537,46.38833],[16.05814,46.39358],[16.08856,46.38859],[16.13788,46.40493],[16.14591,46.40515],[16.15591,46.40206],[16.16758,46.39342],[16.17394,46.39058],[16.17378,46.38767],[16.17554,46.38558],[16.18032,46.38509],[16.18659,46.38709],[16.19002,46.38629],[16.19004,46.38336],[16.18784,46.38055],[16.189,46.37785],[16.20281,46.38049],[16.20947,46.38436],[16.21445,46.38528],[16.21697,46.38376],[16.2179,46.38016],[16.21982,46.37861],[16.22413,46.38149],[16.22419,46.38474],[16.22542,46.38664],[16.23005,46.38773],[16.23463,46.38605],[16.23637,46.38405],[16.23682,46.38036],[16.23878,46.37868],[16.24355,46.38015],[16.24815,46.38006],[16.2654,46.37612],[16.2722,46.37837],[16.30162,46.3784],[16.30505,46.38631],[16.30303,46.38867],[16.3045,46.39114],[16.30412,46.39401],[16.30729,46.39474],[16.30756,46.39751],[16.30179,46.40102],[16.29895,46.40583],[16.2938,46.40829],[16.29119,46.40828],[16.28783,46.41192],[16.28319,46.41466],[16.27489,46.41448],[16.27237,46.41538],[16.27363,46.41583],[16.27259,46.41728],[16.27559,46.4193],[16.2748,46.42033],[16.27558,46.42219],[16.27363,46.42316],[16.27409,46.42675],[16.27299,46.42885],[16.27416,46.42937],[16.27012,46.43247],[16.26852,46.43609],[16.26588,46.43854],[16.26637,46.44094],[16.26442,46.44309],[16.26508,46.44478],[16.26365,46.44684],[16.26567,46.45178],[16.26442,46.45575],[16.2592,46.46103],[16.26004,46.46235],[16.25982,46.46894],[16.25825,46.47249],[16.25553,46.47341],[16.25534,46.47584],[16.25296,46.47794],[16.25167,46.48149],[16.2408,46.48481],[16.24221,46.48789],[16.2415,46.49822],[16.24629,46.49788],[16.25308,46.50107],[16.26029,46.50105],[16.26333,46.50486],[16.26693,46.5049],[16.26781,46.50972],[16.266,46.51535],[16.27072,46.51534],[16.27196,46.51783],[16.27373,46.51816],[16.27183,46.51678],[16.27508,46.51616],[16.27529,46.51396],[16.27836,46.51575],[16.28202,46.51526],[16.28364,46.51645],[16.28484,46.51449],[16.28574,46.51566],[16.28947,46.51478],[16.28969,46.51597],[16.29113,46.51606],[16.29336,46.51435],[16.29257,46.51345],[16.29383,46.51287],[16.29556,46.51476],[16.29507,46.51307],[16.29984,46.51171],[16.30228,46.51328],[16.30771,46.51383],[16.30723,46.51569],[16.30836,46.51663],[16.30763,46.51717],[16.31074,46.52036],[16.31454,46.52011],[16.31477,46.52344],[16.31324,46.52324],[16.31292,46.52443],[16.32312,46.5289],[16.33303,46.53003],[16.3356,46.52727],[16.33898,46.52778],[16.3419,46.53026],[16.34064,46.53377],[16.34114,46.53545],[16.34508,46.53771],[16.34527,46.53961],[16.34407,46.5411],[16.34495,46.54209],[16.35338,46.54377],[16.3558,46.54198],[16.35522,46.53847],[16.35906,46.53859],[16.35871,46.54266],[16.3526,46.54475],[16.35148,46.54598],[16.35179,46.54737],[16.35265,46.549],[16.3547,46.54881],[16.3555,46.54581],[16.35814,46.54481],[16.36104,46.54668],[16.36589,46.54665],[16.36713,46.54872],[16.36554,46.55281],[16.36751,46.55484],[16.37424,46.55275],[16.38036,46.55249],[16.38204,46.55133],[16.38202,46.54974],[16.37945,46.54788],[16.3694,46.54657],[16.37041,46.54365],[16.37377,46.54186],[16.37918,46.54064],[16.38079,46.54078],[16.38206,46.54256],[16.38451,46.5421],[16.38609,46.54045],[16.38679,46.53616],[16.38999,46.53567],[16.39633,46.53605],[16.39702,46.53752],[16.40065,46.53957],[16.40302,46.53916],[16.40409,46.53748],[16.40375,46.53501],[16.40162,46.53225],[16.40593,46.52953],[16.4071,46.52675],[16.41029,46.52689],[16.41214,46.52932],[16.4124,46.5302],[16.40807,46.53341],[16.40996,46.53403],[16.41494,46.53214],[16.41808,46.52889],[16.42265,46.52793],[16.42539,46.5278],[16.42388,46.5299],[16.42414,46.53153],[16.42677,46.533],[16.43068,46.53158],[16.43153,46.52724],[16.4349,46.52687],[16.4374,46.52845],[16.44089,46.52516],[16.43802,46.52279],[16.43758,46.51944],[16.43787,46.51735],[16.44061,46.51502],[16.44782,46.51619],[16.45095,46.5179],[16.4596,46.51636],[16.46159,46.5209],[16.46406,46.52141],[16.46544,46.51968],[16.46193,46.51605],[16.4617,46.51447],[16.46659,46.51268],[16.46552,46.5163],[16.46773,46.51778],[16.47027,46.51764],[16.47156,46.51478],[16.47011,46.51168],[16.47583,46.5115],[16.4785,46.51269],[16.48074,46.51072],[16.47944,46.50998],[16.48074,46.50888],[16.4882,46.50827],[16.48806,46.50634],[16.48671,46.50586],[16.4871,46.50506],[16.48529,46.50296],[16.48744,46.50075],[16.49083,46.50022],[16.49289,46.49756],[16.50879,46.49534],[16.50753,46.49213],[16.51427,46.49249],[16.51749,46.49097],[16.51812,46.48843],[16.51472,46.48553],[16.51429,46.48283],[16.52196,46.47817],[16.53243,46.48118],[16.54356,46.47579],[16.55466,46.48054],[16.55702,46.47962],[16.55758,46.4769],[16.56225,46.47713],[16.5625,46.47443],[16.56442,46.47343],[16.57506,46.47139],[16.57836,46.47234],[16.58552,46.47191],[16.58618,46.47417],[16.58906,46.47494],[16.59257,46.47474],[16.59552,46.47281],[16.5967,46.47591],[16.5809,46.47821],[16.57929,46.48105],[16.57014,46.48477],[16.56935,46.48798],[16.55257,46.49235],[16.53684,46.49996],[16.53148,46.50073],[16.52363,46.5053],[16.52529,46.50859],[16.52994,46.50754],[16.53323,46.51435],[16.5316,46.51532],[16.52579,46.51539],[16.5258,46.51837],[16.52438,46.51951],[16.5287,46.52312],[16.52865,46.52456],[16.53078,46.52514],[16.53002,46.52865],[16.53242,46.53154],[16.52883,46.53274],[16.52784,46.53488],[16.52006,46.53496],[16.51759,46.53631],[16.518,46.53766],[16.5167,46.53824],[16.51789,46.53882],[16.5169,46.53941],[16.51776,46.54053],[16.51605,46.54113],[16.51931,46.54629],[16.51822,46.54746],[16.51865,46.55268],[16.50834,46.56523],[16.50116,46.56241],[16.49711,46.56329],[16.49538,46.56244],[16.49309,46.56251],[16.49307,46.56445],[16.4902,46.5656],[16.48297,46.56598],[16.48199,46.56684],[16.48271,46.56971],[16.48186,46.57444],[16.48403,46.57756],[16.48335,46.57852],[16.47345,46.58754],[16.46887,46.58582],[16.46154,46.59693],[16.45568,46.59783],[16.45364,46.60071],[16.45219,46.60069],[16.44677,46.60778],[16.44557,46.61095],[16.43363,46.61319],[16.42486,46.61316],[16.41731,46.62033],[16.41249,46.62765],[16.40871,46.62858],[16.40756,46.63089],[16.40252,46.63215],[16.39964,46.63416],[16.39177,46.63373],[16.39203,46.63593],[16.38958,46.63854],[16.38977,46.64006],[16.39214,46.64082],[16.3859,46.64425],[16.38526,46.65389],[16.38741,46.6536],[16.3911,46.65514],[16.39142,46.65842],[16.39317,46.65915],[16.39371,46.66209],[16.39154,46.66373],[16.39592,46.6647],[16.40341,46.66123],[16.40312,46.65882],[16.40826,46.65964],[16.41985,46.65848],[16.4193,46.65983],[16.42064,46.66249],[16.41832,46.66454],[16.42332,46.66701],[16.42537,46.67042],[16.42526,46.67165],[16.42033,46.67412],[16.42088,46.67628],[16.42443,46.67741],[16.42558,46.67899],[16.4218,46.67937],[16.42135,46.68041],[16.4232,46.68623],[16.42863,46.69397],[16.424,46.69586],[16.41505,46.69544],[16.40272,46.69745],[16.38169,46.69805],[16.36892,46.70401],[16.37929,46.71088],[16.37983,46.71539],[16.37498,46.71714],[16.37537,46.71862],[16.37302,46.71904],[16.3708,46.72223],[16.36254,46.71676],[16.35878,46.71696],[16.35706,46.71424],[16.35273,46.72203],[16.35356,46.7248],[16.34722,46.72453],[16.35007,46.72675],[16.3504,46.72842],[16.34674,46.73608],[16.34291,46.73699],[16.33996,46.74184],[16.33469,46.74348],[16.33244,46.74858],[16.32517,46.75016],[16.32534,46.75111],[16.32301,46.75115],[16.32295,46.75284],[16.31864,46.75414],[16.31874,46.7556],[16.32183,46.75832],[16.32117,46.75956],[16.32261,46.76328],[16.32211,46.76456],[16.3263,46.76749],[16.32929,46.775],[16.33056,46.77519],[16.32964,46.77814],[16.32302,46.7773],[16.31219,46.77797],[16.31102,46.78516],[16.31302,46.79406],[16.31277,46.79731],[16.3154,46.79775],[16.31786,46.80064],[16.33399,46.80206],[16.33989,46.80398],[16.34136,46.81115],[16.34137,46.8136],[16.33995,46.81472],[16.3403,46.82181],[16.34375,46.822],[16.34465,46.82962],[16.35083,46.83005],[16.35053,46.83239],[16.34819,46.83557],[16.3477,46.84071],[16.34317,46.84321],[16.33916,46.84318],[16.34034,46.84689],[16.33574,46.84671],[16.32958,46.84464],[16.32783,46.84749],[16.32138,46.85172],[16.31821,46.85639],[16.30852,46.85638],[16.30768,46.85658],[16.30865,46.85941],[16.3015,46.85951],[16.29955,46.86295],[16.29813,46.86261],[16.29768,46.8663],[16.29512,46.87049],[16.29144,46.87279],[16.2653,46.87183],[16.2518,46.87443],[16.24619,46.87447],[16.24211,46.87627],[16.23323,46.87667],[16.22771,46.87344],[16.22669,46.87105],[16.22519,46.87194],[16.21576,46.86849],[16.20924,46.86971],[16.20369,46.8693],[16.19774,46.86696],[16.18568,46.86576],[16.17643,46.85732],[16.16537,46.86008],[16.16245,46.85936],[16.15609,46.85371],[16.15046,46.85605],[16.14851,46.85465],[16.14007,46.85485],[16.13687,46.85655],[16.12657,46.85691],[16.12478,46.86301],[16.11705,46.86363],[16.11684,46.86713],[16.11389,46.86906],[16.11135,46.8692],[16.10675,46.86521],[16.10122,46.86281],[16.09998,46.86071],[16.09807,46.86057],[16.09595,46.86414],[16.09193,46.86458],[16.0897,46.8633],[16.08786,46.85938],[16.08397,46.85623],[16.08186,46.85585],[16.0793,46.85276],[16.07146,46.85308],[16.06959,46.85091],[16.06564,46.84988],[16.06595,46.84606],[16.05838,46.83866],[16.05463,46.84055],[16.0512,46.83725],[16.04296,46.84077],[16.04074,46.83964],[16.03992,46.83613],[16.03514,46.83492],[16.03533,46.83408],[16.03238,46.8327],[16.03223,46.83487],[16.03385,46.83547],[16.02987,46.83995],[16.02733,46.84113],[16.02698,46.84012],[16.02425,46.84],[16.01834,46.83634],[16.01351,46.8359],[16.00766,46.83064],[16.00148,46.83153],[15.99614,46.83537],[15.99101,46.83283],[15.98906,46.83048],[15.98962,46.82948],[15.98538,46.8273],[15.98707,46.82487],[15.98798,46.8196],[15.99122,46.81807],[15.99814,46.80963],[15.99236,46.80309],[15.99403,46.79349],[15.99319,46.7881],[15.9896,46.78069],[15.99006,46.77873],[15.9887,46.77637],[15.99028,46.77252],[15.98872,46.76944],[15.98919,46.76381],[15.98821,46.76142],[15.98976,46.75779],[15.98475,46.75221],[15.98654,46.75039],[15.98715,46.74655],[15.98873,46.74432],[15.98812,46.74087],[15.9917,46.73749],[15.99344,46.73101],[15.99609,46.72993],[16.0036,46.72308],[16.00175,46.71932],[16.0037,46.71708],[16.00811,46.71609],[16.01184,46.71755],[16.0144,46.71687],[16.01681,46.71588],[16.02137,46.71087],[16.02814,46.71227],[16.02982,46.71161],[16.02729,46.70564],[16.02944,46.70407],[16.0288,46.70086],[16.03657,46.69513],[16.0425,46.68589],[16.03955,46.67639],[16.03905,46.67202],[16.04079,46.66864],[16.04013,46.66133],[16.03808,46.65614],[16.0225,46.66227],[16.01496,46.66317],[16.01081,46.66489],[16.00691,46.66863],[16.00358,46.67654],[15.99836,46.68058],[15.98363,46.68461],[15.94707,46.68906],[15.94001,46.6924],[15.92055,46.70591],[15.91168,46.71006],[15.89282,46.71398],[15.88029,46.71883],[15.8713,46.72091],[15.85881,46.72226],[15.83969,46.72239],[15.82161,46.72007],[15.8007,46.71513],[15.76845,46.69901],[15.76202,46.69936],[15.75378,46.6979],[15.73933,46.69994],[15.72156,46.69583],[15.69578,46.69882],[15.68372,46.70452],[15.67631,46.70674],[15.64999,46.70576],[15.65113,46.70261],[15.65408,46.69945],[15.65365,46.6921],[15.65267,46.69117],[15.64723,46.69166],[15.64326,46.69017],[15.64123,46.69242],[15.6387,46.69142],[15.63441,46.68835],[15.6341,46.68604],[15.63216,46.68459],[15.63404,46.68119],[15.63148,46.68121],[15.62998,46.68004],[15.62296,46.67957],[15.62176,46.68071],[15.61988,46.67982],[15.6152,46.68243],[15.61371,46.68222],[15.61321,46.68342],[15.61142,46.68209],[15.60957,46.68302],[15.60535,46.68115],[15.60392,46.68386],[15.6056,46.68545],[15.60504,46.68664],[15.60855,46.68767],[15.60401,46.68816],[15.60018,46.69005],[15.59512,46.69001],[15.58994,46.68609],[15.59072,46.68427],[15.59003,46.68329],[15.58632,46.68426],[15.58232,46.68195],[15.57759,46.68317],[15.57807,46.68093],[15.5747,46.68148],[15.57325,46.68002],[15.57015,46.68091],[15.56955,46.67993],[15.56811,46.68031],[15.5674,46.67534],[15.56266,46.67503],[15.55994,46.67353],[15.5592,46.6711],[15.55323,46.67255],[15.55304,46.6712],[15.55102,46.67259],[15.54789,46.67084],[15.5472,46.66927],[15.54626,46.67016],[15.54368,46.66929],[15.54681,46.66689],[15.54603,46.66474],[15.54798,46.6649],[15.5485,46.65885],[15.55352,46.65141],[15.55146,46.6477],[15.5468,46.64874],[15.54387,46.64609],[15.54562,46.64244],[15.54697,46.64281],[15.5471,46.64188],[15.55109,46.64027],[15.54983,46.63849],[15.54605,46.63702],[15.545,46.6348],[15.54558,46.63315],[15.54353,46.63222],[15.54244,46.62995],[15.54068,46.63384],[15.53711,46.63392],[15.53029,46.63012],[15.52958,46.62831],[15.52564,46.62664],[15.52287,46.62307],[15.52019,46.62158],[15.51546,46.62338],[15.51179,46.62181],[15.51011,46.6201],[15.51164,46.61877],[15.51181,46.61661],[15.50453,46.61601],[15.50404,46.61429],[15.50227,46.61391],[15.50035,46.61471],[15.50064,46.61756],[15.4996,46.61818],[15.48818,46.62072],[15.4837,46.61878],[15.47953,46.61377],[15.47474,46.61205],[15.46211,46.61525],[15.46218,46.61786],[15.46386,46.61958],[15.46367,46.62302],[15.46215,46.62594],[15.45966,46.62619],[15.45717,46.62925],[15.45506,46.63012],[15.45588,46.63128],[15.45514,46.63286],[15.45577,46.63767],[15.45685,46.63898],[15.44963,46.64235],[15.43935,46.63986],[15.43366,46.64243],[15.43018,46.64666],[15.42171,46.64723],[15.42173,46.64998],[15.42315,46.65085],[15.42332,46.65269],[15.42038,46.6549],[15.41407,46.65554],[15.39433,46.65191],[15.38848,46.65295],[15.38344,46.65151],[15.3759,46.65189],[15.37229,46.64974],[15.36813,46.6513],[15.35572,46.65145],[15.35537,46.65364],[15.35374,46.65499],[15.34767,46.65367],[15.3442,46.65085],[15.3405,46.65101],[15.33777,46.65317],[15.33186,46.65236],[15.32799,46.65321],[15.32165,46.64803],[15.31943,46.64785],[15.31555,46.64907],[15.31131,46.65214],[15.3011,46.65323],[15.29401,46.65249],[15.28953,46.64945],[15.28408,46.64795],[15.28223,46.64522],[15.27737,46.64362],[15.26252,46.64472],[15.25347,46.6421],[15.24401,46.64177],[15.24134,46.64007],[15.2359,46.63938],[15.22429,46.64344],[15.21812,46.6422],[15.20613,46.64521],[15.19735,46.64574],[15.19192,46.64861],[15.19163,46.65072],[15.18934,46.65278],[15.18226,46.65614],[15.16705,46.65407],[15.16454,46.6573],[15.16218,46.65775],[15.15594,46.65566],[15.15262,46.65824],[15.14534,46.65984],[15.1432,46.65941],[15.14221,46.65717],[15.14019,46.65639],[15.13785,46.65777],[15.13446,46.65681],[15.13119,46.6506],[15.12856,46.65001],[15.12638,46.65086],[15.12644,46.653],[15.12132,46.65452],[15.12153,46.65599],[15.11868,46.65378],[15.11468,46.65597],[15.11617,46.65698],[15.11063,46.65967],[15.10749,46.65969],[15.10039,46.65605],[15.09884,46.65344],[15.08792,46.65199],[15.08904,46.6514],[15.08242,46.64517],[15.07479,46.64977],[15.07063,46.64988],[15.06508,46.65201],[15.04104,46.65177],[15.03957,46.65039],[15.03402,46.64893],[15.02965,46.64494],[15.01616,46.64083],[15.01174,46.63471],[15.00787,46.63343],[15.00434,46.62884],[14.99465,46.62124],[14.99439,46.61777],[14.99618,46.61586],[14.99499,46.61387],[14.98669,46.60846],[14.98694,46.60633],[14.98459,46.60363],[14.97938,46.6014],[14.97479,46.60845],[14.97386,46.61713],[14.97101,46.62399],[14.96707,46.62785],[14.95567,46.63272],[14.94335,46.62318],[14.94179,46.62075],[14.93993,46.61957],[14.93698,46.62017],[14.93355,46.61632],[14.93124,46.61532],[14.92828,46.61918],[14.92288,46.62089],[14.92042,46.61627],[14.92261,46.61101],[14.92175,46.60664],[14.92362,46.60475],[14.92305,46.60326],[14.91957,46.60208],[14.91603,46.60558],[14.91381,46.60634],[14.91354,46.60425],[14.90449,46.60487],[14.90414,46.60715],[14.9002,46.60954],[14.90088,46.61204],[14.89638,46.61018],[14.88981,46.61265],[14.88643,46.61273],[14.87965,46.61125],[14.88028,46.60979],[14.87867,46.6083],[14.8704,46.60722],[14.86655,46.60328],[14.8665,46.60062],[14.86757,46.59939],[14.86477,46.5933],[14.86146,46.59388],[14.85652,46.59214],[14.85618,46.58676],[14.85214,46.58255],[14.85204,46.58065],[14.84457,46.57764],[14.84026,46.57276],[14.83792,46.568],[14.84017,46.5659],[14.83631,46.56574],[14.83451,46.56322],[14.83721,46.56118],[14.83809,46.55865],[14.83434,46.55368],[14.83457,46.55226],[14.83196,46.55117],[14.8323,46.54853],[14.82606,46.54805],[14.82554,46.54574],[14.82306,46.5459],[14.82302,46.54325],[14.82772,46.54228],[14.83186,46.53932],[14.82294,46.53559],[14.82269,46.53233],[14.82519,46.52976],[14.82253,46.52726],[14.82206,46.52459],[14.8176,46.52198],[14.81931,46.51949],[14.81812,46.51732],[14.81914,46.5134],[14.81861,46.50938],[14.80601,46.50758],[14.78547,46.49948],[14.78092,46.50144],[14.77978,46.50041],[14.77682,46.5046],[14.76002,46.50453],[14.74833,46.4976],[14.74514,46.50324],[14.7413,46.50521],[14.73769,46.50312],[14.73515,46.49752],[14.7284,46.49033],[14.72773,46.49279],[14.72187,46.49824],[14.71476,46.49996],[14.71328,46.49493],[14.71059,46.49266],[14.71169,46.49168],[14.71172,46.48939],[14.70924,46.48086],[14.70213,46.48042],[14.70139,46.47815],[14.69757,46.47448],[14.70114,46.47163],[14.70108,46.46921],[14.70238,46.46732],[14.69939,46.46369],[14.68934,46.46441],[14.6832,46.46789],[14.67863,46.46271],[14.67564,46.4618],[14.6793,46.45781],[14.67615,46.45423],[14.67479,46.45068],[14.67102,46.45107],[14.66662,46.44996],[14.66317,46.44619],[14.65966,46.4445],[14.65238,46.44499],[14.64396,46.44283],[14.64085,46.44301],[14.63148,46.43948],[14.62218,46.43869],[14.61309,46.43978],[14.60745,46.43908],[14.6047,46.43694],[14.59597,46.43682],[14.59633,46.43411],[14.5954,46.43322],[14.58643,46.42975],[14.5838,46.41904],[14.58254,46.41813],[14.58327,46.41586],[14.58865,46.41438],[14.58939,46.40959],[14.58832,46.40565],[14.58656,46.4042],[14.58758,46.39596],[14.58614,46.39225],[14.58396,46.38839],[14.57866,46.38411],[14.57852,46.3832],[14.58168,46.38166],[14.57815,46.37704],[14.56614,46.37503],[14.56517,46.37245],[14.56412,46.3723],[14.55686,46.3765],[14.55732,46.3776],[14.5559,46.37868],[14.55681,46.38516],[14.55068,46.39607],[14.54214,46.40362],[14.54048,46.40634],[14.53987,46.41159],[14.53615,46.41425],[14.53206,46.41461],[14.52212,46.42382],[14.52176,46.42726],[14.51008,46.42595],[14.50556,46.42422],[14.50319,46.42293],[14.50262,46.4203],[14.49754,46.41886],[14.49221,46.41292],[14.48448,46.41545],[14.47889,46.41351],[14.4779,46.41861],[14.47643,46.41981],[14.47343,46.41967],[14.46675,46.42197],[14.45786,46.42107],[14.4515,46.42247],[14.44676,46.42159],[14.44263,46.42306],[14.44145,46.42555],[14.44215,46.42807],[14.43773,46.43081],[14.43513,46.4312],[14.43014,46.4361],[14.43213,46.43937],[14.4387,46.44078],[14.43837,46.4429],[14.43473,46.44277],[14.42961,46.44704],[14.42351,46.44536],[14.41232,46.44546],[14.40958,46.44637],[14.40884,46.44536],[14.39636,46.44394],[14.38207,46.43912],[14.36849,46.43982],[14.36448,46.43821],[14.35649,46.43874],[14.35202,46.4373],[14.34406,46.43737],[14.33219,46.43191],[14.32617,46.43101],[14.31665,46.43154],[14.30815,46.43063],[14.30306,46.4354],[14.30282,46.43743],[14.30157,46.43832],[14.29437,46.43937],[14.2832,46.4435],[14.27177,46.4417],[14.2645,46.43827],[14.26171,46.43927],[14.25645,46.43902],[14.24856,46.43449],[14.2372,46.43222],[14.22701,46.43587],[14.22374,46.44056],[14.21929,46.44324],[14.21477,46.44302],[14.21249,46.43991],[14.20691,46.43933],[14.19578,46.44106],[14.19109,46.44393],[14.1913,46.44216],[14.18934,46.44065],[14.18307,46.43822],[14.18053,46.4383],[14.17649,46.43396],[14.16345,46.43357],[14.15464,46.43567],[14.15253,46.4373],[14.15129,46.44301],[14.14824,46.44311],[14.14437,46.44576],[14.14213,46.44606],[14.14035,46.44826],[14.13813,46.44856],[14.13502,46.45098],[14.13597,46.45402],[14.1352,46.45857],[14.12834,46.46506],[14.12948,46.46643],[14.12441,46.472],[14.12038,46.47416],[14.12152,46.47661],[14.10566,46.47993],[14.10186,46.47894],[14.09927,46.48007],[14.09959,46.48192],[14.09154,46.4857],[14.07048,46.48721],[14.06532,46.48954],[14.05829,46.49],[14.05135,46.49315],[14.04056,46.49302],[14.03437,46.49097],[14.03203,46.48938],[14.03105,46.48686],[14.02602,46.48597],[14.02439,46.48338],[14.02093,46.48164],[14.0065,46.48136],[13.99792,46.48696],[13.98953,46.48833],[13.98876,46.4929],[13.97564,46.49827],[13.96965,46.49682],[13.96114,46.50072],[13.95981,46.50292],[13.95254,46.5063],[13.95252,46.50736],[13.94858,46.50805],[13.94296,46.51148],[13.92803,46.5138],[13.92315,46.51864],[13.91197,46.52114],[13.90122,46.51881],[13.88198,46.52277],[13.8788,46.51913],[13.87144,46.51921],[13.86704,46.51802],[13.86237,46.51508],[13.85529,46.51386],[13.83793,46.51603],[13.83434,46.51842],[13.8313,46.51867],[13.82862,46.51693],[13.8292,46.51526],[13.8271,46.51359],[13.82206,46.51269],[13.82085,46.51051],[13.81732,46.51011],[13.81534,46.50761],[13.8122,46.5062],[13.80459,46.50701],[13.79474,46.50532],[13.79199,46.50792],[13.78976,46.50773],[13.78503,46.5107],[13.78016,46.51211],[13.77806,46.51739],[13.77636,46.5176],[13.77436,46.51601],[13.76772,46.5156],[13.76635,46.5145],[13.75411,46.51804],[13.7374,46.51708],[13.72623,46.522],[13.72584,46.52314],[13.71408,46.52299],[13.71708,46.51425],[13.7158,46.5098],[13.7166,46.50676],[13.70385,46.50157],[13.7025,46.49875],[13.70385,46.49785],[13.70301,46.49579],[13.70499,46.495],[13.70553,46.492],[13.70413,46.49086],[13.70421,46.4869],[13.70315,46.4848],[13.71015,46.48179],[13.70722,46.47822],[13.70095,46.47441],[13.69942,46.4711],[13.69365,46.46788],[13.69374,46.4647],[13.69644,46.46264],[13.69883,46.4568],[13.69424,46.44951],[13.69371,46.44384],[13.68926,46.43998],[13.68526,46.43953],[13.68404,46.43747],[13.67636,46.44039],[13.67151,46.4396],[13.66515,46.44076],[13.65467,46.43947],[13.6535,46.44134],[13.65407,46.44375],[13.6494,46.44564],[13.64904,46.44671],[13.6419,46.44404],[13.63694,46.44379],[13.63471,46.44199],[13.63083,46.44174],[13.62595,46.44329],[13.62337,46.44206],[13.62192,46.44275],[13.61632,46.43925],[13.61064,46.44166],[13.60713,46.43939],[13.60495,46.44012],[13.60034,46.43824],[13.59775,46.43938],[13.59528,46.43735],[13.59163,46.43644],[13.58786,46.43163],[13.5849,46.43056],[13.58237,46.43115],[13.58224,46.42905],[13.57941,46.42685],[13.57859,46.42478],[13.57803,46.41669],[13.57673,46.41418],[13.57792,46.40871],[13.57476,46.40855],[13.57335,46.40477],[13.56554,46.39797],[13.56358,46.39892],[13.55942,46.39863],[13.55365,46.39305],[13.54155,46.39147],[13.53869,46.3861],[13.5335,46.38537],[13.52749,46.38814],[13.52184,46.38456],[13.51692,46.38297],[13.518,46.37775],[13.51695,46.37678],[13.5089,46.37684],[13.49813,46.37078],[13.48891,46.36974],[13.48625,46.37049],[13.48175,46.36863],[13.47603,46.36345],[13.46975,46.36103],[13.46733,46.36059],[13.4605,46.36291],[13.45224,46.36308],[13.43875,46.36001],[13.43699,46.35431],[13.44239,46.34863],[13.44139,46.3465],[13.44418,46.34433],[13.44452,46.34024],[13.44945,46.33483],[13.4481,46.33318],[13.44902,46.33288],[13.44826,46.33113],[13.44395,46.33028],[13.43963,46.32266],[13.4367,46.32151],[13.42552,46.32252],[13.41595,46.31663],[13.41567,46.30979],[13.41786,46.30756],[13.41766,46.30552],[13.40647,46.30571],[13.40288,46.30014],[13.37549,46.29823],[13.37547,46.2977]],[[15.30021,45.69252],[15.30284,45.69544],[15.30309,45.69372],[15.30427,45.69485],[15.30314,45.69559],[15.30397,45.69652],[15.30552,45.69503],[15.30545,45.69334],[15.30023,45.69246],[15.30021,45.69252]],[[15.30146,45.68968],[15.30647,45.69119],[15.30327,45.68916],[15.30149,45.68964],[15.30146,45.68968]]]}}]}